{"type":"FeatureCollection","features":[{"type":"Feature","geometry":{"type":"Polygon","coordinates":[[[-100.3282942,25.691944],[-100.328207,25.6919351],[-100.3282153,25.6918546],[-100.3279105,25.6918233],[-100.3278509,25.692404],[-100.3281068,25.6924303],[-100.3281158,25.6923422],[-100.3282519,25.6923561],[-100.3282942,25.691944]]]},"properties":{"name":"Antigua estación de ferrocarriles nacionales de Mexico","@id":"way/31065463","area":"yes","building":"yes","disused:railway":"station","public_transport":"station"}},{"type":"Feature","geometry":{"type":"Polygon","coordinates":[[[-100.2917605,25.7714353],[-100.2917556,25.7711183],[-100.2910578,25.7711271],[-100.2910627,25.771444],[-100.2917605,25.7714353]]]},"properties":{"name":"Central de Autobuses Greyhound","@id":"way/156272662","addr:city":"General Escobedo","addr:housenumber":171,"addr:neighbourhood":"Hacienda El Cañada","addr:postcode":66054,"addr:state":"Nuevo León","addr:street":"Carretera a Colombia","amenity":"bus_station","building":"yes","bus":"yes","internet_access":"yes","internet_access:fee":"customers","operator":"Greyhound Lines, Inc.","public_transport":"station"}},{"type":"Feature","geometry":{"type":"Polygon","coordinates":[[[-100.4461677,25.9758805],[-100.4459668,25.9757382],[-100.4456378,25.9761133],[-100.4458388,25.9762557],[-100.4461677,25.9758805]]]},"properties":{"name":"Terminal de Autobuses de Hidalgo","@id":"way/307662786","addr:city":"Hidalgo","addr:postcode":65600,"addr:street":"Calle Allende","amenity":"bus_station","building":"commercial","bus":"yes","public_transport":"station"}},{"type":"Feature","geometry":{"type":"Polygon","coordinates":[[[-100.3670465,25.6747219],[-100.3678858,25.6746525],[-100.3678835,25.6746145],[-100.3678726,25.6744394],[-100.3678697,25.6743926],[-100.3678627,25.6742791],[-100.3678035,25.6743057],[-100.3673184,25.6745231],[-100.3670383,25.6746487],[-100.3670465,25.6747219]]]},"properties":{"name":"SENDA San Gerónimo","@id":"way/343560023","amenity":"bus_station","bus":"yes","operator":"SENDA","public_transport":"station"}},{"type":"Feature","geometry":{"type":"Polygon","coordinates":[[[-100.3215467,25.6877557],[-100.3215672,25.6869536],[-100.3215013,25.6868349],[-100.318668,25.6864819],[-100.3186653,25.6865023],[-100.3186016,25.6869574],[-100.3184821,25.6878509],[-100.3193882,25.6879471],[-100.3193961,25.6878642],[-100.3202363,25.6876986],[-100.3204187,25.6876512],[-100.3215467,25.6877557]]]},"properties":{"name":"Central de Autobuses de Monterrey","@id":"way/346000265","amenity":"bus_station","area":"yes","contact:facebook":"https://www.facebook.com/centraldeautobusesmonterrey/?locale=es_LA","contact:phone":"+52 81 8375 3148","public_transport":"station"}},{"type":"Feature","geometry":{"type":"Polygon","coordinates":[[[-100.4592031,25.6935636],[-100.4603037,25.6940221],[-100.4605307,25.6935657],[-100.4599959,25.6933788],[-100.4593919,25.6931793],[-100.4592031,25.6935636]]]},"properties":{"name":"RUTA 400","@id":"way/352403536","amenity":"bus_station","bus":"yes","public_transport":"station","source":"local knwoledge 2015"}},{"type":"Feature","geometry":{"type":"Polygon","coordinates":[[[-100.1115126,25.376143],[-100.1114378,25.3759278],[-100.1119516,25.3758181],[-100.1118675,25.3755565],[-100.1111436,25.3757211],[-100.111237,25.3761894],[-100.1115126,25.376143]]]},"properties":{"name":"Central Autobuses Monterrey-Alamo","@id":"way/365182039","area":"yes","operator":"Autobuses Monterrey-Villa de Santiago","public_transport":"station"}},{"type":"Feature","geometry":{"type":"Polygon","coordinates":[[[-100.1663782,25.7572567],[-100.1661221,25.7562681],[-100.1637031,25.7564695],[-100.1638454,25.7577693],[-100.1663782,25.7572567]]]},"properties":{"@id":"way/399534933","amenity":"bus_station","bus":"yes","public_transport":"station"}},{"type":"Feature","geometry":{"type":"Polygon","coordinates":[[[-100.2562685,25.683206],[-100.2562623,25.6830338],[-100.2555768,25.6830658],[-100.2555891,25.6832324],[-100.2556275,25.6832309],[-100.2562685,25.683206]]]},"properties":{"name":"Transportes Hispanos","@id":"way/431975535","amenity":"bus_station","bus":"yes","public_transport":"station"}},{"type":"Feature","geometry":{"type":"Polygon","coordinates":[[[-100.2698458,25.6840535],[-100.2698418,25.6831772],[-100.2697776,25.6831658],[-100.2696926,25.6831507],[-100.2693046,25.6830816],[-100.2691632,25.6830564],[-100.2691636,25.683211],[-100.2691642,25.6833817],[-100.2691645,25.6834965],[-100.2691659,25.6839435],[-100.2690385,25.6839677],[-100.2690297,25.6842094],[-100.2686133,25.6843327],[-100.2686167,25.6843786],[-100.2698458,25.6840535]]]},"properties":{"@id":"way/435395406","amenity":"bus_station","bus":"yes","public_transport":"station"}},{"type":"Feature","geometry":{"type":"Polygon","coordinates":[[[-100.2758786,25.6820343],[-100.2758943,25.6819803],[-100.2754939,25.6818544],[-100.2753996,25.681878],[-100.2753243,25.6820319],[-100.2754576,25.6820732],[-100.2754775,25.6820278],[-100.2756592,25.682076],[-100.2756937,25.6819856],[-100.2758786,25.6820343]]]},"properties":{"name":"viva aerobus","@id":"way/437686614","amenity":"bus_station","bus":"yes","public_transport":"station"}},{"type":"Feature","geometry":{"type":"Polygon","coordinates":[[[-100.4424056,25.6754101],[-100.4425288,25.6753283],[-100.4424751,25.6752967],[-100.4425124,25.6752588],[-100.4424116,25.6752055],[-100.4423473,25.6752941],[-100.4423973,25.6753256],[-100.442352,25.6753785],[-100.4424056,25.6754101]]]},"properties":{"name":"Omnibus México","@id":"way/449554277","amenity":"bus_station","building":"yes"}},{"type":"Feature","geometry":{"type":"Polygon","coordinates":[[[-100.3002609,25.745633],[-100.3003458,25.745611],[-100.3002931,25.7455485],[-100.3003709,25.7453383],[-100.3003226,25.7453214],[-100.3001081,25.7453721],[-100.3001295,25.7454277],[-100.3002475,25.7454107],[-100.3002127,25.7455026],[-100.300159,25.7454832],[-100.3001242,25.745575],[-100.3002261,25.7455992],[-100.3002083,25.7456441],[-100.3002609,25.745633]]]},"properties":{"@id":"way/450679079","amenity":"bus_station","bus":"yes","public_transport":"station"}},{"type":"Feature","geometry":{"type":"Polygon","coordinates":[[[-100.4210064,25.770424],[-100.4210578,25.7702222],[-100.4211372,25.7702096],[-100.4212212,25.7701465],[-100.4212633,25.7700539],[-100.4213053,25.7699025],[-100.4213528,25.7699],[-100.4218637,25.7685393],[-100.4218653,25.7684512],[-100.4218189,25.7683766],[-100.4217723,25.7683591],[-100.4215061,25.768439],[-100.4215108,25.7685441],[-100.4214968,25.7686619],[-100.4214361,25.7687628],[-100.4213427,25.768868],[-100.4214267,25.7689479],[-100.42131,25.7690698],[-100.4212166,25.7692339],[-100.4211559,25.7694231],[-100.4211325,25.7696124],[-100.4208803,25.7703946],[-100.4210064,25.770424]]]},"properties":{"name":"Terminal Lincoln","@id":"way/508513337","amenity":"bus_station","building":"yes","bus":"yes","network":"Ecovía","operator":"Ecovía","public_transport":"station"}},{"type":"Feature","geometry":{"type":"Polygon","coordinates":[[[-100.5051898,26.8422942],[-100.5051812,26.8422039],[-100.5052268,26.8422006],[-100.5052182,26.8421291],[-100.5051775,26.8421324],[-100.505175,26.8420597],[-100.5051046,26.8420575],[-100.505117,26.8422942],[-100.5051898,26.8422942]]]},"properties":{"name":"Estación Candela","@id":"way/613886894","building":"yes","public_transport":"station","railway":"station","train":"yes"}},{"type":"Feature","geometry":{"type":"Polygon","coordinates":[[[-100.4695587,25.6757695],[-100.4698405,25.6750606],[-100.4690472,25.6748045],[-100.4687654,25.6755134],[-100.4695587,25.6757695]]]},"properties":{"@id":"way/618085591","amenity":"bus_station","bus":"yes","public_transport":"station"}},{"type":"Feature","geometry":{"type":"Polygon","coordinates":[[[-100.4074138,25.6780911],[-100.4072891,25.6780657],[-100.4071858,25.6780476],[-100.4071889,25.6780536],[-100.4072663,25.6780911],[-100.4073467,25.6781104],[-100.4074138,25.6780911]]]},"properties":{"name":"parada de bus","@id":"way/621789423","bus":"yes","highway":"bus_stop","public_transport":"platform"}},{"type":"Feature","geometry":{"type":"Polygon","coordinates":[[[-100.4058554,25.6783521],[-100.4059091,25.6783691],[-100.40596,25.6782434],[-100.4059037,25.6782216],[-100.4058554,25.6783521]]]},"properties":{"name":"parada de bus","@id":"way/621789424","bus":"yes","highway":"bus_stop","public_transport":"platform"}},{"type":"Feature","geometry":{"type":"Polygon","coordinates":[[[-100.0406882,25.7901699],[-100.0404352,25.7889505],[-100.0392247,25.7891751],[-100.0392328,25.7893288],[-100.0393565,25.7894451],[-100.0394524,25.7895301],[-100.0392771,25.7897621],[-100.0392324,25.7898314],[-100.0392513,25.7899293],[-100.0392532,25.7899438],[-100.0406882,25.7901699]]]},"properties":{"name":"Ruta 111 Pesquería Directo","@id":"way/651504606","addr:housenumber":111,"addr:street":"Libramiento Pesquería","amenity":"bus_station","bus":"yes","network":"Rutas del Oriente de Monterrey","operator":"Konect Logística Integrada Pesquería","public_transport":"station"}},{"type":"Feature","geometry":{"type":"Polygon","coordinates":[[[-100.2456905,25.6798369],[-100.2456865,25.6798016],[-100.2452346,25.6798432],[-100.2452385,25.6798784],[-100.2456905,25.6798369]]]},"properties":{"name":"Exposición","@id":"way/651667678","amenity":"bus_station","building":"yes","bus":"yes","network":"Transmetro","operator":"Sistema de Transporte Colectivo Metrorrey","public_transport":"station"}},{"type":"Feature","geometry":{"type":"Polygon","coordinates":[[[-100.2697369,25.7035071],[-100.2697369,25.7035002],[-100.2697374,25.7034308],[-100.2697375,25.7034125],[-100.2690775,25.7034093],[-100.2690774,25.7034253],[-100.269077,25.7034864],[-100.2690772,25.703491],[-100.2697369,25.7035071]]]},"properties":{"name":"Churubusco","@id":"way/651669448","amenity":"bus_station","building":"yes","bus":"yes","internet_access":"yes","internet_access:fee":"no","network":"Ecovía","operator":"Ecovía","public_transport":"station"}},{"type":"Feature","geometry":{"type":"Polygon","coordinates":[[[-100.2607732,25.7033215],[-100.2607732,25.7033015],[-100.2607732,25.7032459],[-100.2607732,25.7032355],[-100.2603742,25.7032327],[-100.2603741,25.7032431],[-100.2603737,25.7033011],[-100.2603742,25.7033188],[-100.2607732,25.7033215]]]},"properties":{"name":"Vidriería","@id":"way/655702821","amenity":"bus_station","building":"yes","bus":"yes","network":"Ecovía","operator":"Ecovía","public_transport":"station"}},{"type":"Feature","geometry":{"type":"Polygon","coordinates":[[[-100.2545116,25.7032334],[-100.2545118,25.70321],[-100.2545124,25.7031566],[-100.2545126,25.7031382],[-100.2541386,25.7031327],[-100.2541386,25.7031534],[-100.2541386,25.7032051],[-100.2541386,25.7032261],[-100.2545116,25.7032334]]]},"properties":{"name":"Adolfo Prieto","@id":"way/655702823","amenity":"bus_station","building":"yes","bus":"yes","public_transport":"station"}},{"type":"Feature","geometry":{"type":"Polygon","coordinates":[[[-100.2478378,25.7031048],[-100.2478375,25.7030905],[-100.2478385,25.7030393],[-100.2478389,25.703022],[-100.2474658,25.7030214],[-100.2474658,25.7030355],[-100.2474658,25.703081],[-100.2474658,25.7030993],[-100.2478378,25.7031048]]]},"properties":{"name":"Las Américas","@id":"way/655702825","amenity":"bus_station","building":"yes","bus":"yes","network":"Ecovía","operator":"Ecovía","public_transport":"station"}},{"type":"Feature","geometry":{"type":"Polygon","coordinates":[[[-100.239242,25.7029617],[-100.2392423,25.7029457],[-100.2392408,25.7028828],[-100.2392405,25.7028719],[-100.2388665,25.7028678],[-100.2388665,25.7028787],[-100.2388662,25.7029407],[-100.238867,25.7029557],[-100.239242,25.7029617]]]},"properties":{"name":"Central de Carga","@id":"way/655702827","amenity":"bus_station","building":"yes","bus":"yes","network":"Ecovía","operator":"Ecovía","public_transport":"station"}},{"type":"Feature","geometry":{"type":"Polygon","coordinates":[[[-100.23039,25.7028041],[-100.2303897,25.7027827],[-100.23039,25.7027254],[-100.23039,25.7027152],[-100.2300182,25.7027073],[-100.230018,25.70272],[-100.2300173,25.7027753],[-100.230017,25.7027994],[-100.23039,25.7028041]]]},"properties":{"name":"Tauro","@id":"way/655702829","amenity":"bus_station","building":"yes","bus":"yes","network":"Ecovía","operator":"Ecovía","public_transport":"station"}},{"type":"Feature","geometry":{"type":"Polygon","coordinates":[[[-100.2237581,25.7026221],[-100.2237578,25.7026044],[-100.2237574,25.702556],[-100.2237572,25.7025392],[-100.2233856,25.7025297],[-100.2233851,25.7025485],[-100.2233837,25.7025959],[-100.2233829,25.7026134],[-100.2237581,25.7026221]]]},"properties":{"name":"Miguel Alemán","@id":"way/655702832","amenity":"bus_station","building":"yes","bus":"yes","network":"Ecovía","public_transport":"station"}},{"type":"Feature","geometry":{"type":"Polygon","coordinates":[[[-100.2176007,25.7030324],[-100.217597,25.7030111],[-100.2175867,25.7029532],[-100.2175846,25.7029412],[-100.2172128,25.7029948],[-100.2172152,25.7030083],[-100.2172248,25.7030626],[-100.2172285,25.7030839],[-100.2176007,25.7030324]]]},"properties":{"name":"Calle Nueva","@id":"way/655702834","amenity":"bus_station","building":"yes","bus":"yes","network":"Ecovía","operator":"Ecovía","public_transport":"station"}},{"type":"Feature","geometry":{"type":"Polygon","coordinates":[[[-100.2085117,25.7046552],[-100.2085004,25.7046319],[-100.2084757,25.7045807],[-100.2084702,25.7045694],[-100.2081242,25.7046927],[-100.2081291,25.7047037],[-100.2081508,25.7047522],[-100.2081617,25.7047761],[-100.2085117,25.7046552]]]},"properties":{"name":"Ecovía - De La Zanja","@id":"way/656578987","amenity":"bus_station","building":"yes","bus":"yes","network":"Ecovía","operator":"Ecovía","public_transport":"station"}},{"type":"Feature","geometry":{"type":"Polygon","coordinates":[[[-100.2007937,25.7073586],[-100.2007836,25.7073347],[-100.2007631,25.7072853],[-100.2007571,25.7072707],[-100.2004081,25.7073881],[-100.2004145,25.7074035],[-100.200436,25.7074554],[-100.2004456,25.7074781],[-100.2007937,25.7073586]]]},"properties":{"name":"Aceros","@id":"way/656579006","amenity":"bus_station","building":"yes","bus":"yes","network":"Ecovía","operator":"Ecovía","public_transport":"station"}},{"type":"Feature","geometry":{"type":"Polygon","coordinates":[[[-100.1946377,25.7089179],[-100.1946411,25.708913],[-100.1946489,25.7088522],[-100.1946539,25.708817],[-100.1942915,25.7087523],[-100.1942886,25.7087989],[-100.194281,25.708854],[-100.1942804,25.7088593],[-100.1946377,25.7089179]]]},"properties":{"name":"Guadalajara","@id":"way/656579015","amenity":"bus_station","building":"yes","bus":"yes","network":"Ecovía","operator":"Ecovía","public_transport":"station"}},{"type":"Feature","geometry":{"type":"Polygon","coordinates":[[[-100.1883227,25.7090517],[-100.1883197,25.7090309],[-100.188316,25.7089909],[-100.188313,25.7089565],[-100.187944,25.7089763],[-100.1879452,25.7090155],[-100.1879457,25.7090507],[-100.187947,25.7090773],[-100.1883227,25.7090517]]]},"properties":{"name":"San Miguel","@id":"way/656579021","amenity":"bus_station","building":"yes","bus":"yes","network":"Ecovía","public_transport":"station"}},{"type":"Feature","geometry":{"type":"Polygon","coordinates":[[[-100.1665891,25.705568],[-100.1665885,25.7055273],[-100.1665878,25.7054855],[-100.1665875,25.7054672],[-100.1658249,25.705477],[-100.1658252,25.705495],[-100.1658258,25.7055385],[-100.1658265,25.7055777],[-100.1665891,25.705568]]]},"properties":{"name":"Ecovía - Valle Fértil","@id":"way/656579046","amenity":"bus_station","building":"yes","bus":"yes","network":"Ecovía","operator":"Ecovía","public_transport":"station"}},{"type":"Feature","geometry":{"type":"Polygon","coordinates":[[[-100.278875,25.7036412],[-100.278875,25.7036229],[-100.2788759,25.7035614],[-100.278875,25.7035503],[-100.2785016,25.7035423],[-100.2785014,25.703555],[-100.2785006,25.7036198],[-100.2784998,25.7036348],[-100.278875,25.7036412]]]},"properties":{"name":"Coyoacán","@id":"way/656583705","amenity":"bus_station","building":"yes","bus":"yes","network":"Ecovía","operator":"Ecovía","public_transport":"station"}},{"type":"Feature","geometry":{"type":"Polygon","coordinates":[[[-100.2841947,25.7037364],[-100.2841952,25.7037177],[-100.2841963,25.7036545],[-100.2841965,25.7036421],[-100.2838235,25.703637],[-100.2838233,25.7036463],[-100.2838223,25.7037092],[-100.2838218,25.7037281],[-100.2841947,25.7037364]]]},"properties":{"name":"Clínica 15","@id":"way/656583706","amenity":"bus_station","building":"yes","bus":"yes","public_transport":"station"}},{"type":"Feature","geometry":{"type":"Polygon","coordinates":[[[-100.2889317,25.7038071],[-100.2889319,25.7037941],[-100.2889327,25.7037339],[-100.2889329,25.7037214],[-100.2885543,25.7037173],[-100.2885542,25.7037275],[-100.2885533,25.7037905],[-100.2885531,25.7038036],[-100.2889317,25.7038071]]]},"properties":{"name":"Ruíz Cortinez","@id":"way/656583707","amenity":"bus_station","building":"yes","bus":"yes","network":"Ecovía","operator":"Ecovía","public_transport":"station"}},{"type":"Feature","geometry":{"type":"Polygon","coordinates":[[[-100.4025806,25.759839],[-100.4025934,25.7598245],[-100.4026303,25.7597866],[-100.4026416,25.7597699],[-100.4023536,25.7595551],[-100.4023399,25.7595698],[-100.4023033,25.7596087],[-100.4022902,25.7596225],[-100.4025806,25.759839]]]},"properties":{"name":"Cumbres","@id":"way/685532116","addr:city":"Monterrey","addr:postcode":64346,"addr:street":"Abraham Lincoln","amenity":"bus_station","building":"yes","bus":"yes","network":"Ecovía","operator":"Ecovia","public_transport":"station"}},{"type":"Feature","geometry":{"type":"Polygon","coordinates":[[[-100.407688,25.7635252],[-100.4076997,25.7635133],[-100.4077295,25.7634784],[-100.4077498,25.7634565],[-100.4074744,25.7632557],[-100.4074558,25.7632723],[-100.4074265,25.763307],[-100.4074126,25.7633245],[-100.407688,25.7635252]]]},"properties":{"name":"Astros","@id":"way/685532122","addr:city":"Monterrey","addr:street":"Abraham Lincoln","amenity":"bus_station","building":"yes","bus":"yes","network":"Ecovía","operator":"Ecovía","public_transport":"station"}},{"type":"Feature","geometry":{"type":"Polygon","coordinates":[[[-100.3975181,25.7561963],[-100.3975265,25.7561836],[-100.397566,25.7561365],[-100.397575,25.7561242],[-100.3972872,25.7559132],[-100.3972735,25.7559319],[-100.3972406,25.7559768],[-100.3972255,25.7559896],[-100.3975181,25.7561963]]]},"properties":{"name":"Plumbago","@id":"way/685532128","amenity":"bus_station","building":"yes","bus":"yes","network":"Ecovía","public_transport":"station"}},{"type":"Feature","geometry":{"type":"Polygon","coordinates":[[[-100.3924566,25.7523447],[-100.3921562,25.7521268],[-100.3921437,25.7521407],[-100.3920994,25.7521903],[-100.3920791,25.752213],[-100.3923795,25.7524309],[-100.3923999,25.7524073],[-100.392439,25.7523645],[-100.3924566,25.7523447]]]},"properties":{"name":"Plutarco Elías Calles","@id":"way/685700996","addr:city":"Monterrey","addr:street":"Abraham Lincoln","amenity":"bus_station","building":"yes","bus":"yes","network":"Ecovía","operator":"Ecovía","public_transport":"station"}},{"type":"Feature","geometry":{"type":"Polygon","coordinates":[[[-100.387709,25.7490677],[-100.3877252,25.7490496],[-100.3877527,25.7490188],[-100.3877639,25.7490063],[-100.3874745,25.7487964],[-100.3874622,25.7488099],[-100.3874361,25.7488384],[-100.3874196,25.7488578],[-100.387709,25.7490677]]]},"properties":{"name":"Embotelladora","@id":"way/685701000","addr:street":"Abraham Lincoln","amenity":"bus_station","building":"yes","bus":"yes","network":"Ecovía","operator":"Ecovía","public_transport":"station"}},{"type":"Feature","geometry":{"type":"Polygon","coordinates":[[[-100.3814673,25.74272],[-100.3814843,25.7427076],[-100.3815242,25.7426785],[-100.3815397,25.7426672],[-100.3815116,25.7426359],[-100.381307,25.7424079],[-100.3812941,25.7424173],[-100.3812513,25.7424485],[-100.3812345,25.7424607],[-100.3814376,25.7426869],[-100.3814673,25.74272]]]},"properties":{"name":"Panteón Municipal","@id":"way/685701004","amenity":"bus_station","building":"yes","bus":"yes","network":"Ecovía","operator":"Ecovía","public_transport":"station"}},{"type":"Feature","geometry":{"type":"Polygon","coordinates":[[[-100.3782252,25.7390934],[-100.3782463,25.7390785],[-100.378289,25.7390482],[-100.378306,25.7390361],[-100.378059,25.7387536],[-100.3780426,25.7387654],[-100.3779979,25.7387978],[-100.3779782,25.7388109],[-100.3782252,25.7390934]]]},"properties":{"name":"Cardenal","@id":"way/685701007","amenity":"bus_station","building":"yes","bus":"yes","network":"Ecovía","operator":"Ecovía","public_transport":"station"}},{"type":"Feature","geometry":{"type":"Polygon","coordinates":[[[-100.3732882,25.7335865],[-100.3733099,25.7335705],[-100.3733442,25.7335453],[-100.3733678,25.733528],[-100.3731304,25.7332659],[-100.3731137,25.7332782],[-100.3730719,25.733309],[-100.3730508,25.7333245],[-100.3732882,25.7335865]]]},"properties":{"name":"Valle Verde","@id":"way/685701010","amenity":"bus_station","building":"yes","bus":"yes","network":"Ecovía","operator":"Ecovía","public_transport":"station"}},{"type":"Feature","geometry":{"type":"Polygon","coordinates":[[[-100.3700689,25.7300064],[-100.3700909,25.7299904],[-100.3701332,25.7299595],[-100.3701533,25.7299448],[-100.3701238,25.729912],[-100.3699199,25.7296853],[-100.3698995,25.7297002],[-100.3698584,25.7297302],[-100.3698355,25.7297469],[-100.3700382,25.7299723],[-100.3700689,25.7300064]]]},"properties":{"name":"Cardiología","@id":"way/685701015","amenity":"bus_station","building":"yes","bus":"yes","network":"Ecovía","operator":"Ecovía","public_transport":"station","roof":"yes"}},{"type":"Feature","geometry":{"type":"Polygon","coordinates":[[[-100.3667323,25.7262706],[-100.3667537,25.7262547],[-100.3667897,25.7262277],[-100.3668091,25.7262132],[-100.3667882,25.7261905],[-100.3665731,25.7259569],[-100.3665569,25.7259691],[-100.3665172,25.7259987],[-100.3664963,25.7260143],[-100.3667135,25.7262501],[-100.3667323,25.7262706]]]},"properties":{"name":"Santa Cecilia","@id":"way/685701020","amenity":"bus_station","building":"yes","bus":"yes","network":"Ecovía","operator":"Ecovía","public_transport":"station"}},{"type":"Feature","geometry":{"type":"Polygon","coordinates":[[[-100.3638526,25.7237076],[-100.363867,25.7236894],[-100.363897,25.7236514],[-100.3639118,25.7236327],[-100.3636095,25.7234388],[-100.3635951,25.723457],[-100.3635659,25.723494],[-100.3635504,25.7235137],[-100.3638526,25.7237076]]]},"properties":{"name":"Villa Mitras","@id":"way/685701023","amenity":"bus_station","building":"yes","bus":"yes","network":"Ecovía","operator":"Ecovía","public_transport":"station"}},{"type":"Feature","geometry":{"type":"Polygon","coordinates":[[[-100.3574757,25.7193414],[-100.3574921,25.7193212],[-100.3575195,25.7192874],[-100.3575355,25.7192677],[-100.3572351,25.7190701],[-100.3572185,25.7190906],[-100.3571913,25.7191242],[-100.3571753,25.7191438],[-100.3574757,25.7193414]]]},"properties":{"name":"Rangel Frías","@id":"way/685701026","amenity":"bus_station","building":"yes","bus":"yes","network":"Ecovía","operator":"Ecovía","public_transport":"station"}},{"type":"Feature","geometry":{"type":"Polygon","coordinates":[[[-100.3539283,25.7170902],[-100.3539432,25.7170722],[-100.3539756,25.7170329],[-100.3539901,25.7170154],[-100.3536948,25.7168174],[-100.3536795,25.7168354],[-100.3536475,25.7168747],[-100.3536331,25.7168922],[-100.3539283,25.7170902]]]},"properties":{"name":"Tránsito","@id":"way/685701033","amenity":"bus_station","building":"yes","bus":"yes","network":"Ecovía","operator":"Ecovía","public_transport":"station"}},{"type":"Feature","geometry":{"type":"Polygon","coordinates":[[[-100.3468733,25.7124112],[-100.3468874,25.7123935],[-100.3469181,25.7123551],[-100.3469343,25.7123348],[-100.3466281,25.7121365],[-100.3466107,25.7121583],[-100.3465836,25.7121922],[-100.3465671,25.7122129],[-100.3468733,25.7124112]]]},"properties":{"name":"Laredo","@id":"way/685701042","amenity":"bus_station","building":"yes","bus":"yes","network":"Ecovía","public_transport":"station"}},{"type":"Feature","geometry":{"type":"Polygon","coordinates":[[[-100.3437023,25.7101923],[-100.34317,25.7098454],[-100.3431548,25.7098655],[-100.3431272,25.709902],[-100.3431134,25.7099202],[-100.3436407,25.7102671],[-100.3436538,25.710248],[-100.3436854,25.7102117],[-100.3437023,25.7101923]]]},"properties":{"name":"Rodrigo Gómez","@id":"way/685701049","amenity":"bus_station","building":"yes","bus":"yes","network":"Ecovía","operator":"Ecovía","public_transport":"station"}},{"type":"Feature","geometry":{"type":"Polygon","coordinates":[[[-100.3424668,25.7061374],[-100.3424487,25.7061361],[-100.3423666,25.7061346],[-100.3423296,25.7061341],[-100.3423292,25.706491],[-100.342368,25.7064911],[-100.342449,25.706491],[-100.3424723,25.7064908],[-100.3424668,25.7061374]]]},"properties":{"name":"Mitras","@id":"way/685701053","amenity":"bus_station","building":"yes","bus":"yes","network":"Ecovía","operator":"Ecovía","public_transport":"station","wheelchair":"yes"}},{"type":"Feature","geometry":{"type":"Polygon","coordinates":[[[-100.3379351,25.704716],[-100.3379357,25.7046964],[-100.3379365,25.7046543],[-100.3379368,25.7046277],[-100.3375583,25.7046219],[-100.3375578,25.7046475],[-100.3375569,25.7046873],[-100.3375566,25.7047102],[-100.3379351,25.704716]]]},"properties":{"name":"Celulosa","@id":"way/685701061","amenity":"bus_station","building":"yes","bus":"yes","network":"Ecovía","operator":"Ecovía","public_transport":"station"}},{"type":"Feature","geometry":{"type":"Polygon","coordinates":[[[-100.33292,25.7046007],[-100.33292,25.7045796],[-100.3329214,25.7045336],[-100.332922,25.704514],[-100.332543,25.7045068],[-100.3325425,25.7045295],[-100.3325415,25.7045725],[-100.332541,25.7045935],[-100.33292,25.7046007]]]},"properties":{"name":"20 de Noviembre","@id":"way/685701065","amenity":"bus_station","building":"yes","bus":"yes","network":"Ecovía","operator":"Ecovía","public_transport":"station"}},{"type":"Feature","geometry":{"type":"Polygon","coordinates":[[[-100.3223406,25.7044173],[-100.3223418,25.7043929],[-100.3223423,25.7043392],[-100.3223425,25.704324],[-100.3219652,25.7043175],[-100.3219647,25.7043378],[-100.3219637,25.7043844],[-100.3219632,25.7044108],[-100.3223406,25.7044173]]]},"properties":{"name":"Hidalgo","@id":"way/685701076","amenity":"bus_station","building":"yes","bus":"yes","network":"Ecovía","operator":"Ecovía","public_transport":"station"}},{"type":"Feature","geometry":{"type":"Polygon","coordinates":[[[-100.3190655,25.704365],[-100.3190665,25.7043385],[-100.3190682,25.7042909],[-100.3190688,25.7042695],[-100.3186917,25.7042612],[-100.318691,25.7042844],[-100.3186894,25.704332],[-100.3186886,25.704354],[-100.3190655,25.704365]]]},"properties":{"name":"Bella Vista","@id":"way/685701079","amenity":"bus_station","building":"yes","bus":"yes","network":"Ecovía","operator":"Ecovía","public_transport":"station"}},{"type":"Feature","geometry":{"type":"Polygon","coordinates":[[[-100.3138519,25.7078402],[-100.3132587,25.7078346],[-100.3132605,25.7079056],[-100.3136757,25.7079102],[-100.3136758,25.7079495],[-100.3138022,25.7079512],[-100.3138034,25.7079867],[-100.3138539,25.7079862],[-100.3138519,25.7078402]]]},"properties":{"name":"Ecovía Estación Regina","@id":"way/685719460","amenity":"bus_station","building":"yes","bus":"yes","network":"Ecovía","operator":"Ecovía","public_transport":"station"}},{"type":"Feature","geometry":{"type":"Polygon","coordinates":[[[-100.309592,25.7041682],[-100.3095924,25.7041456],[-100.3095933,25.7041009],[-100.3095938,25.7040731],[-100.3092232,25.7040674],[-100.3092227,25.7040946],[-100.3092218,25.7041416],[-100.3092214,25.7041625],[-100.309592,25.7041682]]]},"properties":{"name":"Asarco","@id":"way/685719468","amenity":"bus_station","building":"yes","bus":"yes","network":"Ecovía","operator":"Ecovía","public_transport":"station"}},{"type":"Feature","geometry":{"type":"Polygon","coordinates":[[[-100.2971369,25.7039632],[-100.297137,25.7039375],[-100.2971383,25.7038808],[-100.2971385,25.7038666],[-100.2967659,25.7038614],[-100.2967656,25.7038763],[-100.2967646,25.7039349],[-100.2967642,25.7039581],[-100.2971369,25.7039632]]]},"properties":{"name":"Cementos","@id":"way/685719471","amenity":"bus_station","building":"yes","bus":"yes","network":"Ecovía","operator":"Ecovía","public_transport":"station"}},{"type":"Feature","geometry":{"type":"Polygon","coordinates":[[[-100.1873409,25.6353859],[-100.1874441,25.6348713],[-100.1870588,25.6346923],[-100.1866589,25.6347402],[-100.1866675,25.6350897],[-100.1865554,25.6352602],[-100.1873409,25.6353859]]]},"properties":{"name":"Ruta 73 Tierra Propia","@id":"way/689669963","amenity":"bus_station","bus":"yes","public_transport":"station"}},{"type":"Feature","geometry":{"type":"Polygon","coordinates":[[[-100.4599218,25.6927137],[-100.4601706,25.6918477],[-100.4590682,25.6912312],[-100.4589212,25.6917611],[-100.4586894,25.6917203],[-100.4585085,25.692245],[-100.4588873,25.692352],[-100.4591643,25.6922756],[-100.4590372,25.6926846],[-100.4593169,25.6927697],[-100.4593559,25.6927842],[-100.4595092,25.6928411],[-100.4595289,25.6927214],[-100.4597862,25.6927748],[-100.4599218,25.6927137]]]},"properties":{"name":"Patio Ruta 400","@id":"way/700762148","amenity":"bus_station","bus":"yes","public_transport":"station"}},{"type":"Feature","geometry":{"type":"Polygon","coordinates":[[[-100.4881681,25.7134951],[-100.4886851,25.7125818],[-100.4883177,25.7120117],[-100.4882429,25.7117665],[-100.4875353,25.7130231],[-100.4881681,25.7134951]]]},"properties":{"name":"Ruta 201","@id":"way/700908784","amenity":"bus_station","bus":"yes","public_transport":"station"}},{"type":"Feature","geometry":{"type":"Polygon","coordinates":[[[-100.4362024,25.683888],[-100.4362847,25.6834143],[-100.4359595,25.6833739],[-100.4352021,25.6832799],[-100.4351393,25.6837501],[-100.4362024,25.683888]]]},"properties":{"name":"Ruta 128","@id":"way/701128466","amenity":"bus_station","building":"garage","bus":"yes","public_transport":"station"}},{"type":"Feature","geometry":{"type":"Polygon","coordinates":[[[-100.5240388,25.8494956],[-100.5240349,25.8494051],[-100.5239499,25.8494051],[-100.5239503,25.8494346],[-100.5239518,25.8495217],[-100.5239947,25.8495199],[-100.5240349,25.8495182],[-100.5240388,25.8494956]]]},"properties":{"name":"Teleférico","@id":"way/702833880","aerialway":"yes","building":"yes","public_transport":"station"}},{"type":"Feature","geometry":{"type":"Polygon","coordinates":[[[-100.5262587,25.8542084],[-100.5262302,25.854148],[-100.5261841,25.8541679],[-100.526164,25.8541767],[-100.5261766,25.8542027],[-100.5261906,25.8542317],[-100.5262587,25.8542084]]]},"properties":{"name":"Teleférico","@id":"way/702833883","aerialway":"yes","building":"yes","public_transport":"station"}},{"type":"Feature","geometry":{"type":"Polygon","coordinates":[[[-100.6197358,25.8085418],[-100.6199301,25.8080645],[-100.6188696,25.8085601],[-100.6188089,25.80895],[-100.6197358,25.8085418]]]},"properties":{"name":"Ruta 307","@id":"way/709713141","amenity":"bus_station","bus":"yes","public_transport":"station"}},{"type":"Feature","geometry":{"type":"Polygon","coordinates":[[[-100.6223392,25.8115003],[-100.6225313,25.8109679],[-100.6206515,25.8105813],[-100.6196984,25.810527],[-100.6195703,25.8110154],[-100.6223392,25.8115003]]]},"properties":{"name":"Ruta 601","@id":"way/709723033","amenity":"bus_station","bus":"yes","public_transport":"station"}},{"type":"Feature","geometry":{"type":"Polygon","coordinates":[[[-100.571735,25.8161109],[-100.5717779,25.8159371],[-100.5717028,25.815855],[-100.5718745,25.8151741],[-100.5706085,25.814923],[-100.5703242,25.8153914],[-100.5705119,25.8158695],[-100.571735,25.8161109]]]},"properties":{"name":"Ruta 310","@id":"way/709835658","amenity":"bus_station","bus":"yes","public_transport":"station"}},{"type":"Feature","geometry":{"type":"Polygon","coordinates":[[[-100.7100005,25.6874359],[-100.7102267,25.6870281],[-100.7099206,25.6869052],[-100.7097144,25.687316],[-100.7100005,25.6874359]]]},"properties":{"name":"Estación Rinconada","@id":"way/717931050","building":"yes","public_transport":"station","railway":"station","train":"yes"}},{"type":"Feature","geometry":{"type":"Polygon","coordinates":[[[-100.3858127,25.8535524],[-100.3855793,25.8532459],[-100.3853943,25.8533545],[-100.3856357,25.8536562],[-100.3858127,25.8535524]]]},"properties":{"name":"Ruta 1 \"San Nicolás/Alianza Real\"","@id":"way/727002930","amenity":"bus_station","bus":"yes","public_transport":"station"}},{"type":"Feature","geometry":{"type":"Polygon","coordinates":[[[-100.647269,25.8363567],[-100.6468452,25.8362022],[-100.6468666,25.8383749],[-100.6472797,25.8385487],[-100.647269,25.8363567]]]},"properties":{"@id":"way/727932687","amenity":"bus_station","bus":"yes","public_transport":"station"}},{"type":"Feature","geometry":{"type":"Polygon","coordinates":[[[-99.9065412,24.322861],[-99.9066009,24.322756],[-99.9064943,24.3227016],[-99.9064388,24.3228027],[-99.9065412,24.322861]]]},"properties":{"name":"Senda","@id":"way/738944322","amenity":"bus_station","building":"yes","bus":"yes","public_transport":"station"}},{"type":"Feature","geometry":{"type":"Polygon","coordinates":[[[-100.5122648,25.6950524],[-100.5123513,25.6945398],[-100.5115229,25.6944229],[-100.5114231,25.6949085],[-100.5122648,25.6950524]]]},"properties":{"name":"Ruta 118","@id":"way/743028921","amenity":"bus_station","bus":"yes","public_transport":"station"}},{"type":"Feature","geometry":{"type":"Polygon","coordinates":[[[-100.2180644,25.6662368],[-100.2180742,25.6661939],[-100.217866,25.6661552],[-100.2178562,25.6661981],[-100.2180644,25.6662368]]]},"properties":{"name":"Noche Buena","@id":"way/748890084","amenity":"bus_station","building":"yes","bus":"yes","network":"Transmetro","operator":"Metrorrey","public_transport":"station"}},{"type":"Feature","geometry":{"type":"Polygon","coordinates":[[[-100.2228603,25.6669973],[-100.222863,25.6669707],[-100.2226565,25.6669344],[-100.2226511,25.666961],[-100.2228603,25.6669973]]]},"properties":{"name":"Fidel Velázquez","@id":"way/748890085","amenity":"bus_station","building":"yes","bus":"yes","network":"Transmetro","operator":"Metrorrey","public_transport":"station"}},{"type":"Feature","geometry":{"type":"Polygon","coordinates":[[[-100.2272618,25.6679377],[-100.2272725,25.6679039],[-100.227066,25.6678604],[-100.2270607,25.6678918],[-100.2272618,25.6679377]]]},"properties":{"name":"Los Reyes","@id":"way/748890086","amenity":"bus_station","building":"yes","bus":"yes","network":"Transmetro","operator":"Metrorrey","public_transport":"station"}},{"type":"Feature","geometry":{"type":"Polygon","coordinates":[[[-100.2307267,25.6685235],[-100.2307348,25.6684858],[-100.2305204,25.6684484],[-100.2305123,25.6684861],[-100.2307267,25.6685235]]]},"properties":{"name":"15 de Mayo","@id":"way/748890087","amenity":"bus_station","building":"yes","bus":"yes","network":"Transmetro","operator":"Metrorrey","public_transport":"station"}},{"type":"Feature","geometry":{"type":"Polygon","coordinates":[[[-100.2349478,25.6727589],[-100.2349518,25.67272],[-100.2347332,25.6727017],[-100.2347292,25.6727406],[-100.2349478,25.6727589]]]},"properties":{"name":"Nuevo León","@id":"way/748890088","amenity":"bus_station","building":"yes","bus":"yes","network":"Transmetro","operator":"Metrorrey","public_transport":"station"}},{"type":"Feature","geometry":{"type":"Polygon","coordinates":[[[-100.2370503,25.6748781],[-100.2370561,25.6746967],[-100.2370124,25.6746956],[-100.2370066,25.674877],[-100.2370503,25.6748781]]]},"properties":{"name":"Tolteca Oriente","@id":"way/748890089","amenity":"bus_station","building":"yes","bus":"yes","network":"Transmetro","operator":"Metrorrey","public_transport":"station"}},{"type":"Feature","geometry":{"type":"Polygon","coordinates":[[[-100.2373164,25.6746709],[-100.2373631,25.6744804],[-100.2373306,25.6744731],[-100.2372798,25.6746636],[-100.2373164,25.6746709]]]},"properties":{"name":"Tolteca Poniente","@id":"way/748890090","amenity":"bus_station","building":"yes","bus":"yes","network":"Transmetro","operator":"Metrorrey","public_transport":"station"}},{"type":"Feature","geometry":{"type":"Polygon","coordinates":[[[-100.2378429,25.6788497],[-100.2378511,25.6788144],[-100.2376347,25.6787911],[-100.2376294,25.6788186],[-100.2378429,25.6788497]]]},"properties":{"name":"Benito Juárez","@id":"way/748890091","amenity":"bus_station","building":"yes","bus":"yes","network":"Transmetro","operator":"Metrorrey","public_transport":"station"}},{"type":"Feature","geometry":{"type":"Polygon","coordinates":[[[-100.2133054,25.6655397],[-100.2133081,25.6655011],[-100.2130882,25.665472],[-100.2130882,25.6655059],[-100.2133054,25.6655397]]]},"properties":{"name":"Serafín Peña","@id":"way/748894093","amenity":"bus_station","building":"yes","bus":"yes","network":"Transmetro","operator":"Metrorrey","public_transport":"station"}},{"type":"Feature","geometry":{"type":"Polygon","coordinates":[[[-100.2096592,25.6652717],[-100.2096592,25.6652397],[-100.2094436,25.66523],[-100.209442,25.6652564],[-100.2096592,25.6652717]]]},"properties":{"name":"Arturo B. de la Garza","@id":"way/748894094","amenity":"bus_station","building":"yes","bus":"yes","network":"Transmetro","operator":"Metrorrey","public_transport":"station"}},{"type":"Feature","geometry":{"type":"Polygon","coordinates":[[[-100.2047451,25.6638885],[-100.2047623,25.6638565],[-100.2045624,25.6637761],[-100.2045464,25.6638066],[-100.2047451,25.6638885]]]},"properties":{"name":"Evolución","@id":"way/748894095","amenity":"bus_station","building":"yes","bus":"yes","network":"Transmetro","operator":"Metrorrey","public_transport":"station"}},{"type":"Feature","geometry":{"type":"Polygon","coordinates":[[[-100.2000312,25.6623097],[-100.2000475,25.6622767],[-100.1998503,25.6621924],[-100.1998381,25.662229],[-100.2000312,25.6623097]]]},"properties":{"name":"Francisco Zertuche","@id":"way/748894096","amenity":"bus_station","building":"yes","bus":"yes","network":"Transmetro","operator":"Metrorrey","public_transport":"station"}},{"type":"Feature","geometry":{"type":"Polygon","coordinates":[[[-100.194993,25.6603471],[-100.1950093,25.6603177],[-100.1948085,25.6602408],[-100.1947957,25.6602671],[-100.194993,25.6603471]]]},"properties":{"name":"Dalia","@id":"way/748894097","amenity":"bus_station","building":"yes","bus":"yes","network":"Transmetro","operator":"Metrorrey","public_transport":"station"}},{"type":"Feature","geometry":{"type":"Polygon","coordinates":[[[-100.1919734,25.6591818],[-100.1919882,25.6591467],[-100.1917991,25.6590718],[-100.1917803,25.6591105],[-100.1919734,25.6591818]]]},"properties":{"name":"Acacia","@id":"way/748894098","amenity":"bus_station","building":"yes","bus":"yes","network":"Transmetro","operator":"Metrorrey","public_transport":"station"}},{"type":"Feature","geometry":{"type":"Polygon","coordinates":[[[-100.1880888,25.6576821],[-100.1881051,25.6576546],[-100.1879079,25.6575758],[-100.1878896,25.657607],[-100.1880888,25.6576821]]]},"properties":{"name":"Monserrat","@id":"way/748908066","amenity":"bus_station","building":"yes","bus":"yes","network":"Transmetro","operator":"Metrorrey","public_transport":"station"}},{"type":"Feature","geometry":{"type":"Polygon","coordinates":[[[-100.1850089,25.6565027],[-100.1850252,25.6564679],[-100.1848524,25.6564019],[-100.1848362,25.6564349],[-100.1850089,25.6565027]]]},"properties":{"name":"Rincón de Guadalupe","@id":"way/748908067","amenity":"bus_station","building":"yes","bus":"yes","network":"Transmetro","operator":"Metrorrey","public_transport":"station"}},{"type":"Feature","geometry":{"type":"Polygon","coordinates":[[[-100.1826758,25.6557052],[-100.182694,25.655665],[-100.1823532,25.6555394],[-100.182335,25.6555796],[-100.1826758,25.6557052]]]},"properties":{"name":"México","@id":"way/748908068","amenity":"bus_station","building":"yes","bus":"yes","network":"Transmetro","operator":"Metrorrey","public_transport":"station"}},{"type":"Feature","geometry":{"type":"Polygon","coordinates":[[[-100.0370792,25.8774484],[-100.0370676,25.8773518],[-100.0369672,25.8773497],[-100.0369788,25.8774632],[-100.0370792,25.8774484]]]},"properties":{"name":"Monterrey, Marín-Higueras","@id":"way/824956164","amenity":"bus_station","building":"yes","bus":"yes","network":"Autobuses Grupo AAA","public_transport":"station"}},{"type":"Feature","geometry":{"type":"Polygon","coordinates":[[[-99.5736972,24.8643998],[-99.573834,24.8639691],[-99.5737991,24.863952],[-99.5737991,24.8639082],[-99.5737723,24.8638985],[-99.5737964,24.8638328],[-99.5735577,24.8637598],[-99.5735201,24.8638815],[-99.5734397,24.8638596],[-99.573319,24.8642489],[-99.5733753,24.8642611],[-99.5733565,24.8643195],[-99.5736972,24.8643998]]]},"properties":{"name":"Central de Autobuses Protasio Rodríguez Cuéllar","@id":"way/849817436","amenity":"bus_station","building":"yes","bus":"yes","public_transport":"station"}},{"type":"Feature","geometry":{"type":"Polygon","coordinates":[[[-99.5747258,24.8637403],[-99.5747607,24.8637184],[-99.5747741,24.8636892],[-99.5747983,24.8636381],[-99.5747822,24.8635968],[-99.5747714,24.8635651],[-99.5747527,24.8635408],[-99.5747044,24.8635286],[-99.5746615,24.8635213],[-99.5746025,24.8635213],[-99.5745649,24.8635359],[-99.5745435,24.8635603],[-99.5745274,24.8635992],[-99.5745113,24.8636357],[-99.5744952,24.8636771],[-99.5747258,24.8637403]]]},"properties":{"name":"Transpaís","@id":"way/849817437","amenity":"bus_station","building":"yes","bus":"yes","public_transport":"station"}},{"type":"Feature","geometry":{"type":"Polygon","coordinates":[[[-99.6098206,26.0805911],[-99.6097437,26.080456],[-99.6096428,26.0803408],[-99.6094462,26.0805189],[-99.6095317,26.0806264],[-99.6095847,26.0805972],[-99.6096394,26.0806694],[-99.6097539,26.0805865],[-99.6097796,26.0806141],[-99.6098206,26.0805911]]]},"properties":{"name":"Estacion De Autobuses Noreste","@id":"way/862364573","addr:city":"cerralvo","addr:housenumber":"1015c","addr:postcode":65900,"addr:street":"Calle Benito Juárez","amenity":"bus_station","building":"yes","bus":"yes","public_transport":"station"}},{"type":"Feature","geometry":{"type":"Polygon","coordinates":[[[-100.1059987,25.8240952],[-100.1056224,25.8237761],[-100.1054091,25.8235948],[-100.1053095,25.8236946],[-100.1052264,25.8237037],[-100.1050863,25.823719],[-100.1050302,25.8236258],[-100.1043474,25.823999],[-100.1047385,25.8249216],[-100.1057812,25.8242374],[-100.1059987,25.8240952]]]},"properties":{"name":"Terminal Ruta 111 Zacatecas","@id":"way/864006977","addr:city":"Colinas del Aeropuerto, N.L.","addr:postcode":66655,"addr:street":"Calle Celeste","amenity":"bus_station","building":"yes","bus":"yes","internet_access":"wlan","layer":-1,"operator":"Konect Logística Integrada","phone":"+528119589047","public_transport":"station","website":"http://konectonline.com.mx/"}},{"type":"Feature","geometry":{"type":"Polygon","coordinates":[[[-100.4598405,25.6989818],[-100.4599714,25.698749],[-100.459713,25.6986438],[-100.4596406,25.6987561],[-100.4595387,25.6987151],[-100.4594649,25.6988323],[-100.4598405,25.6989818]]]},"properties":{"name":"Ruta 306","@id":"way/868331835","amenity":"bus_station","bus":"yes","public_transport":"station"}},{"type":"Feature","geometry":{"type":"Polygon","coordinates":[[[-100.5855174,25.7881032],[-100.5853404,25.7876666],[-100.5841052,25.7881478],[-100.5835814,25.7883167],[-100.5838362,25.7887724],[-100.5855174,25.7881032]]]},"properties":{"@id":"way/901712631","amenity":"bus_station","bus":"yes","public_transport":"station"}},{"type":"Feature","geometry":{"type":"Polygon","coordinates":[[[-100.2442635,25.7381141],[-100.2442112,25.7380197],[-100.2438168,25.7381696],[-100.2438722,25.7382695],[-100.2442635,25.7381141]]]},"properties":{"name":"Estación abandonada","@id":"way/936371750","building":"yes","public_transport":"station","railway":"station","train":"yes"}},{"type":"Feature","geometry":{"type":"Polygon","coordinates":[[[-100.2531584,25.7348099],[-100.2538701,25.7345338],[-100.2538563,25.7345005],[-100.2533232,25.7347142],[-100.2532955,25.7346614],[-100.2531153,25.7347281],[-100.2531584,25.7348099]]]},"properties":{"name":"Estación abandonada","@id":"way/936371751","building":"yes","public_transport":"station","railway":"station","train":"yes"}},{"type":"Feature","geometry":{"type":"Polygon","coordinates":[[[-100.3729195,25.712754],[-100.3727347,25.7125113],[-100.3721306,25.7125253],[-100.3721384,25.7127787],[-100.3729195,25.712754]]]},"properties":{"name":"Grupo Transregio (Terminal Burócratas del Estado)","@id":"way/1013369702","addr:city":"Monterrey","addr:housenumber":4880,"addr:postcode":64370,"addr:street":"Calle Lagos de Moreno","amenity":"bus_station","building":"shed","bus":"yes","layer":1,"public_transport":"station"}},{"type":"Feature","geometry":{"type":"Polygon","coordinates":[[[-100.3173797,25.7739497],[-100.3173724,25.7738954],[-100.3173444,25.7738985],[-100.3173518,25.7739528],[-100.3173797,25.7739497]]]},"properties":{"name":"DIF Escobedo","@id":"way/1019636173","addr:city":"General Escobedo","addr:postcode":66050,"addr:street":"Avenida Licenciado Raúl Salinas Lozano","amenity":"bus_station","bus":"yes","departures_board":"no","network":"Transmetro","operator":"Sistema de Transporte Colectivo Metrorrey","public_transport":"station","surface":"asphalt"}},{"type":"Feature","geometry":{"type":"Polygon","coordinates":[[[-100.1586411,25.7049523],[-100.1589352,25.7022631],[-100.1580371,25.7022033],[-100.1578956,25.7035204],[-100.1577823,25.704662],[-100.1577505,25.7048534],[-100.1581453,25.7048992],[-100.1586411,25.7049523]]]},"properties":{"name":"Terminal Valle Soleado","@id":"way/1104131662","amenity":"bus_station","bus":"yes","network":"Ecovía","operator":"Gobierno de Nuevo León","public_transport":"station"}},{"type":"Feature","geometry":{"type":"Polygon","coordinates":[[[-100.2704535,25.6206135],[-100.2706603,25.6206202],[-100.2706113,25.6202724],[-100.2704089,25.6202802],[-100.2704535,25.6206135]]]},"properties":{"name":"Unión de Permisionarios Ruta 301, S.C. (Ruta 301)","@id":"way/1112647859","amenity":"bus_station","building":"garage","bus":"yes","internet_access":"no","public_transport":"station"}},{"type":"Feature","geometry":{"type":"Polygon","coordinates":[[[-100.3538203,25.8989019],[-100.3599626,25.8970947],[-100.3595468,25.895729],[-100.3530116,25.8976273],[-100.3530372,25.8976676],[-100.3538203,25.8989019]]]},"properties":{"@id":"way/1204802257","fixme":"name","railway":"station","railway:traffic_mode":"freight"}},{"type":"Feature","geometry":{"type":"Polygon","coordinates":[[[-100.2973814,25.6691321],[-100.2972774,25.6689579],[-100.2970247,25.6690804],[-100.2971286,25.6692546],[-100.2973814,25.6691321]]]},"properties":{"name":"Hospital de Gine","@id":"way/1261980346","construction":"yes","monorail":"yes","public_transport":"station","railway":"station"}},{"type":"Feature","geometry":{"type":"Polygon","coordinates":[[[-100.3103408,25.6676619],[-100.3103047,25.6676313],[-100.3102592,25.6676135],[-100.3102486,25.6676128],[-100.3102098,25.6676105],[-100.3101621,25.6676227],[-100.3101242,25.6676464],[-100.3100965,25.6676796],[-100.3100818,25.667719],[-100.3100815,25.6677606],[-100.3100958,25.6678001],[-100.310123,25.6678336],[-100.3101606,25.6678577],[-100.3101868,25.667865],[-100.3102046,25.66787],[-100.3102507,25.6678692],[-100.3102942,25.6678554],[-100.3103331,25.6678276],[-100.3103593,25.6677897],[-100.3103698,25.667746],[-100.3103634,25.6677017],[-100.3103408,25.6676619]]]},"properties":{"name":"General I. Zaragoza","@id":"way/1262706325","public_transport":"station","railway":"station","station":"subway","subway":"yes"}},{"type":"Feature","geometry":{"type":"Polygon","coordinates":[[[-100.3182938,25.677326],[-100.3183952,25.6772762],[-100.3184596,25.677233],[-100.3185176,25.677159],[-100.3185517,25.6770735],[-100.3185598,25.6770097],[-100.3185543,25.6769457],[-100.3185115,25.6768432],[-100.318438,25.6767546],[-100.3183706,25.6767212],[-100.3180524,25.6766921],[-100.3179817,25.6767214],[-100.3178886,25.6767932],[-100.3178593,25.6768399],[-100.3178287,25.6769049],[-100.3178143,25.6769693],[-100.3178152,25.6770453],[-100.3178387,25.6771277],[-100.3178725,25.6771868],[-100.3179172,25.6772373],[-100.3179725,25.6772876],[-100.3182938,25.677326]]]},"properties":{"name":"Alameda","@id":"way/1264906548","public_transport":"station","railway":"station","station":"subway","subway":"yes"}},{"type":"Feature","geometry":{"type":"Point","coordinates":[-100.306626,25.6850668]},"properties":{"name":"Del Golfo","@id":"node/308516813","public_transport":"station","railway":"station","station":"subway","subway":"yes"}},{"type":"Feature","geometry":{"type":"Point","coordinates":[-100.324302,25.6869957]},"properties":{"name":"Central","@id":"node/308516817","public_transport":"station","railway":"station","station":"subway","subway":"yes"}},{"type":"Feature","geometry":{"type":"Point","coordinates":[-100.333498,25.6869227]},"properties":{"name":"Edison","@id":"node/308520653","public_transport":"station","railway":"station","station":"subway","subway":"yes"}},{"type":"Feature","geometry":{"type":"Point","coordinates":[-100.344109,25.6918495]},"properties":{"name":"Hospital","@id":"node/308520670","public_transport":"station","railway":"station","station":"subway","subway":"yes"}},{"type":"Feature","geometry":{"type":"Point","coordinates":[-100.343188,25.6987474]},"properties":{"name":"Simón Bolívar","@id":"node/308520671","public_transport":"station","railway":"station","station":"subway","subway":"yes"}},{"type":"Feature","geometry":{"type":"Point","coordinates":[-100.3424003,25.7059242]},"properties":{"name":"Mitras","@id":"node/308520673","public_transport":"station","railway":"station","station":"subway","subway":"yes","wheelchair":"limited"}},{"type":"Feature","geometry":{"type":"Point","coordinates":[-100.34249,25.7157426]},"properties":{"name":"Alfonso Reyes","@id":"node/308520674","public_transport":"station","railway":"station","station":"subway","subway":"yes"}},{"type":"Feature","geometry":{"type":"Point","coordinates":[-100.342545,25.7233152]},"properties":{"name":"Penitenciaría","@id":"node/308520675","public_transport":"station","railway":"station","station":"subway","subway":"yes"}},{"type":"Feature","geometry":{"type":"Point","coordinates":[-100.34726,25.7321485]},"properties":{"name":"Aztlán","@id":"node/308520684","public_transport":"station","railway":"station","station":"subway","subway":"yes"}},{"type":"Feature","geometry":{"type":"Point","coordinates":[-100.354908,25.7418717]},"properties":{"name":"Unidad Modelo","@id":"node/308520692","public_transport":"station","railway":"station","station":"subway","subway":"yes"}},{"type":"Feature","geometry":{"type":"Point","coordinates":[-100.361638,25.748389]},"properties":{"name":"San Bernabé","@id":"node/308520693","public_transport":"station","railway":"station","station":"subway","subway":"yes"}},{"type":"Feature","geometry":{"type":"Point","coordinates":[-100.245492,25.6795043]},"properties":{"name":"Exposición","@id":"node/308521283","public_transport":"station","railway":"station","station":"subway","subway":"yes"}},{"type":"Feature","geometry":{"type":"Point","coordinates":[-100.252249,25.6798006]},"properties":{"name":"Lerdo de Tejada","@id":"node/308521285","public_transport":"station","railway":"station","station":"subway","subway":"yes"}},{"type":"Feature","geometry":{"type":"Point","coordinates":[-100.264254,25.6800672]},"properties":{"name":"Eloy Cavazos","@id":"node/308521293","public_transport":"station","railway":"station","station":"subway","subway":"yes"}},{"type":"Feature","geometry":{"type":"Point","coordinates":[-100.279446,25.6832309]},"properties":{"name":"Y Griega","@id":"node/308521303","public_transport":"station","railway":"station","station":"subway","subway":"yes"}},{"type":"Feature","geometry":{"type":"Point","coordinates":[-100.28817,25.6837143]},"properties":{"name":"Parque Fundidora","@id":"node/308521309","public_transport":"station","railway":"station","station":"subway","subway":"yes"}},{"type":"Feature","geometry":{"type":"Point","coordinates":[-100.366394,25.6789194]},"properties":{"@id":"node/796688297","bus":"yes","highway":"bus_stop","public_transport":"platform"}},{"type":"Feature","geometry":{"type":"Point","coordinates":[-100.2534903,25.7967485]},"properties":{"@id":"node/883467206","highway":"bus_stop"}},{"type":"Feature","geometry":{"type":"Point","coordinates":[-99.3842598,25.9067594]},"properties":{"name":"Los Herreras","@id":"node/967532518","railway":"station"}},{"type":"Feature","geometry":{"type":"Point","coordinates":[-100.310202,25.6677517]},"properties":{"name":"General I. Zaragoza","@id":"node/1041599589","public_transport":"station","railway":"station","station":"subway","subway":"yes"}},{"type":"Feature","geometry":{"type":"Point","coordinates":[-100.3155883,25.66863]},"properties":{"name":"Padre Mier","@id":"node/1041599598","internet_access":"yes","network":"Linea 2","operator":"Metrorrey","public_transport":"station","railway":"station","station":"subway","subway":"yes","wheelchair":"yes"}},{"type":"Feature","geometry":{"type":"Point","coordinates":[-100.318765,25.6722242]},"properties":{"name":"Fundadores","@id":"node/1041599626","public_transport":"station","railway":"station","station":"subway","subway":"yes"}},{"type":"Feature","geometry":{"type":"Point","coordinates":[-100.318135,25.6770232]},"properties":{"name":"Alameda","@id":"node/1041599630","public_transport":"station","railway":"station","station":"subway","subway":"yes"}},{"type":"Feature","geometry":{"type":"Point","coordinates":[-100.302611,25.739937]},"properties":{"name":"Anáhuac","@id":"node/1041636956","public_transport":"station","railway":"station","station":"subway","subway":"yes","wheelchair":"no"}},{"type":"Feature","geometry":{"type":"Point","coordinates":[-100.310859,25.717016]},"properties":{"name":"Niños Heroes","@id":"node/1041636969","public_transport":"station","railway":"station","station":"subway","subway":"yes"}},{"type":"Feature","geometry":{"type":"Point","coordinates":[-100.2928846,25.7687766]},"properties":{"name":"Sendero","@id":"node/1041636979","public_transport":"station","railway":"station","station":"subway","subway":"yes"}},{"type":"Feature","geometry":{"type":"Point","coordinates":[-100.316846,25.6966744]},"properties":{"name":"General Anaya","@id":"node/1041636993","public_transport":"station","railway":"station","station":"subway","subway":"yes"}},{"type":"Feature","geometry":{"type":"Point","coordinates":[-100.297955,25.7529179]},"properties":{"name":"San Nicolás","@id":"node/1041637014","public_transport":"station","railway":"station","station":"subway","subway":"yes","wheelchair":"limited"}},{"type":"Feature","geometry":{"type":"Point","coordinates":[-100.313997,25.7081567]},"properties":{"name":"Regina","@id":"node/1041637024","public_transport":"station","railway":"station","station":"subway","subway":"yes"}},{"type":"Feature","geometry":{"type":"Point","coordinates":[-100.295637,25.7593099]},"properties":{"name":"Santiago Tapia","@id":"node/1041637107","public_transport":"station","railway":"station","station":"subway","subway":"yes"}},{"type":"Feature","geometry":{"type":"Point","coordinates":[-100.3082191,25.7243927]},"properties":{"name":"Universidad","@id":"node/1041637116","public_transport":"station","railway":"station","station":"subway","subway":"yes"}},{"type":"Feature","geometry":{"type":"Point","coordinates":[-100.3683411,25.7592609]},"properties":{"name":"Talleres","@id":"node/1041993397","public_transport":"station","railway":"station","station":"subway","subway":"yes"}},{"type":"Feature","geometry":{"type":"Point","coordinates":[-100.1153317,25.7767571]},"properties":{"@id":"node/1102329561","bus":"yes","highway":"bus_stop","public_transport":"platform"}},{"type":"Feature","geometry":{"type":"Point","coordinates":[-99.5763447,24.8754777]},"properties":{"name":"Autobuses Noreste","@id":"node/1146611549","amenity":"bus_station","bus":"yes","public_transport":"station"}},{"type":"Feature","geometry":{"type":"Point","coordinates":[-99.5735123,24.8639723]},"properties":{"name":"Cntral de Autobuses Protacio Rodríguez Cuéllar","@id":"node/1146611719","amenity":"bus_station","bus":"yes","public_transport":"station"}},{"type":"Feature","geometry":{"type":"Point","coordinates":[-100.214263,25.7245126]},"properties":{"@id":"node/1359685503","bus":"yes","highway":"bus_stop","public_transport":"platform"}},{"type":"Feature","geometry":{"type":"Point","coordinates":[-100.21491,25.7245506]},"properties":{"name":"211 (York) - 219 (Churubusco)","@id":"node/1359685544","bus":"yes","highway":"bus_stop","public_transport":"platform"}},{"type":"Feature","geometry":{"type":"Point","coordinates":[-100.2154499,25.7222992]},"properties":{"@id":"node/1359685581","bus":"yes","highway":"bus_stop","public_transport":"platform"}},{"type":"Feature","geometry":{"type":"Point","coordinates":[-100.218157,25.7244099]},"properties":{"@id":"node/1359693025","bus":"yes","highway":"bus_stop","public_transport":"platform"}},{"type":"Feature","geometry":{"type":"Point","coordinates":[-100.3132843,25.7299182]},"properties":{"@id":"node/1386760076","bench":"yes","bin":"no","bus":"yes","highway":"bus_stop","name:signed":"no","public_transport":"platform","shelter":"yes"}},{"type":"Feature","geometry":{"type":"Point","coordinates":[-100.212928,25.6896155]},"properties":{"@id":"node/1402788330","bus":"yes","highway":"bus_stop","public_transport":"platform"}},{"type":"Feature","geometry":{"type":"Point","coordinates":[-100.240861,25.6934139]},"properties":{"@id":"node/1402821228","bus":"yes","highway":"bus_stop","public_transport":"platform"}},{"type":"Feature","geometry":{"type":"Point","coordinates":[-100.3342792,25.6514606]},"properties":{"@id":"node/1516721546","highway":"bus_stop","name:signed":"no","shelter":"yes"}},{"type":"Feature","geometry":{"type":"Point","coordinates":[-100.3847897,25.6551859]},"properties":{"@id":"node/1527799355","highway":"bus_stop"}},{"type":"Feature","geometry":{"type":"Point","coordinates":[-100.318012,25.6415496]},"properties":{"@id":"node/1546318249","bus":"yes","highway":"bus_stop","name:signed":"no","public_transport":"platform"}},{"type":"Feature","geometry":{"type":"Point","coordinates":[-100.265198,25.6007898]},"properties":{"@id":"node/1729694397","bus":"yes","highway":"bus_stop","local_ref":"Lagos del Bosque","public_transport":"platform"}},{"type":"Feature","geometry":{"type":"Point","coordinates":[-100.269584,25.6085835]},"properties":{"@id":"node/1729704027","bus":"yes","highway":"bus_stop","local_ref":"Villa las Fuentes","public_transport":"platform"}},{"type":"Feature","geometry":{"type":"Point","coordinates":[-100.22156,25.723934]},"properties":{"@id":"node/1741835778","bus":"yes","highway":"bus_stop","public_transport":"platform"}},{"type":"Feature","geometry":{"type":"Point","coordinates":[-100.309863,25.6505935]},"properties":{"@id":"node/1772057382","bus":"yes","highway":"bus_stop","public_transport":"platform"}},{"type":"Feature","geometry":{"type":"Point","coordinates":[-100.1635712,25.7059745]},"properties":{"@id":"node/1798882005","bus":"yes","highway":"bus_stop","local_ref":"Ruta 202 y 82","public_transport":"platform"}},{"type":"Feature","geometry":{"type":"Point","coordinates":[-100.178581,25.7064906]},"properties":{"@id":"node/1798887652","amenity":"bus_station","bus":"yes","public_transport":"station"}},{"type":"Feature","geometry":{"type":"Point","coordinates":[-100.3983705,25.6606829]},"properties":{"@id":"node/1826060590","highway":"bus_stop"}},{"type":"Feature","geometry":{"type":"Point","coordinates":[-100.278031,25.6828926]},"properties":{"name":"Y Griega","@id":"node/1829074623","bus":"yes","highway":"bus_stop","name:es":"Y Griega","operator":"Servicio Público","public_transport":"platform"}},{"type":"Feature","geometry":{"type":"Point","coordinates":[-100.30961,25.7310115]},"properties":{"@id":"node/1830207619","bench":"yes","bin":"no","bus":"yes","highway":"bus_stop","public_transport":"platform","shelter":"yes"}},{"type":"Feature","geometry":{"type":"Point","coordinates":[-100.3095742,25.7303119]},"properties":{"@id":"node/1830207751","bench":"yes","bus":"yes","highway":"bus_stop","public_transport":"platform","shelter":"yes"}},{"type":"Feature","geometry":{"type":"Point","coordinates":[-99.8347195,25.1886247]},"properties":{"@id":"node/1831500575","highway":"bus_stop"}},{"type":"Feature","geometry":{"type":"Point","coordinates":[-99.8339471,25.1874984]},"properties":{"@id":"node/1831500576","highway":"bus_stop"}},{"type":"Feature","geometry":{"type":"Point","coordinates":[-100.4187883,25.66569]},"properties":{"@id":"node/1849023735","highway":"bus_stop"}},{"type":"Feature","geometry":{"type":"Point","coordinates":[-100.4166141,25.6656985]},"properties":{"@id":"node/1849023736","highway":"bus_stop"}},{"type":"Feature","geometry":{"type":"Point","coordinates":[-100.412916,25.6659339]},"properties":{"@id":"node/1849023738","highway":"bus_stop"}},{"type":"Feature","geometry":{"type":"Point","coordinates":[-100.2727998,25.7704362]},"properties":{"@id":"node/1931258945","highway":"bus_stop"}},{"type":"Feature","geometry":{"type":"Point","coordinates":[-100.272,25.7327888]},"properties":{"@id":"node/1934350452","bus":"yes","highway":"bus_stop","public_transport":"platform","wheelchair":"no"}},{"type":"Feature","geometry":{"type":"Point","coordinates":[-100.5239947,25.8495199]},"properties":{"name":"Teleférico Grutas de García","@id":"node/1940445060","aerialway":"yes","public_transport":"station","wikidata":"Q6140516","wikipedia":"es:Teleférico de las Grutas de García"}},{"type":"Feature","geometry":{"type":"Point","coordinates":[-100.5261841,25.8541679]},"properties":{"name":"Teleférico Grutas de García","@id":"node/1940445066","aerialway":"yes","public_transport":"station","wikidata":"Q6140516","wikipedia":"es:Teleférico de las Grutas de García"}},{"type":"Feature","geometry":{"type":"Point","coordinates":[-100.1182901,25.7776433]},"properties":{"@id":"node/1955906447","bus":"yes","highway":"bus_stop","public_transport":"platform"}},{"type":"Feature","geometry":{"type":"Point","coordinates":[-99.2030098,26.0223183]},"properties":{"name":"Los Aldama","@id":"node/2150867212","railway":"station"}},{"type":"Feature","geometry":{"type":"Point","coordinates":[-100.316967,25.6900389]},"properties":{"@id":"node/2276211410","bus":"yes","highway":"bus_stop","public_transport":"platform"}},{"type":"Feature","geometry":{"type":"Point","coordinates":[-100.3099674,25.7010973]},"properties":{"@id":"node/2313663770","bus":"yes","highway":"bus_stop","public_transport":"platform"}},{"type":"Feature","geometry":{"type":"Point","coordinates":[-100.260312,25.6630946]},"properties":{"@id":"node/2699547307","bus":"yes","highway":"bus_stop","public_transport":"platform","shelter":"yes"}},{"type":"Feature","geometry":{"type":"Point","coordinates":[-100.260896,25.6629041]},"properties":{"@id":"node/2699547309","bus":"yes","highway":"bus_stop","public_transport":"platform"}},{"type":"Feature","geometry":{"type":"Point","coordinates":[-100.265614,25.6650431]},"properties":{"@id":"node/2699547311","bus":"yes","highway":"bus_stop","public_transport":"platform"}},{"type":"Feature","geometry":{"type":"Point","coordinates":[-100.266097,25.6649859]},"properties":{"@id":"node/2699547313","bus":"yes","highway":"bus_stop","public_transport":"platform"}},{"type":"Feature","geometry":{"type":"Point","coordinates":[-100.267707,25.6657829]},"properties":{"@id":"node/2699547315","bus":"yes","highway":"bus_stop","public_transport":"platform"}},{"type":"Feature","geometry":{"type":"Point","coordinates":[-100.268471,25.6663161]},"properties":{"@id":"node/2699547316","bus":"yes","highway":"bus_stop","public_transport":"platform"}},{"type":"Feature","geometry":{"type":"Point","coordinates":[-100.271176,25.6663452]},"properties":{"@id":"node/2699547318","bus":"yes","highway":"bus_stop","public_transport":"platform"}},{"type":"Feature","geometry":{"type":"Point","coordinates":[-100.280673,25.666596]},"properties":{"@id":"node/2699547320","bus":"yes","highway":"bus_stop","public_transport":"platform"}},{"type":"Feature","geometry":{"type":"Point","coordinates":[-100.281837,25.6669571]},"properties":{"@id":"node/2699547322","bus":"yes","highway":"bus_stop","public_transport":"platform"}},{"type":"Feature","geometry":{"type":"Point","coordinates":[-100.284175,25.6674573]},"properties":{"@id":"node/2699547324","bus":"yes","highway":"bus_stop","public_transport":"platform"}},{"type":"Feature","geometry":{"type":"Point","coordinates":[-100.283799,25.6669919]},"properties":{"@id":"node/2699547326","bus":"yes","highway":"bus_stop","public_transport":"platform","wheelchair":"no"}},{"type":"Feature","geometry":{"type":"Point","coordinates":[-100.284544,25.6674929]},"properties":{"@id":"node/2699547328","bus":"yes","highway":"bus_stop","public_transport":"platform"}},{"type":"Feature","geometry":{"type":"Point","coordinates":[-100.2903901,25.6779507]},"properties":{"@id":"node/2699547329","highway":"bus_stop"}},{"type":"Feature","geometry":{"type":"Point","coordinates":[-99.8171058,25.1866451]},"properties":{"@id":"node/2711408277","disused":"yes","railway":"station"}},{"type":"Feature","geometry":{"type":"Point","coordinates":[-99.5625355,24.8647358]},"properties":{"@id":"node/2858740640","railway":"station"}},{"type":"Feature","geometry":{"type":"Point","coordinates":[-99.1698034,19.4020256]},"properties":{"name":"Nuevo León","@id":"node/2896637003","bus":"yes","highway":"bus_stop","public_transport":"platform","shelter":"yes"}},{"type":"Feature","geometry":{"type":"Point","coordinates":[-99.1704039,19.4034935]},"properties":{"name":"Nuevo León","@id":"node/2898501797","bus":"yes","highway":"bus_stop","public_transport":"platform","shelter":"yes"}},{"type":"Feature","geometry":{"type":"Point","coordinates":[-100.1671127,25.9537297]},"properties":{"@id":"node/3216910325","highway":"bus_stop"}},{"type":"Feature","geometry":{"type":"Point","coordinates":[-100.4200732,25.6738985]},"properties":{"name":"Diaz Ordaz y 20 Noviembre","@id":"node/3473129897","highway":"bus_stop"}},{"type":"Feature","geometry":{"type":"Point","coordinates":[-100.4951384,25.695734]},"properties":{"name":"Ruta 118","@id":"node/3486456752","bus":"yes","highway":"bus_stop","public_transport":"platform","source":"Local knowledge"}},{"type":"Feature","geometry":{"type":"Point","coordinates":[-100.4940658,25.686772]},"properties":{"name":"Ruta 203","@id":"node/3533239717","amenity":"bus_station","bus":"yes","public_transport":"station","source":"Local Knowledge"}},{"type":"Feature","geometry":{"type":"Point","coordinates":[-100.460226,25.6935249]},"properties":{"@id":"node/3581913999","amenity":"bus_station","bus":"yes","public_transport":"station"}},{"type":"Feature","geometry":{"type":"Point","coordinates":[-100.4242578,25.6743144]},"properties":{"@id":"node/3587756707","highway":"bus_stop","name:signed":"no"}},{"type":"Feature","geometry":{"type":"Point","coordinates":[-100.4194124,25.674839]},"properties":{"@id":"node/3587757968","highway":"bus_stop","name:signed":"no","shelter":"yes"}},{"type":"Feature","geometry":{"type":"Point","coordinates":[-100.0971274,25.7016155]},"properties":{"@id":"node/3755281419","bench":"yes","covered":"yes","highway":"bus_stop","shelter":"no"}},{"type":"Feature","geometry":{"type":"Point","coordinates":[-100.281714,25.7081248]},"properties":{"name":"Los Ángeles","@id":"node/3786396125","network":"Linea 3","operator":"Metrorrey","public_transport":"station","railway":"station","station":"subway","subway":"yes"}},{"type":"Feature","geometry":{"type":"Point","coordinates":[-100.297658,25.6778869]},"properties":{"name":"Colonia Obrera","@id":"node/3788005135","internet_access":"no","network":"linea 3","operator":"Metrorrey","public_transport":"station","railway":"station","station":"subway","subway":"yes"}},{"type":"Feature","geometry":{"type":"Point","coordinates":[-100.296992,25.6839868]},"properties":{"name":"Félix U. Gomez","@id":"node/3788005136","network":"Línea 1","operator":"Metrorrey","public_transport":"station","railway":"station","station":"subway","subway":"yes","wheelchair":"yes"}},{"type":"Feature","geometry":{"type":"Point","coordinates":[-100.295814,25.6910212]},"properties":{"name":"Metalúrgicos","@id":"node/3788005137","alt_name":"Conchello","network":"Linea 3","operator":"Metrorrey","public_transport":"station","railway":"station","station":"subway","subway":"yes"}},{"type":"Feature","geometry":{"type":"Point","coordinates":[-100.292594,25.700462]},"properties":{"name":"Moderna","@id":"node/3788005139","alt_name":"Violeta","internet_access":"wlan","network":"Linea 3","operator":"Metrorrey","public_transport":"station","railway":"station","station":"subway","subway":"yes"}},{"type":"Feature","geometry":{"type":"Point","coordinates":[-100.273595,25.7137634]},"properties":{"name":"Hospital Metropolitano","@id":"node/3788005141","network":"Linea 3","operator":"Metrorrey","public_transport":"station","railway":"station","station":"subway","subway":"yes"}},{"type":"Feature","geometry":{"type":"Point","coordinates":[-100.0976797,25.7017001]},"properties":{"@id":"node/3832121621","bench":"yes","covered":"yes","highway":"bus_stop"}},{"type":"Feature","geometry":{"type":"Point","coordinates":[-100.1903237,25.7850553]},"properties":{"@id":"node/3864116881","highway":"bus_stop"}},{"type":"Feature","geometry":{"type":"Point","coordinates":[-100.0979372,25.7007113]},"properties":{"@id":"node/3864244567","bench":"yes","covered":"yes","highway":"bus_stop"}},{"type":"Feature","geometry":{"type":"Point","coordinates":[-100.281343,25.6837657]},"properties":{"name":"VVJ enterprises","@id":"node/4051991143","amenity":"bus_station","bus":"yes","public_transport":"station"}},{"type":"Feature","geometry":{"type":"Point","coordinates":[-100.256056,25.7280409]},"properties":{"@id":"node/4162081167","bus":"yes","highway":"bus_stop","public_transport":"platform"}},{"type":"Feature","geometry":{"type":"Point","coordinates":[-100.255666,25.7277882]},"properties":{"@id":"node/4162081168","bus":"yes","highway":"bus_stop","public_transport":"platform"}},{"type":"Feature","geometry":{"type":"Point","coordinates":[-100.254397,25.7286616]},"properties":{"@id":"node/4162081169","bus":"yes","highway":"bus_stop","public_transport":"platform"}},{"type":"Feature","geometry":{"type":"Point","coordinates":[-100.253548,25.7278028]},"properties":{"@id":"node/4162081170","bus":"yes","highway":"bus_stop","public_transport":"platform"}},{"type":"Feature","geometry":{"type":"Point","coordinates":[-100.253454,25.7280665]},"properties":{"@id":"node/4162081171","bus":"yes","highway":"bus_stop","public_transport":"platform"}},{"type":"Feature","geometry":{"type":"Point","coordinates":[-100.252792,25.7318388]},"properties":{"@id":"node/4162081172","bus":"yes","highway":"bus_stop","public_transport":"platform"}},{"type":"Feature","geometry":{"type":"Point","coordinates":[-100.247935,25.7331938]},"properties":{"@id":"node/4162081173","bus":"yes","highway":"bus_stop","public_transport":"platform"}},{"type":"Feature","geometry":{"type":"Point","coordinates":[-100.247777,25.7335674]},"properties":{"@id":"node/4162081174","bus":"yes","highway":"bus_stop","public_transport":"platform"}},{"type":"Feature","geometry":{"type":"Point","coordinates":[-100.2438826,25.7360119]},"properties":{"@id":"node/4162081184","highway":"bus_stop"}},{"type":"Feature","geometry":{"type":"Point","coordinates":[-100.2428113,25.737052]},"properties":{"@id":"node/4162081800","highway":"bus_stop"}},{"type":"Feature","geometry":{"type":"Point","coordinates":[-100.2410612,25.7379602]},"properties":{"@id":"node/4162081801","highway":"bus_stop"}},{"type":"Feature","geometry":{"type":"Point","coordinates":[-100.2387113,25.7423382]},"properties":{"@id":"node/4162081802","highway":"bus_stop"}},{"type":"Feature","geometry":{"type":"Point","coordinates":[-100.2413315,25.7382531]},"properties":{"@id":"node/4162081806","highway":"bus_stop"}},{"type":"Feature","geometry":{"type":"Point","coordinates":[-100.254493,25.7290847]},"properties":{"@id":"node/4162081807","bus":"yes","highway":"bus_stop","public_transport":"platform"}},{"type":"Feature","geometry":{"type":"Point","coordinates":[-100.257841,25.7262811]},"properties":{"@id":"node/4162081808","bus":"yes","highway":"bus_stop","public_transport":"platform"}},{"type":"Feature","geometry":{"type":"Point","coordinates":[-100.252708,25.7254907]},"properties":{"@id":"node/4162252516","bus":"yes","highway":"bus_stop","public_transport":"platform"}},{"type":"Feature","geometry":{"type":"Point","coordinates":[-100.25109,25.7191796]},"properties":{"@id":"node/4162252517","bus":"yes","highway":"bus_stop","public_transport":"platform"}},{"type":"Feature","geometry":{"type":"Point","coordinates":[-100.25004,25.7163288]},"properties":{"@id":"node/4162252518","bus":"yes","highway":"bus_stop","public_transport":"platform"}},{"type":"Feature","geometry":{"type":"Point","coordinates":[-100.250394,25.7166605]},"properties":{"@id":"node/4162252519","bus":"yes","highway":"bus_stop","public_transport":"platform"}},{"type":"Feature","geometry":{"type":"Point","coordinates":[-100.2505332,25.7157403]},"properties":{"@id":"node/4162252520","bus":"yes","highway":"bus_stop","public_transport":"platform"}},{"type":"Feature","geometry":{"type":"Point","coordinates":[-100.24747,25.7170547]},"properties":{"@id":"node/4162252521","bus":"yes","highway":"bus_stop","public_transport":"platform"}},{"type":"Feature","geometry":{"type":"Point","coordinates":[-100.246168,25.7175474]},"properties":{"@id":"node/4162252522","bus":"yes","highway":"bus_stop","public_transport":"platform"}},{"type":"Feature","geometry":{"type":"Point","coordinates":[-100.24348,25.7188798]},"properties":{"@id":"node/4162252523","bus":"yes","highway":"bus_stop","public_transport":"platform"}},{"type":"Feature","geometry":{"type":"Point","coordinates":[-100.243077,25.7186564]},"properties":{"@id":"node/4162252526","bus":"yes","highway":"bus_stop","public_transport":"platform"}},{"type":"Feature","geometry":{"type":"Point","coordinates":[-100.239409,25.7191352]},"properties":{"@id":"node/4162252527","bus":"yes","highway":"bus_stop","public_transport":"platform"}},{"type":"Feature","geometry":{"type":"Point","coordinates":[-100.239178,25.7195627]},"properties":{"@id":"node/4162252528","bus":"yes","highway":"bus_stop","public_transport":"platform"}},{"type":"Feature","geometry":{"type":"Point","coordinates":[-100.236731,25.7191685]},"properties":{"@id":"node/4162252529","bus":"yes","highway":"bus_stop","public_transport":"platform"}},{"type":"Feature","geometry":{"type":"Point","coordinates":[-100.236913,25.7195779]},"properties":{"@id":"node/4162252530","bus":"yes","highway":"bus_stop","public_transport":"platform"}},{"type":"Feature","geometry":{"type":"Point","coordinates":[-100.235659,25.7196279]},"properties":{"@id":"node/4162252534","bus":"yes","highway":"bus_stop","public_transport":"platform"},"id":238},{"type":"Feature","geometry":{"type":"Point","coordinates":[-100.223349,25.7239234]},"properties":{"@id":"node/4162252535","bus":"yes","highway":"bus_stop","public_transport":"platform"}},{"type":"Feature","geometry":{"type":"Point","coordinates":[-100.222283,25.7241329]},"properties":{"@id":"node/4162252536","bus":"yes","highway":"bus_stop","public_transport":"platform"}},{"type":"Feature","geometry":{"type":"Point","coordinates":[-100.217684,25.724745]},"properties":{"@id":"node/4162252537","bus":"yes","highway":"bus_stop","public_transport":"platform"}},{"type":"Feature","geometry":{"type":"Point","coordinates":[-100.217074,25.7247972]},"properties":{"@id":"node/4162252538","bus":"yes","highway":"bus_stop","public_transport":"platform"},"id":242},{"type":"Feature","geometry":{"type":"Point","coordinates":[-100.276562,25.6837465]},"properties":{"name":"Autobuses Pegasso","@id":"node/4356151501","amenity":"bus_station","bus":"yes","public_transport":"station"}},{"type":"Feature","geometry":{"type":"Point","coordinates":[-100.296836,25.6839217]},"properties":{"name":"Félix U. Gómez","@id":"node/4366974200","network":"Linea 3","operator":"Metrorrey","public_transport":"station","railway":"station","station":"subway","subway":"yes","wheelchair":"yes"}},{"type":"Feature","geometry":{"type":"Point","coordinates":[-100.2887021,25.7032038]},"properties":{"name":"Ruiz Cortinez","@id":"node/4366974201","network":"Metrorrey - Línea 3","public_transport":"station","railway":"station","station":"subway","subway":"yes"}},{"type":"Feature","geometry":{"type":"Point","coordinates":[-100.175673,26.509214]},"properties":{"name":"TRANSPORTES FRONTERA","@id":"node/4441541489","amenity":"bus_station","bus":"yes","public_transport":"station"}},{"type":"Feature","geometry":{"type":"Point","coordinates":[-100.185463,26.5032603]},"properties":{"name":"TRANSPORTES TAMAULIPAS","@id":"node/4441556510","amenity":"bus_station"}},{"type":"Feature","geometry":{"type":"Point","coordinates":[-100.1766138,26.5066393]},"properties":{"@id":"node/4442505196","highway":"bus_stop"}},{"type":"Feature","geometry":{"type":"Point","coordinates":[-100.173704,26.4967871]},"properties":{"@id":"node/4442505197","highway":"bus_stop"}},{"type":"Feature","geometry":{"type":"Point","coordinates":[-100.1932601,26.5015534]},"properties":{"@id":"node/4443027592","highway":"bus_stop"}},{"type":"Feature","geometry":{"type":"Point","coordinates":[-100.1737935,26.5127186]},"properties":{"@id":"node/4446991763","bus":"yes","highway":"bus_stop","public_transport":"platform"}},{"type":"Feature","geometry":{"type":"Point","coordinates":[-100.2075097,26.5003654]},"properties":{"@id":"node/4449616923","highway":"bus_stop"}},{"type":"Feature","geometry":{"type":"Point","coordinates":[-100.4430915,25.675625]},"properties":{"name":"Grupo Senda","@id":"node/4465012291","amenity":"bus_station"}},{"type":"Feature","geometry":{"type":"Point","coordinates":[-100.4169024,25.6805186]},"properties":{"@id":"node/4640576478","bench":"yes","highway":"bus_stop","shelter":"yes"}},{"type":"Feature","geometry":{"type":"Point","coordinates":[-100.331142,25.6817619]},"properties":{"@id":"node/4640587299","bus":"yes","highway":"bus_stop","public_transport":"platform"}},{"type":"Feature","geometry":{"type":"Point","coordinates":[-100.331134,25.6818634]},"properties":{"@id":"node/4640587300","bus":"yes","highway":"bus_stop","public_transport":"platform"}},{"type":"Feature","geometry":{"type":"Point","coordinates":[-100.3857938,25.8534748]},"properties":{"@id":"node/4721137089","bus":"yes","highway":"bus_stop","name:es":"Ruta 1 \"San Nicolás/Alianza Real\"","public_transport":"platform"}},{"type":"Feature","geometry":{"type":"Point","coordinates":[-100.298547,25.6713947]},"properties":{"name":"Santa Lucía","@id":"node/5108553595","network":"Linea 3","operator":"Metrorrey","public_transport":"station","railway":"station","station":"subway","subway":"yes"}},{"type":"Feature","geometry":{"type":"Point","coordinates":[-100.1212082,25.7807065]},"properties":{"@id":"node/5253003568","bus":"yes","highway":"bus_stop","public_transport":"platform"}},{"type":"Feature","geometry":{"type":"Point","coordinates":[-100.719772,25.1678574]},"properties":{"name":"Parada Puerto Mexico De Transporte Público","@id":"node/5839311502","internet_access":"no","internet_access:fee":"no","public_transport":"station"}},{"type":"Feature","geometry":{"type":"Point","coordinates":[-100.4073011,25.6780814]},"properties":{"name":"parada de bus","@id":"node/5873923341","bus":"yes","highway":"bus_stop","public_transport":"platform"}},{"type":"Feature","geometry":{"type":"Point","coordinates":[-100.382718,25.6611679]},"properties":{"name":"calzada-H Lobo UDEM B","@id":"node/5973597125","bus":"yes","highway":"bus_stop","public_transport":"platform"}},{"type":"Feature","geometry":{"type":"Point","coordinates":[-100.0781843,25.7927512]},"properties":{"@id":"node/6109204377","bus":"yes","highway":"bus_stop","public_transport":"platform"}},{"type":"Feature","geometry":{"type":"Point","coordinates":[-100.2685773,25.6947209]},"properties":{"@id":"node/6110510022","bus":"yes","highway":"bus_stop","public_transport":"platform"}},{"type":"Feature","geometry":{"type":"Point","coordinates":[-100.1016249,25.6899329]},"properties":{"@id":"node/6263065975","bus":"yes","highway":"bus_stop","public_transport":"platform"}},{"type":"Feature","geometry":{"type":"Point","coordinates":[-100.0995545,25.6892758]},"properties":{"@id":"node/6263065976","bus":"yes","highway":"bus_stop","public_transport":"platform"}},{"type":"Feature","geometry":{"type":"Point","coordinates":[-100.0964696,25.6880762]},"properties":{"@id":"node/6263065977","bus":"yes","highway":"bus_stop","public_transport":"platform"}},{"type":"Feature","geometry":{"type":"Point","coordinates":[-100.0946255,25.687584]},"properties":{"@id":"node/6263065978","bus":"yes","highway":"bus_stop","public_transport":"platform"}},{"type":"Feature","geometry":{"type":"Point","coordinates":[-100.1038932,25.6903683]},"properties":{"@id":"node/6263544321","bus":"yes","highway":"bus_stop","public_transport":"platform"}},{"type":"Feature","geometry":{"type":"Point","coordinates":[-100.1066785,25.6897679]},"properties":{"@id":"node/6263544322","bus":"yes","highway":"bus_stop","public_transport":"platform"}},{"type":"Feature","geometry":{"type":"Point","coordinates":[-100.1079894,25.6898081]},"properties":{"@id":"node/6263544323","bus":"yes","highway":"bus_stop","public_transport":"platform"}},{"type":"Feature","geometry":{"type":"Point","coordinates":[-100.1085764,25.6891762]},"properties":{"@id":"node/6263544324","bus":"yes","highway":"bus_stop","public_transport":"platform"}},{"type":"Feature","geometry":{"type":"Point","coordinates":[-100.1111137,25.6881971]},"properties":{"@id":"node/6263544325","bus":"yes","highway":"bus_stop","public_transport":"platform"}},{"type":"Feature","geometry":{"type":"Point","coordinates":[-100.1107355,25.6891947]},"properties":{"@id":"node/6263544326","bus":"yes","highway":"bus_stop","public_transport":"platform"}},{"type":"Feature","geometry":{"type":"Point","coordinates":[-100.1112719,25.6883923]},"properties":{"@id":"node/6263544327","bus":"yes","highway":"bus_stop","public_transport":"platform"}},{"type":"Feature","geometry":{"type":"Point","coordinates":[-100.1110828,25.6892753]},"properties":{"@id":"node/6263544328","bus":"yes","highway":"bus_stop","public_transport":"platform"}},{"type":"Feature","geometry":{"type":"Point","coordinates":[-100.1156417,25.6891514]},"properties":{"@id":"node/6263544336","bus":"yes","highway":"bus_stop","public_transport":"platform"}},{"type":"Feature","geometry":{"type":"Point","coordinates":[-100.1164669,25.6909205]},"properties":{"@id":"node/6263544337","bus":"yes","highway":"bus_stop","public_transport":"platform"}},{"type":"Feature","geometry":{"type":"Point","coordinates":[-100.1166456,25.6925316]},"properties":{"@id":"node/6263544338","bus":"yes","highway":"bus_stop","public_transport":"platform"}},{"type":"Feature","geometry":{"type":"Point","coordinates":[-100.1398464,25.7222437]},"properties":{"@id":"node/6267167969","bus":"yes","highway":"bus_stop","public_transport":"platform"}},{"type":"Feature","geometry":{"type":"Point","coordinates":[-100.1395376,25.7223672]},"properties":{"@id":"node/6267167970","bus":"yes","highway":"bus_stop","public_transport":"platform"}},{"type":"Feature","geometry":{"type":"Point","coordinates":[-100.1420011,25.7243954]},"properties":{"name":"Campestre Huinala","@id":"node/6267167971","bus":"yes","highway":"bus_stop","public_transport":"platform"}},{"type":"Feature","geometry":{"type":"Point","coordinates":[-100.1418937,25.7246837]},"properties":{"@id":"node/6267167972","bus":"yes","highway":"bus_stop","public_transport":"platform"}},{"type":"Feature","geometry":{"type":"Point","coordinates":[-100.1312965,25.7010011]},"properties":{"@id":"node/6267211026","bus":"yes","highway":"bus_stop","public_transport":"platform"}},{"type":"Feature","geometry":{"type":"Point","coordinates":[-100.1316449,25.7017953]},"properties":{"@id":"node/6267211027","bus":"yes","highway":"bus_stop","public_transport":"platform"}},{"type":"Feature","geometry":{"type":"Point","coordinates":[-100.131941,25.7013652]},"properties":{"@id":"node/6267211028","bus":"yes","highway":"bus_stop","public_transport":"platform"}},{"type":"Feature","geometry":{"type":"Point","coordinates":[-100.130969,25.7016509]},"properties":{"@id":"node/6267211029","bus":"yes","highway":"bus_stop","public_transport":"platform"}},{"type":"Feature","geometry":{"type":"Point","coordinates":[-100.1338748,25.706043]},"properties":{"@id":"node/6267211035","bus":"yes","highway":"bus_stop","public_transport":"platform"}},{"type":"Feature","geometry":{"type":"Point","coordinates":[-100.1340664,25.7060241]},"properties":{"@id":"node/6267211036","bus":"yes","highway":"bus_stop","public_transport":"platform"}},{"type":"Feature","geometry":{"type":"Point","coordinates":[-100.1351326,25.7106107]},"properties":{"@id":"node/6267211037","bus":"yes","highway":"bus_stop","public_transport":"platform"}},{"type":"Feature","geometry":{"type":"Point","coordinates":[-100.1354461,25.7106075]},"properties":{"@id":"node/6267211038","bus":"yes","highway":"bus_stop","public_transport":"platform"}},{"type":"Feature","geometry":{"type":"Point","coordinates":[-100.1346064,25.7084885]},"properties":{"@id":"node/6267211039","bus":"yes","highway":"bus_stop","public_transport":"platform"}},{"type":"Feature","geometry":{"type":"Point","coordinates":[-100.1347946,25.7084226]},"properties":{"@id":"node/6267211040","bus":"yes","highway":"bus_stop","public_transport":"platform"}},{"type":"Feature","geometry":{"type":"Point","coordinates":[-100.13592,25.7132256]},"properties":{"@id":"node/6267211041","bus":"yes","highway":"bus_stop","public_transport":"platform"}},{"type":"Feature","geometry":{"type":"Point","coordinates":[-100.1361186,25.7132099]},"properties":{"@id":"node/6267211042","bus":"yes","highway":"bus_stop","public_transport":"platform"}},{"type":"Feature","geometry":{"type":"Point","coordinates":[-100.1442367,25.7269618]},"properties":{"@id":"node/6267211043","bus":"yes","highway":"bus_stop","public_transport":"platform"}},{"type":"Feature","geometry":{"type":"Point","coordinates":[-100.1445399,25.7268896]},"properties":{"@id":"node/6267211044","bus":"yes","highway":"bus_stop","public_transport":"platform"}},{"type":"Feature","geometry":{"type":"Point","coordinates":[-100.1469335,25.7296769]},"properties":{"@id":"node/6267211045","bus":"yes","highway":"bus_stop","public_transport":"platform"}},{"type":"Feature","geometry":{"type":"Point","coordinates":[-100.1467105,25.7290491]},"properties":{"@id":"node/6267211046","bus":"yes","highway":"bus_stop","public_transport":"platform"}},{"type":"Feature","geometry":{"type":"Point","coordinates":[-100.1552816,25.7374858]},"properties":{"@id":"node/6267211047","bus":"yes","highway":"bus_stop","public_transport":"platform"}},{"type":"Feature","geometry":{"type":"Point","coordinates":[-100.1554837,25.7381763]},"properties":{"@id":"node/6267211048","bus":"yes","highway":"bus_stop","public_transport":"platform"}},{"type":"Feature","geometry":{"type":"Point","coordinates":[-100.1592257,25.7416945]},"properties":{"@id":"node/6267211049","bus":"yes","highway":"bus_stop","public_transport":"platform"}},{"type":"Feature","geometry":{"type":"Point","coordinates":[-100.1592501,25.7413398]},"properties":{"@id":"node/6267211050","bus":"yes","highway":"bus_stop","public_transport":"platform"}},{"type":"Feature","geometry":{"type":"Point","coordinates":[-100.1633893,25.7493865]},"properties":{"@id":"node/6267211051","bus":"yes","highway":"bus_stop","public_transport":"platform"}},{"type":"Feature","geometry":{"type":"Point","coordinates":[-100.1634799,25.7491762]},"properties":{"@id":"node/6267211052","bus":"yes","highway":"bus_stop","public_transport":"platform"}},{"type":"Feature","geometry":{"type":"Point","coordinates":[-100.1697779,25.7544615]},"properties":{"@id":"node/6267211053","bus":"yes","highway":"bus_stop","public_transport":"platform"}},{"type":"Feature","geometry":{"type":"Point","coordinates":[-100.1703298,25.754638]},"properties":{"@id":"node/6267211054","bus":"yes","highway":"bus_stop","public_transport":"platform"}},{"type":"Feature","geometry":{"type":"Point","coordinates":[-100.1717226,25.7583919]},"properties":{"@id":"node/6267211055","bus":"yes","highway":"bus_stop","public_transport":"platform"}},{"type":"Feature","geometry":{"type":"Point","coordinates":[-100.1721146,25.7582897]},"properties":{"@id":"node/6267211056","bus":"yes","highway":"bus_stop","public_transport":"platform"}},{"type":"Feature","geometry":{"type":"Point","coordinates":[-100.1723238,25.7595253]},"properties":{"@id":"node/6267211057","bus":"yes","highway":"bus_stop","public_transport":"platform"}},{"type":"Feature","geometry":{"type":"Point","coordinates":[-100.1729166,25.7598985]},"properties":{"@id":"node/6267211058","bus":"yes","highway":"bus_stop","public_transport":"platform"}},{"type":"Feature","geometry":{"type":"Point","coordinates":[-100.1734236,25.7623335]},"properties":{"@id":"node/6267211059","bus":"yes","highway":"bus_stop","public_transport":"platform"}},{"type":"Feature","geometry":{"type":"Point","coordinates":[-100.1737615,25.7623552]},"properties":{"@id":"node/6267211060","bus":"yes","highway":"bus_stop","public_transport":"platform"}},{"type":"Feature","geometry":{"type":"Point","coordinates":[-100.17407,25.7637273]},"properties":{"@id":"node/6267211061","bus":"yes","highway":"bus_stop","public_transport":"platform"}},{"type":"Feature","geometry":{"type":"Point","coordinates":[-100.1745715,25.7669243]},"properties":{"@id":"node/6267211062","bus":"yes","highway":"bus_stop","public_transport":"platform"}},{"type":"Feature","geometry":{"type":"Point","coordinates":[-100.1833799,25.7766029]},"properties":{"@id":"node/6267211063","bus":"yes","highway":"bus_stop","public_transport":"platform"}},{"type":"Feature","geometry":{"type":"Point","coordinates":[-100.1835221,25.7765884]},"properties":{"@id":"node/6267211064","bus":"yes","highway":"bus_stop","public_transport":"platform"}},{"type":"Feature","geometry":{"type":"Point","coordinates":[-100.1849973,25.7766753]},"properties":{"@id":"node/6267211065","bus":"yes","highway":"bus_stop","public_transport":"platform"}},{"type":"Feature","geometry":{"type":"Point","coordinates":[-100.1852628,25.7764628]},"properties":{"@id":"node/6267211066","bus":"yes","highway":"bus_stop","public_transport":"platform"}},{"type":"Feature","geometry":{"type":"Point","coordinates":[-100.1854962,25.7762067]},"properties":{"@id":"node/6267211067","bus":"yes","highway":"bus_stop","public_transport":"platform"}},{"type":"Feature","geometry":{"type":"Point","coordinates":[-100.1853862,25.7754266]},"properties":{"@id":"node/6267211068","bus":"yes","highway":"bus_stop","public_transport":"platform"}},{"type":"Feature","geometry":{"type":"Point","coordinates":[-100.1858744,25.7756681]},"properties":{"@id":"node/6267211069","bus":"yes","highway":"bus_stop","public_transport":"platform"}},{"type":"Feature","geometry":{"type":"Point","coordinates":[-100.1860594,25.7754338]},"properties":{"@id":"node/6267211070","bus":"yes","highway":"bus_stop","public_transport":"platform"}},{"type":"Feature","geometry":{"type":"Point","coordinates":[-100.1863223,25.7751343]},"properties":{"@id":"node/6267211071","bus":"yes","highway":"bus_stop","public_transport":"platform"}},{"type":"Feature","geometry":{"type":"Point","coordinates":[-100.1874542,25.7758275]},"properties":{"@id":"node/6267211072","bus":"yes","highway":"bus_stop","public_transport":"platform"}},{"type":"Feature","geometry":{"type":"Point","coordinates":[-100.1872182,25.7759797]},"properties":{"@id":"node/6267211073","bus":"yes","highway":"bus_stop","public_transport":"platform"}},{"type":"Feature","geometry":{"type":"Point","coordinates":[-100.1871082,25.7760691]},"properties":{"@id":"node/6267211074","bus":"yes","highway":"bus_stop","public_transport":"platform"}},{"type":"Feature","geometry":{"type":"Point","coordinates":[-100.1868668,25.7762285]},"properties":{"@id":"node/6267211075","bus":"yes","highway":"bus_stop","public_transport":"platform"}},{"type":"Feature","geometry":{"type":"Point","coordinates":[-100.1855069,25.7772671]},"properties":{"@id":"node/6267211076","bus":"yes","highway":"bus_stop","public_transport":"platform"}},{"type":"Feature","geometry":{"type":"Point","coordinates":[-100.1853245,25.7772767]},"properties":{"@id":"node/6267211077","bus":"yes","highway":"bus_stop","public_transport":"platform"}},{"type":"Feature","geometry":{"type":"Point","coordinates":[-100.1869499,25.7780182]},"properties":{"@id":"node/6267211078","bus":"yes","highway":"bus_stop","public_transport":"platform"}},{"type":"Feature","geometry":{"type":"Point","coordinates":[-100.1862445,25.7784337]},"properties":{"@id":"node/6267211079","bus":"yes","highway":"bus_stop","public_transport":"platform"}},{"type":"Feature","geometry":{"type":"Point","coordinates":[-100.322239,25.6768884]},"properties":{"@id":"node/6285382486","bus":"yes","highway":"bus_stop","public_transport":"platform"}},{"type":"Feature","geometry":{"type":"Point","coordinates":[-100.198628,25.7235941]},"properties":{"name":"P","@id":"node/6285410486","bench":"yes","bin":"no","bus":"yes","highway":"bus_stop","lit":"no","public_transport":"platform","shelter":"yes"}},{"type":"Feature","geometry":{"type":"Point","coordinates":[-100.31787,25.6866397]},"properties":{"@id":"node/6285410487","bus":"yes","highway":"bus_stop","name:signed":"no","public_transport":"platform"}},{"type":"Feature","geometry":{"type":"Point","coordinates":[-100.194202,25.7237901]},"properties":{"@id":"node/6285411485","bench":"yes","bin":"no","bus":"yes","highway":"bus_stop","public_transport":"platform","shelter":"yes"}},{"type":"Feature","geometry":{"type":"Point","coordinates":[-100.318104,25.6768147]},"properties":{"@id":"node/6285411585","bus":"yes","highway":"bus_stop","public_transport":"platform"}},{"type":"Feature","geometry":{"type":"Point","coordinates":[-100.320662,25.6767396]},"properties":{"@id":"node/6285411685","bus":"yes","highway":"bus_stop","public_transport":"platform"}},{"type":"Feature","geometry":{"type":"Point","coordinates":[-100.5812298,25.7874191]},"properties":{"@id":"node/6770530572","bus":"yes","highway":"bus_stop","public_transport":"platform"}},{"type":"Feature","geometry":{"type":"Point","coordinates":[-100.4599936,25.6946031]},"properties":{"@id":"node/6770530577","bus":"yes","highway":"bus_stop","public_transport":"platform"}},{"type":"Feature","geometry":{"type":"Point","coordinates":[-100.5802917,25.7854479]},"properties":{"@id":"node/6773596546","bus":"yes","highway":"bus_stop","public_transport":"platform"}},{"type":"Feature","geometry":{"type":"Point","coordinates":[-100.5801401,25.7851045]},"properties":{"@id":"node/6773596547","bus":"yes","highway":"bus_stop","public_transport":"platform"}},{"type":"Feature","geometry":{"type":"Point","coordinates":[-100.579998,25.7848187]},"properties":{"@id":"node/6773596548","bus":"yes","highway":"bus_stop","public_transport":"platform"}},{"type":"Feature","geometry":{"type":"Point","coordinates":[-100.5798488,25.7844817]},"properties":{"@id":"node/6773596549","bus":"yes","highway":"bus_stop","public_transport":"platform"}},{"type":"Feature","geometry":{"type":"Point","coordinates":[-100.5661776,25.8022795]},"properties":{"@id":"node/6988844395","bus":"yes","highway":"bus_stop","public_transport":"platform"}},{"type":"Feature","geometry":{"type":"Point","coordinates":[-100.5659732,25.8024571]},"properties":{"@id":"node/6988844396","bus":"yes","highway":"bus_stop","public_transport":"platform"}},{"type":"Feature","geometry":{"type":"Point","coordinates":[-100.5661139,25.801968]},"properties":{"@id":"node/6988844397","bus":"yes","highway":"bus_stop","public_transport":"platform"}},{"type":"Feature","geometry":{"type":"Point","coordinates":[-100.5682769,25.7999503]},"properties":{"@id":"node/6988844398","bus":"yes","highway":"bus_stop","public_transport":"platform"}},{"type":"Feature","geometry":{"type":"Point","coordinates":[-100.454714,25.6906567]},"properties":{"@id":"node/7070965397","bus":"yes","highway":"bus_stop","public_transport":"platform"}},{"type":"Feature","geometry":{"type":"Point","coordinates":[-100.4546563,25.6906178]},"properties":{"@id":"node/7070965398","bus":"yes","highway":"bus_stop","public_transport":"platform"}},{"type":"Feature","geometry":{"type":"Point","coordinates":[-100.4546008,25.6905769]},"properties":{"@id":"node/7070965399","bus":"yes","highway":"bus_stop","public_transport":"platform"}},{"type":"Feature","geometry":{"type":"Point","coordinates":[-100.0634751,25.7874348]},"properties":{"@id":"node/7295730569","bus":"yes","highway":"bus_stop","public_transport":"platform"}},{"type":"Feature","geometry":{"type":"Point","coordinates":[-100.18733,25.6575238]},"properties":{"name":"Tarjeta Feria","@id":"node/7411733487","bus":"yes","highway":"bus_stop","operator":"Feria","public_transport":"platform"}},{"type":"Feature","geometry":{"type":"Point","coordinates":[-100.1071501,25.8209123]},"properties":{"@id":"node/7439921822","bus":"yes","highway":"bus_stop","public_transport":"platform"}},{"type":"Feature","geometry":{"type":"Point","coordinates":[-100.1070351,25.8210676]},"properties":{"@id":"node/7439921823","bus":"yes","highway":"bus_stop","public_transport":"platform"}},{"type":"Feature","geometry":{"type":"Point","coordinates":[-100.1143828,25.7749636]},"properties":{"@id":"node/7454991611","bus":"yes","highway":"bus_stop","public_transport":"platform"}},{"type":"Feature","geometry":{"type":"Point","coordinates":[-100.2647968,25.8706394]},"properties":{"@id":"node/7607830852","bus":"yes","highway":"bus_stop","network":318,"public_transport":"platform"}},{"type":"Feature","geometry":{"type":"Point","coordinates":[-100.0231455,25.8559329]},"properties":{"@id":"node/7703076972","bus":"yes","highway":"bus_stop","public_transport":"platform"}},{"type":"Feature","geometry":{"type":"Point","coordinates":[-100.0236423,25.8563349]},"properties":{"@id":"node/7703077189","bus":"yes","highway":"bus_stop","public_transport":"platform"}},{"type":"Feature","geometry":{"type":"Point","coordinates":[-100.0932201,25.7990814]},"properties":{"@id":"node/7726859326","bus":"yes","highway":"bus_stop","public_transport":"platform"}},{"type":"Feature","geometry":{"type":"Point","coordinates":[-100.0933065,25.7988523]},"properties":{"@id":"node/7726859327","bus":"yes","highway":"bus_stop","public_transport":"platform"}},{"type":"Feature","geometry":{"type":"Point","coordinates":[-100.0913086,25.7984715]},"properties":{"@id":"node/7726888360","bus":"yes","highway":"bus_stop","public_transport":"platform"}},{"type":"Feature","geometry":{"type":"Point","coordinates":[-100.0915192,25.7982883]},"properties":{"@id":"node/7726891393","bus":"yes","highway":"bus_stop","public_transport":"platform"}},{"type":"Feature","geometry":{"type":"Point","coordinates":[-100.5280215,25.7473432]},"properties":{"@id":"node/7893949153","bus":"yes","highway":"bus_stop","public_transport":"platform"}},{"type":"Feature","geometry":{"type":"Point","coordinates":[-100.054167,25.7975231]},"properties":{"name":"Calle Villa Ximena","@id":"node/7918183799","bus":"yes","highway":"bus_stop","public_transport":"platform"}},{"type":"Feature","geometry":{"type":"Point","coordinates":[-100.054492,25.7974683]},"properties":{"name":"Calle Villa Ximena","@id":"node/7918183800","bus":"yes","highway":"bus_stop","public_transport":"platform"}},{"type":"Feature","geometry":{"type":"Point","coordinates":[-100.4377591,23.6853645]},"properties":{"name":"San Blas","@id":"node/8009586102","bus":"yes","highway":"bus_stop","public_transport":"platform"}},{"type":"Feature","geometry":{"type":"Point","coordinates":[-100.4372924,23.6850649]},"properties":{"name":"San Blas","@id":"node/8009586103","bus":"yes","highway":"bus_stop","public_transport":"platform"}},{"type":"Feature","geometry":{"type":"Point","coordinates":[-100.4191902,23.683023]},"properties":{"name":"Álvaro Obregón","@id":"node/8009586105","bus":"yes","highway":"bus_stop","public_transport":"platform"}},{"type":"Feature","geometry":{"type":"Point","coordinates":[-100.4181924,23.6826398]},"properties":{"name":"Álvaro Obregón","@id":"node/8009586106","bus":"yes","highway":"bus_stop","public_transport":"platform"}},{"type":"Feature","geometry":{"type":"Point","coordinates":[-100.3919121,23.6795988]},"properties":{"name":"San Gregorio","@id":"node/8009586107","bus":"yes","highway":"bus_stop","public_transport":"platform"}},{"type":"Feature","geometry":{"type":"Point","coordinates":[-100.3918906,23.6793729]},"properties":{"name":"San Gregorio","@id":"node/8009586108","bus":"yes","highway":"bus_stop","public_transport":"platform"}},{"type":"Feature","geometry":{"type":"Point","coordinates":[-100.0523116,25.7966797]},"properties":{"@id":"node/8026223912","bus":"yes","highway":"bus_stop","public_transport":"platform"}},{"type":"Feature","geometry":{"type":"Point","coordinates":[-100.0526421,25.7965848]},"properties":{"@id":"node/8026223913","bus":"yes","highway":"bus_stop","public_transport":"platform"}},{"type":"Feature","geometry":{"type":"Point","coordinates":[-100.0559297,25.7984491]},"properties":{"name":"Calle Villa Antonieta","@id":"node/8026223914","bus":"yes","highway":"bus_stop","public_transport":"platform"}},{"type":"Feature","geometry":{"type":"Point","coordinates":[-100.0559367,25.798173]},"properties":{"name":"Calle Villa Antonieta","@id":"node/8026223915","bus":"yes","highway":"bus_stop","public_transport":"platform"}},{"type":"Feature","geometry":{"type":"Point","coordinates":[-100.057394,25.7990158]},"properties":{"name":"Calle Villa Casandra","@id":"node/8026223916","bus":"yes","highway":"bus_stop","public_transport":"platform"}},{"type":"Feature","geometry":{"type":"Point","coordinates":[-100.057478,25.7988455]},"properties":{"name":"Calle Villa Casandra","@id":"node/8026223917","bus":"yes","highway":"bus_stop","public_transport":"platform"}},{"type":"Feature","geometry":{"type":"Point","coordinates":[-100.058892,25.7974043]},"properties":{"name":"Calle Villa Daniela","@id":"node/8026223918","bus":"yes","highway":"bus_stop","public_transport":"platform"}},{"type":"Feature","geometry":{"type":"Point","coordinates":[-100.058673,25.7971309]},"properties":{"name":"Calle Villa Daniela","@id":"node/8026223919","bus":"yes","highway":"bus_stop","public_transport":"platform"}},{"type":"Feature","geometry":{"type":"Point","coordinates":[-100.058468,25.7958624]},"properties":{"name":"Calle Villa María","@id":"node/8026223920","bus":"yes","highway":"bus_stop","public_transport":"platform"}},{"type":"Feature","geometry":{"type":"Point","coordinates":[-100.058806,25.7962463]},"properties":{"name":"Calle Villa Maribel","@id":"node/8026223921","bus":"yes","highway":"bus_stop","public_transport":"platform"}},{"type":"Feature","geometry":{"type":"Point","coordinates":[-100.057778,25.7940246]},"properties":{"name":"Calle Villa Cleopatra","@id":"node/8026223922","bus":"yes","highway":"bus_stop","public_transport":"platform"}},{"type":"Feature","geometry":{"type":"Point","coordinates":[-100.057945,25.793881]},"properties":{"name":"Calle Villa Cleopatra","@id":"node/8026223923","bus":"yes","highway":"bus_stop","public_transport":"platform"}},{"type":"Feature","geometry":{"type":"Point","coordinates":[-100.057554,25.7929167]},"properties":{"name":"Calle Villa Aurora","@id":"node/8026223924","bus":"yes","highway":"bus_stop","public_transport":"platform"}},{"type":"Feature","geometry":{"type":"Point","coordinates":[-100.057836,25.7929476]},"properties":{"name":"Calle Villa Aurora","@id":"node/8026223925","bus":"yes","highway":"bus_stop","public_transport":"platform"}},{"type":"Feature","geometry":{"type":"Point","coordinates":[-99.9527128,25.8564627]},"properties":{"@id":"node/8032325165","bus":"yes","highway":"bus_stop","public_transport":"platform"}},{"type":"Feature","geometry":{"type":"Point","coordinates":[-100.107741,25.8211869]},"properties":{"@id":"node/8048948225","bus":"yes","highway":"bus_stop","public_transport":"platform"}},{"type":"Feature","geometry":{"type":"Point","coordinates":[-100.100381,25.8010537]},"properties":{"@id":"node/8057495581","bus":"yes","highway":"bus_stop","public_transport":"platform"}},{"type":"Feature","geometry":{"type":"Point","coordinates":[-100.100632,25.8014472]},"properties":{"@id":"node/8057495582","bus":"yes","highway":"bus_stop","public_transport":"platform"}},{"type":"Feature","geometry":{"type":"Point","coordinates":[-100.1008912,25.801546]},"properties":{"@id":"node/8057495583","bus":"yes","highway":"bus_stop","public_transport":"platform"}},{"type":"Feature","geometry":{"type":"Point","coordinates":[-100.1011131,25.8012989]},"properties":{"@id":"node/8057495584","bus":"yes","highway":"bus_stop","public_transport":"platform"}},{"type":"Feature","geometry":{"type":"Point","coordinates":[-100.2988214,25.6565323]},"properties":{"name":"Calle 2 De Abril X Mallorca","@id":"node/8097461357","bus":"yes","highway":"bus_stop","public_transport":"platform"}},{"type":"Feature","geometry":{"type":"Point","coordinates":[-100.2918399,25.6550929]},"properties":{"name":"Junco De La Vega 2325","@id":"node/8097461358","bus":"yes","highway":"bus_stop","public_transport":"platform"}},{"type":"Feature","geometry":{"type":"Point","coordinates":[-100.2896849,25.65338]},"properties":{"name":"Ricardo Covarrubias X Junco De La Vega","@id":"node/8097461359","bus":"yes","highway":"bus_stop","public_transport":"platform"}},{"type":"Feature","geometry":{"type":"Point","coordinates":[-100.2866917,25.6505017]},"properties":{"name":"Avenida Luis Elizondo X Junco De La Vega","@id":"node/8097461360","bench":"no","bin":"no","bus":"yes","highway":"bus_stop","public_transport":"platform","shelter":"no"}},{"type":"Feature","geometry":{"type":"Point","coordinates":[-100.2890619,25.6487057]},"properties":{"name":"Luis Elizondo 325e","@id":"node/8097461361","bench":"no","bin":"no","bus":"yes","highway":"bus_stop","public_transport":"platform","shelter":"no"}},{"type":"Feature","geometry":{"type":"Point","coordinates":[-100.2869076,25.6430879]},"properties":{"name":"Eugenio Garza Sada","@id":"node/8105139864","bus":"yes","highway":"bus_stop","public_transport":"platform","shelter":"yes"}},{"type":"Feature","geometry":{"type":"Point","coordinates":[-100.2884067,25.6455113]},"properties":{"name":"Napoles X Eugenio Garza Sada","@id":"node/8105139866","bus":"yes","highway":"bus_stop","public_transport":"platform"}},{"type":"Feature","geometry":{"type":"Point","coordinates":[-100.2896224,25.6473796]},"properties":{"name":"Avenida Eugenio Garza Sada X Eugenio Garza Sada","@id":"node/8105139867","bus":"yes","highway":"bus_stop","public_transport":"platform"}},{"type":"Feature","geometry":{"type":"Point","coordinates":[-100.2905825,25.6488822]},"properties":{"name":"Avenida Eugenio Garza Sada X Eugenio Garza Sada","@id":"node/8105139868","bus":"yes","highway":"bus_stop","public_transport":"platform"}},{"type":"Feature","geometry":{"type":"Point","coordinates":[-100.2918639,25.6509418]},"properties":{"name":"Avenida Eugenio Garza Sada X Eugenio Garza Sada","@id":"node/8105139869","bus":"yes","highway":"bus_stop","public_transport":"platform"}},{"type":"Feature","geometry":{"type":"Point","coordinates":[-100.2929741,25.6526622]},"properties":{"name":"Avenida Eugenio Garza Sada X Eugenio Garza Sada","@id":"node/8105139871","bus":"yes","highway":"bus_stop","public_transport":"platform"}},{"type":"Feature","geometry":{"type":"Point","coordinates":[-100.295553,25.6568219]},"properties":{"name":"Avenida Eugenio Garza Sada X Eugenio Garza Sada","@id":"node/8105139872","bus":"yes","highway":"bus_stop","public_transport":"platform"}},{"type":"Feature","geometry":{"type":"Point","coordinates":[-100.2968067,25.6591155]},"properties":{"name":"Avenida Eugenio Garza Sada X Atenas","@id":"node/8105139873","bus":"yes","highway":"bus_stop","public_transport":"platform"}},{"type":"Feature","geometry":{"type":"Point","coordinates":[-100.2970157,25.660997]},"properties":{"name":"Eugenio Garza Sada","@id":"node/8105139874","bus":"yes","highway":"bus_stop","public_transport":"platform"}},{"type":"Feature","geometry":{"type":"Point","coordinates":[-100.2951115,25.6494644]},"properties":{"name":"Av. Del Estado X Agrónomos","@id":"node/8105565998","bus":"yes","highway":"bus_stop","public_transport":"platform"}},{"type":"Feature","geometry":{"type":"Point","coordinates":[-100.2985063,25.6510846]},"properties":{"name":"Calle Pirineos X Rio Pánico","@id":"node/8105565999","bus":"yes","highway":"bus_stop","public_transport":"platform"}},{"type":"Feature","geometry":{"type":"Point","coordinates":[-100.2852132,25.6403798]},"properties":{"name":"Avenida Eugenio Garza Sada X Eugenio Garza Sada","@id":"node/8109067171","bus":"yes","highway":"bus_stop","public_transport":"platform"}},{"type":"Feature","geometry":{"type":"Point","coordinates":[-100.2970691,25.6636214]},"properties":{"name":"Avenida Eugenio Garza Sada X Eugenio Garza Sada","@id":"node/8109067172","bus":"yes","highway":"bus_stop","public_transport":"platform"}},{"type":"Feature","geometry":{"type":"Point","coordinates":[-100.2974902,25.6655265]},"properties":{"name":"Prol. Morelos X Eugenio Garza Sada","@id":"node/8109067175","bus":"yes","highway":"bus_stop","public_transport":"platform"}},{"type":"Feature","geometry":{"type":"Point","coordinates":[-100.2843705,25.6531383]},"properties":{"name":"Parada","@id":"node/8109822912","bus":"yes","highway":"bus_stop","public_transport":"platform"}},{"type":"Feature","geometry":{"type":"Point","coordinates":[-100.2883736,25.653801]},"properties":{"name":"Ricardo Covarrubias X Nogales","@id":"node/8109822913","bus":"yes","highway":"bus_stop","public_transport":"platform"}},{"type":"Feature","geometry":{"type":"Point","coordinates":[-100.2902945,25.6541609]},"properties":{"name":"Junco De La Vega 2523","@id":"node/8109822914","bus":"yes","highway":"bus_stop","public_transport":"platform"}},{"type":"Feature","geometry":{"type":"Point","coordinates":[-100.2931872,25.6566847]},"properties":{"name":"Pirineos X Junco De La Vega","@id":"node/8109822915","bus":"yes","highway":"bus_stop","public_transport":"platform"}},{"type":"Feature","geometry":{"type":"Point","coordinates":[-100.2963207,25.6593153]},"properties":{"name":"Junco De La Vega X Atenas","@id":"node/8109822916","bus":"yes","highway":"bus_stop","public_transport":"platform"}},{"type":"Feature","geometry":{"type":"Point","coordinates":[-100.3039134,25.656567]},"properties":{"name":"Libertad X Sinaloa","@id":"node/8112079466","bus":"yes","highway":"bus_stop","public_transport":"platform"}},{"type":"Feature","geometry":{"type":"Point","coordinates":[-100.3020475,25.6562315]},"properties":{"name":"Libertad X Chiapas","@id":"node/8112079467","bus":"yes","highway":"bus_stop","public_transport":"platform"}},{"type":"Feature","geometry":{"type":"Point","coordinates":[-100.4611297,25.6934965]},"properties":{"@id":"node/8118738617","highway":"bus_stop","survey:date":"2020-11-14"}},{"type":"Feature","geometry":{"type":"Point","coordinates":[-100.112305,25.7744214]},"properties":{"@id":"node/8137124917","bus":"yes","highway":"bus_stop","public_transport":"platform"}},{"type":"Feature","geometry":{"type":"Point","coordinates":[-100.313457,25.7237774]},"properties":{"@id":"node/8322572494","bus":"yes","highway":"bus_stop","public_transport":"platform"}},{"type":"Feature","geometry":{"type":"Point","coordinates":[-100.31012,25.7233791]},"properties":{"@id":"node/8322604189","bus":"yes","highway":"bus_stop","public_transport":"platform"}},{"type":"Feature","geometry":{"type":"Point","coordinates":[-100.315938,25.7237894]},"properties":{"@id":"node/8322618926","bus":"yes","highway":"bus_stop","public_transport":"platform"}},{"type":"Feature","geometry":{"type":"Point","coordinates":[-100.4043832,25.939997]},"properties":{"name":"Carretera Nuevo León 72","@id":"node/8322874011","bus":"yes","highway":"bus_stop","name:en":"Highway Nuevo Leon 72","name:es":"Carretera Nuevo León 72","public_transport":"platform"}},{"type":"Feature","geometry":{"type":"Point","coordinates":[-100.137537,25.838618]},"properties":{"@id":"node/8459304717","bus":"yes","highway":"bus_stop","public_transport":"platform"}},{"type":"Feature","geometry":{"type":"Point","coordinates":[-100.3169234,25.6860969]},"properties":{"name":"Cuauhtémoc","@id":"node/8475590852","network":"Linea 1/2","operator":"Metrorrey","public_transport":"station","railway":"station","station":"subway","subway":"yes","wheelchair":"limited"}},{"type":"Feature","geometry":{"type":"Point","coordinates":[-100.1768778,25.8956411]},"properties":{"@id":"node/8504586442","bus":"yes","highway":"bus_stop","public_transport":"platform"}},{"type":"Feature","geometry":{"type":"Point","coordinates":[-100.4130553,25.6659427]},"properties":{"name":"Morones-Diego Saldivar","@id":"node/8507832404","bus":"yes","highway":"bus_stop","public_transport":"platform"}},{"type":"Feature","geometry":{"type":"Point","coordinates":[-100.4226257,25.6630036]},"properties":{"name":"CRGS","@id":"node/8507844769","bus":"yes","highway":"bus_stop","public_transport":"platform"}},{"type":"Feature","geometry":{"type":"Point","coordinates":[-100.4090863,25.6644088]},"properties":{"name":"Vasconzelos-Jiménez","@id":"node/8507880285","bus":"yes","highway":"bus_stop","public_transport":"platform"}},{"type":"Feature","geometry":{"type":"Point","coordinates":[-100.4020601,25.6619366]},"properties":{"name":"Vasconcelos-Guerrero","@id":"node/8507880286","bus":"yes","highway":"bus_stop","public_transport":"platform"}},{"type":"Feature","geometry":{"type":"Point","coordinates":[-100.3940614,25.6592748]},"properties":{"name":"Vasconselos-Santa Barbara","@id":"node/8507880287","bus":"yes","highway":"bus_stop","public_transport":"platform"}},{"type":"Feature","geometry":{"type":"Point","coordinates":[-100.3858854,25.6553966]},"properties":{"name":"Vasconselos-H Lobo UDEM","@id":"node/8507884874","bus":"yes","highway":"bus_stop","public_transport":"platform"}},{"type":"Feature","geometry":{"type":"Point","coordinates":[-100.3828853,25.6605778]},"properties":{"name":"H Lobo- Calzada UDEM","@id":"node/8507884875","bus":"yes","highway":"bus_stop","public_transport":"platform"}},{"type":"Feature","geometry":{"type":"Point","coordinates":[-100.3747486,25.6583016]},"properties":{"name":"Calzada-Balsas UDEM","@id":"node/8507884876","bus":"yes","highway":"bus_stop","public_transport":"platform"}},{"type":"Feature","geometry":{"type":"Point","coordinates":[-100.3800283,25.6457375]},"properties":{"name":"Alfonso Reyes-Lomas del valle UDEM","@id":"node/8507909361","bus":"yes","highway":"bus_stop","public_transport":"platform"}},{"type":"Feature","geometry":{"type":"Point","coordinates":[-100.385807,25.6481795]},"properties":{"name":"Alfonso Ryes-Tampiquito UDEM","@id":"node/8507909362","bus":"yes","highway":"bus_stop","public_transport":"platform"}},{"type":"Feature","geometry":{"type":"Point","coordinates":[-100.3920883,25.6512689]},"properties":{"name":"Alfonso Reyes -Neil UDEM","@id":"node/8507909363","bus":"yes","highway":"bus_stop","public_transport":"platform"}},{"type":"Feature","geometry":{"type":"Point","coordinates":[-100.3663821,25.6558545]},"properties":{"name":"Calzada-Tamazunchale UDEM","@id":"node/8507910969","bus":"yes","highway":"bus_stop","public_transport":"platform"}},{"type":"Feature","geometry":{"type":"Point","coordinates":[-100.3584802,25.6520637]},"properties":{"name":"Palacio UDEM","@id":"node/8507910970","bus":"yes","highway":"bus_stop","public_transport":"platform"}},{"type":"Feature","geometry":{"type":"Point","coordinates":[-100.3655004,25.6407477]},"properties":{"name":"Alfinso Reyes- Lopez Mateos UDEM","@id":"node/8507910971","bus":"yes","highway":"bus_stop","public_transport":"platform"}},{"type":"Feature","geometry":{"type":"Point","coordinates":[-100.3731661,25.6425441]},"properties":{"name":"Alfonso Reyes- Bosques del valle UDEM","@id":"node/8507910972","bus":"yes","highway":"bus_stop","public_transport":"platform"}},{"type":"Feature","geometry":{"type":"Point","coordinates":[-100.4018605,25.6546481]},"properties":{"name":"Alfonso Reyes-Geronimo Treviño UDEM","@id":"node/8507931858","bus":"yes","highway":"bus_stop","public_transport":"platform"}},{"type":"Feature","geometry":{"type":"Point","coordinates":[-100.4078214,25.6566591]},"properties":{"name":"Alfonso Reyes-Corregidora UDEM","@id":"node/8507931859","bus":"yes","highway":"bus_stop","public_transport":"platform"}},{"type":"Feature","geometry":{"type":"Point","coordinates":[-100.4129165,25.6583939]},"properties":{"name":"Alfonso Reyes-Padre Mier UDEM","@id":"node/8507931860","bus":"yes","highway":"bus_stop","public_transport":"platform"}},{"type":"Feature","geometry":{"type":"Point","coordinates":[-100.4174319,25.6595409]},"properties":{"name":"Alfonzo Reyes-Plaza Nativa UDEM","@id":"node/8507931861","bus":"yes","highway":"bus_stop","public_transport":"platform"}},{"type":"Feature","geometry":{"type":"Point","coordinates":[-100.4124008,25.6662558]},"properties":{"name":"Morones-Jimenez UDEM B","@id":"node/8509084510","bus":"yes","highway":"bus_stop","public_transport":"platform"}},{"type":"Feature","geometry":{"type":"Point","coordinates":[-100.403975,25.6698767]},"properties":{"name":"Morones-Corregidora UDEM B","@id":"node/8509084511","bus":"yes","highway":"bus_stop","public_transport":"platform"}},{"type":"Feature","geometry":{"type":"Point","coordinates":[-100.4033191,25.662575]},"properties":{"name":"Vasconcelos -Juarez UDEM B","@id":"node/8509084512","bus":"yes","highway":"bus_stop","public_transport":"platform"}},{"type":"Feature","geometry":{"type":"Point","coordinates":[-100.3980529,25.6607517]},"properties":{"name":"Vasconselos -Naranjo UDEM B","@id":"node/8509084513","bus":"yes","highway":"bus_stop","public_transport":"platform"}},{"type":"Feature","geometry":{"type":"Point","coordinates":[-100.3918598,25.6584259]},"properties":{"name":"Vasconselos -Doblado UDEM B","@id":"node/8509116373","bus":"yes","highway":"bus_stop","public_transport":"platform"}},{"type":"Feature","geometry":{"type":"Point","coordinates":[-100.3852998,25.6555072]},"properties":{"name":"Vasconselos-H Lobo UDEM B","@id":"node/8509116374","bus":"yes","highway":"bus_stop","public_transport":"platform"}},{"type":"Feature","geometry":{"type":"Point","coordinates":[-100.3741858,25.6587336]},"properties":{"name":"Calzadas - Balsas UDEM B","@id":"node/8509116375","bus":"yes","highway":"bus_stop","public_transport":"platform"}},{"type":"Feature","geometry":{"type":"Point","coordinates":[-100.3686667,25.6571167]},"properties":{"name":"Calzada - Grijalva UDEM B","@id":"node/8509132390","bus":"yes","highway":"bus_stop","public_transport":"platform"}},{"type":"Feature","geometry":{"type":"Point","coordinates":[-100.3620242,25.6551796]},"properties":{"name":"Calzada - Rio de la plata UDEM B","@id":"node/8509132391","bus":"yes","highway":"bus_stop","public_transport":"platform"}},{"type":"Feature","geometry":{"type":"Point","coordinates":[-100.3545896,25.6534449]},"properties":{"name":"Vasconcelos - Olmo UDEM B","@id":"node/8509132392","bus":"yes","highway":"bus_stop","public_transport":"platform"}},{"type":"Feature","geometry":{"type":"Point","coordinates":[-100.3599235,25.6461738]},"properties":{"name":"Gomez morin- Magnolia UDEM B","@id":"node/8509132393","bus":"yes","highway":"bus_stop","public_transport":"platform"}},{"type":"Feature","geometry":{"type":"Point","coordinates":[-100.3659529,25.640631]},"properties":{"name":"Alfonso Reyes - Lopez Mateos UDEM B","@id":"node/8509132394","bus":"yes","highway":"bus_stop","public_transport":"platform"}},{"type":"Feature","geometry":{"type":"Point","coordinates":[-100.3732428,25.6422958]},"properties":{"name":"Alfonso reyes - bosques del valle UDEM B","@id":"node/8509132395","bus":"yes","highway":"bus_stop","public_transport":"platform"}},{"type":"Feature","geometry":{"type":"Point","coordinates":[-100.3805315,25.645655]},"properties":{"name":"Alfonso Reyes - Lomas del valle UDEM B","@id":"node/8509132396","bus":"yes","highway":"bus_stop","public_transport":"platform"}},{"type":"Feature","geometry":{"type":"Point","coordinates":[-100.383923,25.6472465]},"properties":{"name":"Alfonso Reyes - Tampiquito UDEM B","@id":"node/8509132397","bus":"yes","highway":"bus_stop","public_transport":"platform"}},{"type":"Feature","geometry":{"type":"Point","coordinates":[-100.3928011,25.6512747]},"properties":{"name":"Alfonso Reyes - Neil UDEM B","@id":"node/8509142095","bus":"yes","highway":"bus_stop","public_transport":"platform"}},{"type":"Feature","geometry":{"type":"Point","coordinates":[-100.3995188,25.6535796]},"properties":{"name":"Alfonso Reyes- Matamoros UDEM B","@id":"node/8509142096","bus":"yes","highway":"bus_stop","public_transport":"platform"}},{"type":"Feature","geometry":{"type":"Point","coordinates":[-100.4066873,25.6560319]},"properties":{"name":"Alfosno Reyes - Juarez UDEM B","@id":"node/8509144699","bus":"yes","highway":"bus_stop","public_transport":"platform"}},{"type":"Feature","geometry":{"type":"Point","coordinates":[-100.4130513,25.6581395]},"properties":{"name":"Valle de la Paz UDEM B","@id":"node/8509144700","bus":"yes","highway":"bus_stop","public_transport":"platform"}},{"type":"Feature","geometry":{"type":"Point","coordinates":[-100.404597,25.6693241]},"properties":{"@id":"node/8626968709","bus":"yes","highway":"bus_stop","public_transport":"platform"}},{"type":"Feature","geometry":{"type":"Point","coordinates":[-100.3665563,25.6682941]},"properties":{"@id":"node/8627110681","bus":"yes","highway":"bus_stop","public_transport":"platform"}},{"type":"Feature","geometry":{"type":"Point","coordinates":[-100.3688516,25.6677795]},"properties":{"@id":"node/8627110682","bus":"yes","highway":"bus_stop","public_transport":"platform"}},{"type":"Feature","geometry":{"type":"Point","coordinates":[-100.3689869,25.668177]},"properties":{"@id":"node/8627110683","bus":"yes","highway":"bus_stop","public_transport":"platform"}},{"type":"Feature","geometry":{"type":"Point","coordinates":[-100.3814243,25.6682508]},"properties":{"@id":"node/8627110704","bus":"yes","highway":"bus_stop","public_transport":"platform"}},{"type":"Feature","geometry":{"type":"Point","coordinates":[-100.3880059,25.670179]},"properties":{"@id":"node/8627128642","bus":"yes","highway":"bus_stop","public_transport":"platform"}},{"type":"Feature","geometry":{"type":"Point","coordinates":[-100.4164018,25.6659517]},"properties":{"@id":"node/8627155763","bus":"yes","highway":"bus_stop","public_transport":"platform"}},{"type":"Feature","geometry":{"type":"Point","coordinates":[-100.3275205,25.6475881]},"properties":{"@id":"node/8627241041","bus":"yes","highway":"bus_stop","public_transport":"platform"}},{"type":"Feature","geometry":{"type":"Point","coordinates":[-100.3216166,25.6438434]},"properties":{"@id":"node/8627241067","bus":"yes","highway":"bus_stop","public_transport":"platform"}},{"type":"Feature","geometry":{"type":"Point","coordinates":[-100.3382087,25.6547141]},"properties":{"@id":"node/8627266544","bus":"yes","highway":"bus_stop","public_transport":"platform"}},{"type":"Feature","geometry":{"type":"Point","coordinates":[-100.17899,25.7295627]},"properties":{"@id":"node/8674343017","bus":"yes","highway":"bus_stop","public_transport":"platform"}},{"type":"Feature","geometry":{"type":"Point","coordinates":[-100.255615,25.6892222]},"properties":{"@id":"node/8929302066","bus":"yes","highway":"bus_stop","public_transport":"platform"}},{"type":"Feature","geometry":{"type":"Point","coordinates":[-100.049163,25.7960094]},"properties":{"name":"Calle Villa Frida","@id":"node/8999283819","bus":"yes","highway":"bus_stop","public_transport":"platform"}},{"type":"Feature","geometry":{"type":"Point","coordinates":[-100.049592,25.7955984]},"properties":{"name":"Calle Villa Frida","@id":"node/8999283820","bus":"yes","highway":"bus_stop","public_transport":"platform"}},{"type":"Feature","geometry":{"type":"Point","coordinates":[-100.6309723,25.8001913]},"properties":{"name":"Estacion 1 Tren Suburbano","@id":"node/9018688861","public_transport":"station","railway":"station","train":"yes"}},{"type":"Feature","geometry":{"type":"Point","coordinates":[-100.0452385,25.7954823]},"properties":{"@id":"node/9046108265","bus":"yes","highway":"bus_stop","public_transport":"platform"}},{"type":"Feature","geometry":{"type":"Point","coordinates":[-100.0452213,25.7954047]},"properties":{"@id":"node/9046108266","bus":"yes","highway":"bus_stop","public_transport":"platform"}},{"type":"Feature","geometry":{"type":"Point","coordinates":[-100.0779878,25.7930509]},"properties":{"@id":"node/9052340831","bus":"yes","highway":"bus_stop","public_transport":"platform"}},{"type":"Feature","geometry":{"type":"Point","coordinates":[-100.059121,25.7857369]},"properties":{"@id":"node/9239432628","bus":"yes","highway":"bus_stop","public_transport":"platform","shelter":"yes"}},{"type":"Feature","geometry":{"type":"Point","coordinates":[-100.0224122,25.7780641]},"properties":{"@id":"node/9241939377","bus":"yes","highway":"bus_stop","public_transport":"platform"}},{"type":"Feature","geometry":{"type":"Point","coordinates":[-100.0534357,25.7831452]},"properties":{"@id":"node/9249076006","bus":"yes","highway":"bus_stop","public_transport":"platform"}},{"type":"Feature","geometry":{"type":"Point","coordinates":[-100.0524919,25.7831098]},"properties":{"@id":"node/9249076007","bus":"yes","highway":"bus_stop","public_transport":"platform"}},{"type":"Feature","geometry":{"type":"Point","coordinates":[-100.0524644,25.7838887]},"properties":{"@id":"node/9249076008","bus":"yes","highway":"bus_stop","public_transport":"platform"}},{"type":"Feature","geometry":{"type":"Point","coordinates":[-100.0535214,25.7839554]},"properties":{"@id":"node/9249076009","bus":"yes","highway":"bus_stop","public_transport":"platform"}},{"type":"Feature","geometry":{"type":"Point","coordinates":[-100.0561711,25.7833409]},"properties":{"@id":"node/9249076010","bus":"yes","highway":"bus_stop","public_transport":"platform"}},{"type":"Feature","geometry":{"type":"Point","coordinates":[-100.0587122,25.7841725]},"properties":{"@id":"node/9249076012","bus":"yes","highway":"bus_stop","public_transport":"platform"}},{"type":"Feature","geometry":{"type":"Point","coordinates":[-100.0561617,25.784059]},"properties":{"@id":"node/9249076013","bus":"yes","highway":"bus_stop","public_transport":"platform"}},{"type":"Feature","geometry":{"type":"Point","coordinates":[-100.0588917,25.7841045]},"properties":{"@id":"node/9249076021","bus":"yes","highway":"bus_stop","public_transport":"platform"}},{"type":"Feature","geometry":{"type":"Point","coordinates":[-100.0514646,25.7847002]},"properties":{"@id":"node/9249076022","bus":"yes","highway":"bus_stop","public_transport":"platform"}},{"type":"Feature","geometry":{"type":"Point","coordinates":[-100.0515413,25.7848189]},"properties":{"@id":"node/9249076023","bus":"yes","highway":"bus_stop","public_transport":"platform"}},{"type":"Feature","geometry":{"type":"Point","coordinates":[-100.051384,25.7860936]},"properties":{"@id":"node/9249076024","bus":"yes","highway":"bus_stop","public_transport":"platform"}},{"type":"Feature","geometry":{"type":"Point","coordinates":[-100.0514607,25.7861007]},"properties":{"@id":"node/9249076025","bus":"yes","highway":"bus_stop","public_transport":"platform"}},{"type":"Feature","geometry":{"type":"Point","coordinates":[-100.0513191,25.7874639]},"properties":{"@id":"node/9249076026","bus":"yes","highway":"bus_stop","public_transport":"platform"}},{"type":"Feature","geometry":{"type":"Point","coordinates":[-100.051386,25.7874249]},"properties":{"@id":"node/9249076027","bus":"yes","highway":"bus_stop","public_transport":"platform"}},{"type":"Feature","geometry":{"type":"Point","coordinates":[-100.0513604,25.7883314]},"properties":{"@id":"node/9249076028","bus":"yes","highway":"bus_stop","public_transport":"platform"}},{"type":"Feature","geometry":{"type":"Point","coordinates":[-100.0512955,25.7883243]},"properties":{"@id":"node/9249076029","bus":"yes","highway":"bus_stop","public_transport":"platform"}},{"type":"Feature","geometry":{"type":"Point","coordinates":[-100.0504795,25.7890714]},"properties":{"@id":"node/9249076030","bus":"yes","highway":"bus_stop","public_transport":"platform"}},{"type":"Feature","geometry":{"type":"Point","coordinates":[-100.0504874,25.7891174]},"properties":{"@id":"node/9249076031","bus":"yes","highway":"bus_stop","public_transport":"platform"}},{"type":"Feature","geometry":{"type":"Point","coordinates":[-100.0496274,25.7901179]},"properties":{"@id":"node/9249076032","bus":"yes","highway":"bus_stop","public_transport":"platform"}},{"type":"Feature","geometry":{"type":"Point","coordinates":[-100.0496567,25.7901748]},"properties":{"@id":"node/9249076033","bus":"yes","highway":"bus_stop","public_transport":"platform"}},{"type":"Feature","geometry":{"type":"Point","coordinates":[-100.0480102,25.7902805]},"properties":{"@id":"node/9249076034","bus":"yes","highway":"bus_stop","public_transport":"platform"}},{"type":"Feature","geometry":{"type":"Point","coordinates":[-100.0480125,25.7903348]},"properties":{"@id":"node/9249076035","bus":"yes","highway":"bus_stop","public_transport":"platform"}},{"type":"Feature","geometry":{"type":"Point","coordinates":[-100.0462993,25.7902656]},"properties":{"@id":"node/9249076036","bus":"yes","highway":"bus_stop","public_transport":"platform"}},{"type":"Feature","geometry":{"type":"Point","coordinates":[-100.046305,25.7903236]},"properties":{"@id":"node/9249076037","bus":"yes","highway":"bus_stop","public_transport":"platform"}},{"type":"Feature","geometry":{"type":"Point","coordinates":[-100.0429287,25.7956927]},"properties":{"@id":"node/9249076046","bus":"yes","highway":"bus_stop","public_transport":"platform"}},{"type":"Feature","geometry":{"type":"Point","coordinates":[-100.0428147,25.7958483]},"properties":{"@id":"node/9249076047","bus":"yes","highway":"bus_stop","public_transport":"platform"}},{"type":"Feature","geometry":{"type":"Point","coordinates":[-100.0406876,25.7961575]},"properties":{"@id":"node/9249076048","bus":"yes","highway":"bus_stop","public_transport":"platform"}},{"type":"Feature","geometry":{"type":"Point","coordinates":[-100.040782,25.7960442]},"properties":{"@id":"node/9249076049","bus":"yes","highway":"bus_stop","public_transport":"platform"}},{"type":"Feature","geometry":{"type":"Point","coordinates":[-100.0386939,25.7963451]},"properties":{"@id":"node/9249076050","bus":"yes","highway":"bus_stop","public_transport":"platform"}},{"type":"Feature","geometry":{"type":"Point","coordinates":[-100.038627,25.7964655]},"properties":{"@id":"node/9249076051","bus":"yes","highway":"bus_stop","public_transport":"platform"}},{"type":"Feature","geometry":{"type":"Point","coordinates":[-100.0370412,25.7969636]},"properties":{"@id":"node/9249076054","bus":"yes","highway":"bus_stop","public_transport":"platform"}},{"type":"Feature","geometry":{"type":"Point","coordinates":[-100.0370054,25.7968294]},"properties":{"@id":"node/9249076055","bus":"yes","highway":"bus_stop","public_transport":"platform"}},{"type":"Feature","geometry":{"type":"Point","coordinates":[-100.0365496,25.7918447]},"properties":{"@id":"node/9249076056","bus":"yes","highway":"bus_stop","public_transport":"platform"}},{"type":"Feature","geometry":{"type":"Point","coordinates":[-100.0363915,25.791922]},"properties":{"@id":"node/9249076057","bus":"yes","highway":"bus_stop","public_transport":"platform"}},{"type":"Feature","geometry":{"type":"Point","coordinates":[-100.0391806,25.7918552]},"properties":{"@id":"node/9249076058","bus":"yes","highway":"bus_stop","public_transport":"platform"}},{"type":"Feature","geometry":{"type":"Point","coordinates":[-100.0391189,25.791812]},"properties":{"@id":"node/9249076059","bus":"yes","highway":"bus_stop","public_transport":"platform"}},{"type":"Feature","geometry":{"type":"Point","coordinates":[-100.0392232,25.7899448]},"properties":{"@id":"node/9249076060","bus":"yes","highway":"bus_stop","public_transport":"platform"}},{"type":"Feature","geometry":{"type":"Point","coordinates":[-100.0391397,25.7899448]},"properties":{"@id":"node/9249076061","bus":"yes","highway":"bus_stop","public_transport":"platform"}},{"type":"Feature","geometry":{"type":"Point","coordinates":[-100.0396095,25.7877855]},"properties":{"@id":"node/9249076062","bus":"yes","highway":"bus_stop","public_transport":"platform"}},{"type":"Feature","geometry":{"type":"Point","coordinates":[-100.0395486,25.7877672]},"properties":{"@id":"node/9249076063","bus":"yes","highway":"bus_stop","public_transport":"platform"}},{"type":"Feature","geometry":{"type":"Point","coordinates":[-100.0377104,25.78566]},"properties":{"@id":"node/9249076064","bus":"yes","highway":"bus_stop","public_transport":"platform"}},{"type":"Feature","geometry":{"type":"Point","coordinates":[-100.0376625,25.7857494]},"properties":{"@id":"node/9249076065","bus":"yes","highway":"bus_stop","public_transport":"platform"}},{"type":"Feature","geometry":{"type":"Point","coordinates":[-100.0225085,25.7778624]},"properties":{"@id":"node/9249076066","bus":"yes","highway":"bus_stop","public_transport":"platform"}},{"type":"Feature","geometry":{"type":"Point","coordinates":[-100.0268179,25.7797295]},"properties":{"@id":"node/9249076067","bus":"yes","highway":"bus_stop","public_transport":"platform"}},{"type":"Feature","geometry":{"type":"Point","coordinates":[-100.0270302,25.7796969]},"properties":{"@id":"node/9249076068","bus":"yes","highway":"bus_stop","public_transport":"platform"}},{"type":"Feature","geometry":{"type":"Point","coordinates":[-100.0306304,25.781446]},"properties":{"@id":"node/9249076069","bus":"yes","highway":"bus_stop","public_transport":"platform"}},{"type":"Feature","geometry":{"type":"Point","coordinates":[-100.0307027,25.781324]},"properties":{"@id":"node/9249076070","bus":"yes","highway":"bus_stop","public_transport":"platform"}},{"type":"Feature","geometry":{"type":"Point","coordinates":[-100.034592,25.7838336]},"properties":{"@id":"node/9249076071","bus":"yes","highway":"bus_stop","public_transport":"platform"}},{"type":"Feature","geometry":{"type":"Point","coordinates":[-100.0347908,25.7838052]},"properties":{"@id":"node/9249076072","bus":"yes","highway":"bus_stop","public_transport":"platform"}},{"type":"Feature","geometry":{"type":"Point","coordinates":[-100.0175487,25.7754544]},"properties":{"@id":"node/9249076073","bus":"yes","highway":"bus_stop","public_transport":"platform"}},{"type":"Feature","geometry":{"type":"Point","coordinates":[-100.0173544,25.7755113]},"properties":{"@id":"node/9249076074","bus":"yes","highway":"bus_stop","public_transport":"platform"}},{"type":"Feature","geometry":{"type":"Point","coordinates":[-100.0103187,25.772779]},"properties":{"@id":"node/9249076075","bus":"yes","highway":"bus_stop","public_transport":"platform"}},{"type":"Feature","geometry":{"type":"Point","coordinates":[-100.0103934,25.7726232]},"properties":{"@id":"node/9249076076","bus":"yes","highway":"bus_stop","public_transport":"platform"}},{"type":"Feature","geometry":{"type":"Point","coordinates":[-100.0591958,25.7855021]},"properties":{"@id":"node/9249548251","bus":"yes","highway":"bus_stop","public_transport":"platform","shelter":"yes"}},{"type":"Feature","geometry":{"type":"Point","coordinates":[-100.2387703,25.894842]},"properties":{"name":"LEGO Operaciones de México (Planta M)","@id":"node/9331412254","bus":"yes","departures_board":"no","highway":"bus_stop","network":"LEGO Operaciones de México","operator":"MILAN Transportes","public_transport":"platform"}},{"type":"Feature","geometry":{"type":"Point","coordinates":[-100.3227734,25.7945569]},"properties":{"@id":"node/9401862927","bench":"no","bin":"yes","bus":"yes","departures_board":"no","highway":"bus_stop","lit":"no","network":"Instituto de Movilidad y Accesibilidad de Nuevo León","public_transport":"platform","shelter":"no"}},{"type":"Feature","geometry":{"type":"Point","coordinates":[-100.111268,25.6529576]},"properties":{"name":"Interenlace","@id":"node/9403792938","amenity":"bus_station","bus":"yes","public_transport":"station"},"id":542},{"type":"Feature","geometry":{"type":"Point","coordinates":[-100.330318,25.7831083]},"properties":{"name":"Transmetro Fomerrey 9 (Acueducto)","@id":"node/9409150794","bench":"yes","bin":"yes","bus":"yes","departures_board":"no","highway":"bus_stop","lit":"yes","network":"Transmetro","operator":"Sistema de Transporte Colectivo Metrorrey","public_transport":"platform","ref":"E-15","shelter":"yes","tactile_paving":"no","wheelchair":"yes"}},{"type":"Feature","geometry":{"type":"Point","coordinates":[-100.329787,25.7846061]},"properties":{"name":"Transmetro Fomerrey 9 (Profesor Guillermo Chapa)","@id":"node/9409245076","bench":"no","bin":"no","bus":"yes","departures_board":"no","highway":"bus_stop","lit":"no","network":"Transmetro","operator":"Sistema de Transporte Colectivo Metrorrey","public_transport":"platform","ref":"E-16","shelter":"no","tactile_paving":"no","wheelchair":"no"}},{"type":"Feature","geometry":{"type":"Point","coordinates":[-100.323188,25.7909733]},"properties":{"name":"Transmetro Fomerrey 9 (Los Girasoles)","@id":"node/9409245079","bench":"yes","bin":"yes","bus":"yes","departures_board":"no","highway":"bus_stop","lit":"yes","network":"Transmetro","operator":"Sistema de Transporte Colectivo Metrorrey","public_transport":"platform","ref":"E-18","shelter":"yes","tactile_paving":"no","wheelchair":"yes"}},{"type":"Feature","geometry":{"type":"Point","coordinates":[-100.3236317,25.7915219]},"properties":{"name":"Plaza Girasoles (Norte)","@id":"node/9409245080","bus":"yes","highway":"bus_stop","public_transport":"platform"}},{"type":"Feature","geometry":{"type":"Point","coordinates":[-100.3231204,25.790345]},"properties":{"name":"Plaza Girasoles (Sur)","@id":"node/9409245081","bus":"yes","highway":"bus_stop","public_transport":"platform"}},{"type":"Feature","geometry":{"type":"Point","coordinates":[-100.3298251,25.792625]},"properties":{"@id":"node/9698515936","bus":"yes","highway":"bus_stop","public_transport":"platform"}},{"type":"Feature","geometry":{"type":"Point","coordinates":[-100.3353486,25.7933078]},"properties":{"@id":"node/9720872008","bus":"yes","highway":"bus_stop","public_transport":"platform","shelter":"yes"}},{"type":"Feature","geometry":{"type":"Point","coordinates":[-100.0632642,25.7873404]},"properties":{"@id":"node/9733658617","bus":"yes","highway":"bus_stop","public_transport":"platform"}},{"type":"Feature","geometry":{"type":"Point","coordinates":[-100.3427091,25.8068492]},"properties":{"name":"Parque Industrial (Bodega Aurrera Puerta Del Sol)","@id":"node/9738693114","bus":"yes","highway":"bus_stop","public_transport":"platform"}},{"type":"Feature","geometry":{"type":"Point","coordinates":[-100.317116,25.8769549]},"properties":{"name":"Valle del Jaral (Primer Sector)","@id":"node/9770813281","bus":"yes","departures_board":"no","highway":"bus_stop","operator":"Secretaría de Movilidad y Planeación Urbana de Nuevo León","public_transport":"platform","shelter":"no"}},{"type":"Feature","geometry":{"type":"Point","coordinates":[-100.316715,25.8771227]},"properties":{"name":"Valle del Jaral (Segundo Sector)","@id":"node/9770826335","bus":"yes","departures_board":"no","highway":"bus_stop","operator":"Secretaría de Movilidad y Planeación Urbana de Nuevo León","public_transport":"platform","shelter":"no"}},{"type":"Feature","geometry":{"type":"Point","coordinates":[-100.3137532,25.8745736]},"properties":{"name":"Libra","@id":"node/9770860414","bus":"yes","departures_board":"no","highway":"bus_stop","operator":"Secretaría de Movilidad y Planeación Urbana de Nuevo León","public_transport":"platform","shelter":"yes"}},{"type":"Feature","geometry":{"type":"Point","coordinates":[-100.3136872,25.8747745]},"properties":{"name":"Libra","@id":"node/9770914924","bus":"yes","departures_board":"no","highway":"bus_stop","operator":"Secretaría de Movilidad y Planeación Urbana de Nuevo León","public_transport":"platform","shelter":"yes"}},{"type":"Feature","geometry":{"type":"Point","coordinates":[-100.3122032,25.8749659]},"properties":{"name":"Villlas del Arco (Sector 9)","@id":"node/9770914947","bus":"yes","departures_board":"no","highway":"bus_stop","operator":"Secretaría de Movilidad y Planeación Urbana de Nuevo León","public_transport":"platform","shelter":"no"}},{"type":"Feature","geometry":{"type":"Point","coordinates":[-100.3123887,25.875106]},"properties":{"name":"Villlas del Arco (Sector 9)","@id":"node/9770914948","bus":"yes","departures_board":"no","highway":"bus_stop","operator":"Secretaría de Movilidad y Planeación Urbana de Nuevo León","public_transport":"platform","shelter":"no"}},{"type":"Feature","geometry":{"type":"Point","coordinates":[-100.3113056,25.8722906]},"properties":{"@id":"node/9770914949","bus":"yes","departures_board":"no","highway":"bus_stop","operator":"Secretaría de Movilidad y Planeación Urbana de Nuevo León","public_transport":"platform","shelter":"no"}},{"type":"Feature","geometry":{"type":"Point","coordinates":[-100.3114893,25.8735937]},"properties":{"@id":"node/9770914950","bus":"yes","departures_board":"no","highway":"bus_stop","operator":"Secretaría de Movilidad y Planeación Urbana de Nuevo León","public_transport":"platform","shelter":"no"}},{"type":"Feature","geometry":{"type":"Point","coordinates":[-100.3104952,25.8695805]},"properties":{"@id":"node/9770914951","bus":"yes","departures_board":"no","highway":"bus_stop","operator":"Secretaría de Movilidad y Planeación Urbana de Nuevo León","public_transport":"platform","shelter":"no"}},{"type":"Feature","geometry":{"type":"Point","coordinates":[-100.3103384,25.8697887]},"properties":{"@id":"node/9770914952","bus":"yes","departures_board":"no","highway":"bus_stop","operator":"Secretaría de Movilidad y Planeación Urbana de Nuevo León","public_transport":"platform","shelter":"no"}},{"type":"Feature","geometry":{"type":"Point","coordinates":[-100.3094316,25.8667935]},"properties":{"@id":"node/9770914953","bus":"yes","departures_board":"no","highway":"bus_stop","operator":"Secretaría de Movilidad y Planeación Urbana de Nuevo León","public_transport":"platform","shelter":"no"}},{"type":"Feature","geometry":{"type":"Point","coordinates":[-100.3095798,25.8667076]},"properties":{"@id":"node/9770914954","bus":"yes","departures_board":"no","highway":"bus_stop","operator":"Secretaría de Movilidad y Planeación Urbana de Nuevo León","public_transport":"platform","shelter":"no"}},{"type":"Feature","geometry":{"type":"Point","coordinates":[-100.3118515,25.8657043]},"properties":{"@id":"node/9770914955","bus":"yes","departures_board":"no","highway":"bus_stop","operator":"Secretaría de Movilidad y Planeación Urbana de Nuevo León","public_transport":"platform","shelter":"no"}},{"type":"Feature","geometry":{"type":"Point","coordinates":[-100.3121736,25.8653675]},"properties":{"@id":"node/9770914956","bus":"yes","departures_board":"no","highway":"bus_stop","operator":"Secretaría de Movilidad y Planeación Urbana de Nuevo León","public_transport":"platform","shelter":"no"}},{"type":"Feature","geometry":{"type":"Point","coordinates":[-100.3135115,25.8650052]},"properties":{"@id":"node/9770914957","bus":"yes","departures_board":"no","highway":"bus_stop","operator":"Secretaría de Movilidad y Planeación Urbana de Nuevo León","public_transport":"platform","shelter":"no"}},{"type":"Feature","geometry":{"type":"Point","coordinates":[-100.3137658,25.864667]},"properties":{"@id":"node/9770914958","bus":"yes","departures_board":"no","highway":"bus_stop","operator":"Secretaría de Movilidad y Planeación Urbana de Nuevo León","public_transport":"platform","shelter":"no"}},{"type":"Feature","geometry":{"type":"Point","coordinates":[-100.3141148,25.8647643]},"properties":{"@id":"node/9770914959","bus":"yes","departures_board":"no","highway":"bus_stop","operator":"Secretaría de Movilidad y Planeación Urbana de Nuevo León","public_transport":"platform","shelter":"no"}},{"type":"Feature","geometry":{"type":"Point","coordinates":[-100.3150816,25.8648707]},"properties":{"@id":"node/9770914960","bus":"yes","departures_board":"no","highway":"bus_stop","operator":"Secretaría de Movilidad y Planeación Urbana de Nuevo León","public_transport":"platform","shelter":"no"}},{"type":"Feature","geometry":{"type":"Point","coordinates":[-100.3169491,25.8620538]},"properties":{"@id":"node/9770914961","bus":"yes","departures_board":"no","highway":"bus_stop","operator":"Secretaría de Movilidad y Planeación Urbana de Nuevo León","public_transport":"platform","shelter":"no"}},{"type":"Feature","geometry":{"type":"Point","coordinates":[-100.3167183,25.8617263]},"properties":{"@id":"node/9770914962","bus":"yes","departures_board":"no","highway":"bus_stop","operator":"Secretaría de Movilidad y Planeación Urbana de Nuevo León","public_transport":"platform","shelter":"no"}},{"type":"Feature","geometry":{"type":"Point","coordinates":[-100.3167308,25.8594806]},"properties":{"@id":"node/9770914963","bus":"yes","departures_board":"no","highway":"bus_stop","operator":"Secretaría de Movilidad y Planeación Urbana de Nuevo León","public_transport":"platform","shelter":"no"}},{"type":"Feature","geometry":{"type":"Point","coordinates":[-100.3163931,25.8592273]},"properties":{"@id":"node/9770914964","bus":"yes","departures_board":"no","highway":"bus_stop","operator":"Secretaría de Movilidad y Planeación Urbana de Nuevo León","public_transport":"platform","shelter":"no"}},{"type":"Feature","geometry":{"type":"Point","coordinates":[-100.3159882,25.8557688]},"properties":{"@id":"node/9770914965","bus":"yes","departures_board":"no","highway":"bus_stop","operator":"Secretaría de Movilidad y Planeación Urbana de Nuevo León","public_transport":"platform","shelter":"no"}},{"type":"Feature","geometry":{"type":"Point","coordinates":[-100.3158092,25.8555052]},"properties":{"@id":"node/9770914966","bus":"yes","departures_board":"no","highway":"bus_stop","operator":"Secretaría de Movilidad y Planeación Urbana de Nuevo León","public_transport":"platform","shelter":"no"}},{"type":"Feature","geometry":{"type":"Point","coordinates":[-100.3166331,25.8533711]},"properties":{"@id":"node/9770914967","bus":"yes","departures_board":"no","highway":"bus_stop","operator":"Secretaría de Movilidad y Planeación Urbana de Nuevo León","public_transport":"platform","shelter":"no"}},{"type":"Feature","geometry":{"type":"Point","coordinates":[-100.316488,25.8529006]},"properties":{"name":"Avenida El Jaral (Préstamos del Norte)","@id":"node/9770914968","bus":"yes","departures_board":"no","highway":"bus_stop","operator":"Secretaría de Movilidad y Planeación Urbana de Nuevo León","public_transport":"platform","shelter":"no"}},{"type":"Feature","geometry":{"type":"Point","coordinates":[-100.3399148,25.8011531]},"properties":{"@id":"node/9779346875","bus":"yes","highway":"bus_stop","public_transport":"platform","shelter":"yes"}},{"type":"Feature","geometry":{"type":"Point","coordinates":[-100.3994541,25.9452311]},"properties":{"name":"Plaza de Armas de Abasolo (Norte)","@id":"node/9788991553","bus":"yes","departures_board":"no","highway":"bus_stop","name:en":"Abasolo Main Square (North)","name:es":"Plaza de Armas de Abasolo (Norte)","public_transport":"platform","shelter":"yes"}},{"type":"Feature","geometry":{"type":"Point","coordinates":[-100.4008822,25.9451819]},"properties":{"name":"Circuito Abasolo - El Carmen (Inicio)","@id":"node/9788991554","bus":"yes","highway":"bus_stop","public_transport":"platform"}},{"type":"Feature","geometry":{"type":"Point","coordinates":[-100.3996804,25.9447493]},"properties":{"name":"Plaza de Armas de Abasolo (Sur)","@id":"node/9788991555","bus":"yes","departures_board":"no","highway":"bus_stop","name:en":"Abasolo Main Square (South)","name:es":"Plaza de Armas de Abasolo (Sur)","public_transport":"platform","shelter":"yes"}},{"type":"Feature","geometry":{"type":"Point","coordinates":[-100.4038791,25.9394177]},"properties":{"name":"Carretera Monterrey - Castaños (José Mariano Jiménez)","@id":"node/9788991592","bus":"yes","highway":"bus_stop","name:en":"Highway Monterrey - Castaños (José Mariano Jiménez)","name:es":"Carretera Monterrey - Castaños (José Mariano Jiménez)","public_transport":"platform"}},{"type":"Feature","geometry":{"type":"Point","coordinates":[-100.3926692,25.9320999]},"properties":{"name":"Carretera Monterrey - Castaños (Los Ligeros)","@id":"node/9788991593","bus":"yes","highway":"bus_stop","name:en":"Highway Monterrey - Castaños (The Light Ones)","name:es":"Carretera Monterrey - Castaños (Los Ligeros)","public_transport":"platform"}},{"type":"Feature","geometry":{"type":"Point","coordinates":[-100.3921797,25.9319022]},"properties":{"name":"Carretera Monterrey - Castaños (Rancho Ecológico Amor)","@id":"node/9788991594","bus":"yes","highway":"bus_stop","name:en":"Highway Monterrey - Castaños (Ecological Ranch Love)","name:es":"Carretera Monterrey - Castaños (Rancho Ecológico Amor)","public_transport":"platform"}},{"type":"Feature","geometry":{"type":"Point","coordinates":[-100.3771201,25.9252965]},"properties":{"name":"Carretera Monterrey - Castaños (Fraccionamiento del Valle)","@id":"node/9788991596","bus":"yes","highway":"bus_stop","name:en":"Highway Monterrey - Castaños (Valley Neighborhood)","name:es":"Carretera Monterrey - Castaños (Fraccionamiento del Valle)","public_transport":"platform"}},{"type":"Feature","geometry":{"type":"Point","coordinates":[-100.3763408,25.9251579]},"properties":{"name":"Carretera Monterrey - Castaños (Estacion de Carburación)","@id":"node/9788991597","bus":"yes","highway":"bus_stop","name:en":"Highway Monterrey - Castaños (Carburation Station)","name:es":"Carretera Monterrey - Castaños (Estacion de Carburación)","public_transport":"platform"}},{"type":"Feature","geometry":{"type":"Point","coordinates":[-100.3615503,25.9109533]},"properties":{"name":"Carretera Monterrey - Castaños (Chapultepec Oeste)","@id":"node/9788991598","bus":"yes","highway":"bus_stop","name:en":"Highway Monterrey - Castaños (Chapultepec West)","name:es":"Carretera Monterrey - Castaños (Chapultepec Oeste)","public_transport":"platform"}},{"type":"Feature","geometry":{"type":"Point","coordinates":[-100.3612862,25.9108818]},"properties":{"name":"Carretera Monterrey - Castaños (Chapultepec Este)","@id":"node/9788991599","bus":"yes","highway":"bus_stop","name:en":"Highway Monterrey - Castaños (Chapultepec East)","name:es":"Carretera Monterrey - Castaños (Chapultepec Este)","public_transport":"platform"}},{"type":"Feature","geometry":{"type":"Point","coordinates":[-100.3206888,25.8482378]},"properties":{"@id":"node/9788991600","bus":"yes","highway":"bus_stop","public_transport":"platform"}},{"type":"Feature","geometry":{"type":"Point","coordinates":[-100.320962,25.8479298]},"properties":{"name":"Carretera Monterrey - Castaños (Navistar International)","@id":"node/9788991601","bus":"yes","highway":"bus_stop","public_transport":"platform"}},{"type":"Feature","geometry":{"type":"Point","coordinates":[-100.3220937,25.8499039]},"properties":{"name":"Carretera Monterrey - Castaños (Avenida El Jaral)","@id":"node/9788991602","bus":"yes","highway":"bus_stop","name:en":"Highway Monterrey - Castaños (El Jaral Avenue)","name:es":"Carretera Monterrey - Castaños (Avenida El Jaral)","public_transport":"platform"}},{"type":"Feature","geometry":{"type":"Point","coordinates":[-100.4001378,25.9369515]},"properties":{"name":"Carretera Monterrey - Castaños (Abasolito)","@id":"node/9791011025","bus":"yes","highway":"bus_stop","name:en":"Highway Monterrey - Castaños (Abasolito)","name:es":"Carretera Monterrey - Castaños (Abasolito)","public_transport":"platform"}},{"type":"Feature","geometry":{"type":"Point","coordinates":[-100.3666792,25.9177758]},"properties":{"name":"Carretera Monterrey - Castaños (ADN Energía)","@id":"node/9791011026","bus":"yes","highway":"bus_stop","name:en":"Highway Monterrey - Castaños (DNA Energy)","name:es":"Carretera Monterrey - Castaños (ADN Energía)","public_transport":"platform","shelter":"no"}},{"type":"Feature","geometry":{"type":"Point","coordinates":[-100.4037023,25.9395509]},"properties":{"name":"Carretera Monterrey - Castaños (Abasolo)","@id":"node/9793653349","bus":"yes","highway":"bus_stop","name:en":"Highway Monterrey - Castaños (Abasolo)","name:es":"Carretera Monterrey - Castaños (Abasolo)","public_transport":"platform"}},{"type":"Feature","geometry":{"type":"Point","coordinates":[-100.3994171,25.9367516]},"properties":{"name":"Carretera Monterrey - Castaños (Ex-Hacienda de Abasolo)","@id":"node/9793656247","bus":"yes","highway":"bus_stop","name:en":"Highway Monterrey - Castaños (Former Hacienda of Abasolo)","name:es":"Carretera Monterrey - Castaños (Ex-Hacienda de Abasolo)","public_transport":"platform"}},{"type":"Feature","geometry":{"type":"Point","coordinates":[-100.3533293,25.898279]},"properties":{"name":"Carretera Monterrey - Castaños (El Carmen)","@id":"node/9800261261","bus":"yes","highway":"bus_stop","name:en":"Highway Monterrey - Castaños (El Carmen)","name:es":"Carretera Monterrey - Castaños (El Carmen)","public_transport":"platform"}},{"type":"Feature","geometry":{"type":"Point","coordinates":[-100.3531868,25.8983747]},"properties":{"name":"Carretera Monterrey - Castaños (Entrada a El Carmen)","@id":"node/9800261263","bus":"yes","highway":"bus_stop","name:en":"Highway Monterrey - Castaños (Entrance to El Carmen)","name:es":"Carretera Monterrey - Castaños (Entrada a El Carmen)","public_transport":"platform"}},{"type":"Feature","geometry":{"type":"Point","coordinates":[-100.351123,25.8948214]},"properties":{"name":"Carretera Monterrey - Castaños (Los Galenos)","@id":"node/9800261264","bus":"yes","highway":"bus_stop","name:en":"Highway Monterrey - Castaños (The Galens)","name:es":"Carretera Monterrey - Castaños (Los Galenos)","public_transport":"platform"}},{"type":"Feature","geometry":{"type":"Point","coordinates":[-100.3486965,25.8914553]},"properties":{"name":"Carretera Monterrey - Castaños (Concretos La Silla)","@id":"node/9800261265","bus":"yes","highway":"bus_stop","name:en":"Highway Monterrey - Castaños (Concrete La Silla)","name:es":"Carretera Monterrey - Castaños (Concretos La Silla)","public_transport":"platform"}},{"type":"Feature","geometry":{"type":"Point","coordinates":[-100.3448211,25.8851271]},"properties":{"name":"Carretera Monterrey - Castaños (Terza)","@id":"node/9800261266","bus":"yes","highway":"bus_stop","name:en":"Highway Monterrey - Castaños (Terza)","name:es":"Carretera Monterrey - Castaños (Terza)","public_transport":"platform"}},{"type":"Feature","geometry":{"type":"Point","coordinates":[-100.337373,25.8736871]},"properties":{"name":"Carretera Monterrey - Castaños (Los Algodones)","@id":"node/9800261267","bus":"yes","highway":"bus_stop","name:en":"Highway Monterrey - Castaños  (Los Algodones)","name:es":"Carretera Monterrey - Castaños (Los Algodones)","public_transport":"platform"}},{"type":"Feature","geometry":{"type":"Point","coordinates":[-100.337163,25.8736193]},"properties":{"name":"Carretera Monterrey - Castaños (Felipe Guerra Castro)","@id":"node/9800261268","bus":"yes","highway":"bus_stop","name:en":"Highway Monterrey - Castaños  (Felipe Guerra Castro)","name:es":"Carretera Monterrey - Castaños (Felipe Guerra Castro)","public_transport":"platform"}},{"type":"Feature","geometry":{"type":"Point","coordinates":[-100.3258003,25.8557547]},"properties":{"name":"Carretera Monterrey - Castaños (Garages y Talleres)","@id":"node/9807205833","bus":"yes","highway":"bus_stop","name:en":"Highway Monterrey - Castaños (Garages and Workshops)","name:es":"Carretera Monterrey - Castaños (Garages y Talleres)","public_transport":"platform"}},{"type":"Feature","geometry":{"type":"Point","coordinates":[-100.341261,25.8053032]},"properties":{"@id":"node/9807579918","bus":"yes","highway":"bus_stop","public_transport":"platform"}},{"type":"Feature","geometry":{"type":"Point","coordinates":[-100.3165699,25.7237893]},"properties":{"@id":"node/9817302352","bus":"yes","highway":"bus_stop","public_transport":"platform"}},{"type":"Feature","geometry":{"type":"Point","coordinates":[-100.3290342,25.7882841]},"properties":{"name":"Transmetro Fomerrey 9 (Profesor Emilio Rodríguez)","@id":"node/9863967515","bench":"no","bin":"no","bus":"yes","departures_board":"no","highway":"bus_stop","lit":"no","network":"Transmetro","operator":"Sistema de Transporte Colectivo Metrorrey","public_transport":"platform","ref":"E-17","shelter":"no","tactile_paving":"no","wheelchair":"no"}},{"type":"Feature","geometry":{"type":"Point","coordinates":[-100.3284006,25.7914677]},"properties":{"name":"Transmetro Fomerrey 9 (Profesor Miguel F. Martínez)","@id":"node/9863967516","bench":"no","bin":"no","bus":"yes","departures_board":"no","highway":"bus_stop","lit":"no","network":"Transmetro","operator":"Sistema de Transporte Colectivo Metrorrey","public_transport":"platform","ref":"E-18","shelter":"no","tactile_paving":"no","wheelchair":"no"}},{"type":"Feature","geometry":{"type":"Point","coordinates":[-100.3218776,25.7879431]},"properties":{"name":"Transmetro Fomerrey 9 (Hemsa Escobedo)","@id":"node/9865611846","bus":"yes","highway":"bus_stop","public_transport":"platform"}},{"type":"Feature","geometry":{"type":"Point","coordinates":[-100.3203786,25.784223]},"properties":{"name":"Transmetro Fomerrey 9 (Crescencio Monroy)","@id":"node/9865611847","bus":"yes","highway":"bus_stop","public_transport":"platform"}},{"type":"Feature","geometry":{"type":"Point","coordinates":[-100.321257,25.7863779]},"properties":{"name":"Transmetro Fomerrey 9 (Francisco J. Mujica)","@id":"node/9865611848","bus":"yes","highway":"bus_stop","public_transport":"platform"}},{"type":"Feature","geometry":{"type":"Point","coordinates":[-100.3201028,25.783511]},"properties":{"name":"Transmetro Fomerrey 9 (Jose Alvarado Santos)","@id":"node/9865611849","bus":"yes","highway":"bus_stop","public_transport":"platform"}},{"type":"Feature","geometry":{"type":"Point","coordinates":[-100.319119,25.7811003]},"properties":{"name":"Transmetro Fomerrey 9 (Felipe Carrillo Puerto)","@id":"node/9865611850","bus":"yes","highway":"bus_stop","public_transport":"platform"}},{"type":"Feature","geometry":{"type":"Point","coordinates":[-100.3178559,25.7766222]},"properties":{"name":"Transmetro Fomerrey 9 (Plaza Platinum)","@id":"node/9865611851","bus":"yes","highway":"bus_stop","public_transport":"platform"}},{"type":"Feature","geometry":{"type":"Point","coordinates":[-100.2927221,25.7687854]},"properties":{"name":"Carretera a Colombia (Estación Sendero - Oriente)","@id":"node/9865854611","bus":"yes","highway":"bus_stop","public_transport":"platform"}},{"type":"Feature","geometry":{"type":"Point","coordinates":[-100.2926723,25.7685994]},"properties":{"name":"Transmetro (Estación Sendero)","@id":"node/9865854612","bus":"yes","highway":"bus_stop","network":"Sistema de Transporte Colectivo Metrorrey","operator":"Sistema de Transporte Colectivo Metrorrey","public_transport":"platform"}},{"type":"Feature","geometry":{"type":"Point","coordinates":[-100.2926363,25.7688766]},"properties":{"name":"Transmetro (Ruta Monterreal)","@id":"node/9865854613","bus":"yes","highway":"bus_stop","network":"Sistema de Transporte Colectivo Metrorrey","operator":"Sistema de Transporte Colectivo Metrorrey","public_transport":"platform"}},{"type":"Feature","geometry":{"type":"Point","coordinates":[-100.2925706,25.7692092]},"properties":{"name":"Transmetro (Ruta Apodaca)","@id":"node/9865854614","bus":"yes","highway":"bus_stop","network":"Sistema de Transporte Colectivo Metrorrey","operator":"Sistema de Transporte Colectivo Metrorrey","public_transport":"platform"}},{"type":"Feature","geometry":{"type":"Point","coordinates":[-100.2925632,25.7694424]},"properties":{"name":"Tigrebus (Estación Sendero)","@id":"node/9865854615","bus":"yes","highway":"bus_stop","network":"Tigrebus (Ciencias Agropecuarias)","operator":"Universidad Autónoma de Nuevo León","public_transport":"platform"}},{"type":"Feature","geometry":{"type":"Point","coordinates":[-100.2932287,25.7684291]},"properties":{"name":"Transmetro (Ruta Fomerrey 9)","@id":"node/9865864547","bus":"yes","highway":"bus_stop","network":"Sistema de Transporte Colectivo Metrorrey","operator":"Sistema de Transporte Colectivo Metrorrey","public_transport":"platform"}},{"type":"Feature","geometry":{"type":"Point","coordinates":[-100.3135614,25.7302557]},"properties":{"@id":"node/9900314986","bus":"yes","highway":"bus_stop","public_transport":"platform"}},{"type":"Feature","geometry":{"type":"Point","coordinates":[-100.2838998,25.6383107]},"properties":{"@id":"node/9925887667","bus":"yes","highway":"bus_stop","public_transport":"platform"}},{"type":"Feature","geometry":{"type":"Point","coordinates":[-100.3116142,25.6653834]},"properties":{"@id":"node/9925887668","bus":"yes","highway":"bus_stop","public_transport":"platform"}},{"type":"Feature","geometry":{"type":"Point","coordinates":[-100.3138676,25.6657724]},"properties":{"@id":"node/9925887669","bus":"yes","highway":"bus_stop","public_transport":"platform"}},{"type":"Feature","geometry":{"type":"Point","coordinates":[-100.2971958,25.6493674]},"properties":{"@id":"node/9925887670","bus":"yes","highway":"bus_stop","public_transport":"platform"}},{"type":"Feature","geometry":{"type":"Point","coordinates":[-100.3003762,25.6311516]},"properties":{"@id":"node/9925902818","bus":"yes","highway":"bus_stop","public_transport":"platform"}},{"type":"Feature","geometry":{"type":"Point","coordinates":[-100.2927157,25.766686]},"properties":{"@id":"node/10002335178","bus":"yes","highway":"bus_stop","public_transport":"platform"}},{"type":"Feature","geometry":{"type":"Point","coordinates":[-100.3154536,25.7656878]},"properties":{"name":"Transmetro (Sendero Norte - Hacienda de Monte Falco)","@id":"node/10022575901","bus":"yes","highway":"bus_stop","public_transport":"platform","shelter":"no"}},{"type":"Feature","geometry":{"type":"Point","coordinates":[-100.315864,25.7658127]},"properties":{"name":"Licenciado Raúl Salinas Lozano (Walmart Sendero)","@id":"node/10023342781","bus":"yes","highway":"bus_stop","public_transport":"platform"}},{"type":"Feature","geometry":{"type":"Point","coordinates":[-100.2265296,25.8083203]},"properties":{"name":"Avenida del Lago (Jesús Dionisio González González - Laguna Guzmán)","@id":"node/10030510377","bus":"yes","highway":"bus_stop","public_transport":"platform"}},{"type":"Feature","geometry":{"type":"Point","coordinates":[-100.2279201,25.8084369]},"properties":{"name":"Avenida del Lago (Lago Michigan - Lago Buenos Aires)","@id":"node/10030510378","bus":"yes","highway":"bus_stop","public_transport":"platform"}},{"type":"Feature","geometry":{"type":"Point","coordinates":[-100.2293978,25.8085605]},"properties":{"name":"Avenida del Lago (Lago Buenos Aires - Antigüo Camino a Santa Rosa)","@id":"node/10030510379","bus":"yes","highway":"bus_stop","public_transport":"platform"}},{"type":"Feature","geometry":{"type":"Point","coordinates":[-100.2308836,25.8080372]},"properties":{"name":"Avenida del Lago (Antigüo Camino a Santa Rosa - Bosques de Santa Rosa)","@id":"node/10030510380","bus":"yes","highway":"bus_stop","public_transport":"platform"}},{"type":"Feature","geometry":{"type":"Point","coordinates":[-100.2342297,25.8075759]},"properties":{"name":"Avenida del Lago (Antigüo Camino a Santa Rosa - San Fernando)","@id":"node/10030510381","bus":"yes","highway":"bus_stop","public_transport":"platform"}},{"type":"Feature","geometry":{"type":"Point","coordinates":[-100.2358324,25.8076931]},"properties":{"name":"Avenida del Lago (Antigüo Camino a Santa Rosa - Avenida del Rio)","@id":"node/10030510382","bus":"yes","highway":"bus_stop","public_transport":"platform"}},{"type":"Feature","geometry":{"type":"Point","coordinates":[-100.2365964,25.8027788]},"properties":{"name":"Jardines de San Andrés (Avenida del Río - Mirto)","@id":"node/10030545749","bus":"yes","highway":"bus_stop","public_transport":"platform"}},{"type":"Feature","geometry":{"type":"Point","coordinates":[-100.2358855,25.804991]},"properties":{"name":"Avenida del Río (Río Ganges - Jardines de San Andrés)","@id":"node/10030545750","bus":"yes","highway":"bus_stop","public_transport":"platform"}},{"type":"Feature","geometry":{"type":"Point","coordinates":[-100.2359212,25.8074206]},"properties":{"name":"Avenida del Río (Río Ganges - Avenida del Lago)","@id":"node/10030545756","bus":"yes","highway":"bus_stop","public_transport":"platform"}},{"type":"Feature","geometry":{"type":"Point","coordinates":[-100.2348169,25.8075082]},"properties":{"name":"Avenida del Lago (Avenida del Río - San Fernando)","@id":"node/10030545764","bus":"yes","highway":"bus_stop","public_transport":"platform"}},{"type":"Feature","geometry":{"type":"Point","coordinates":[-100.2313021,25.807799]},"properties":{"name":"Avenida del Lago (San Fernando - Bosques de Santa Rosa)","@id":"node/10030545774","bus":"yes","highway":"bus_stop","public_transport":"platform"}},{"type":"Feature","geometry":{"type":"Point","coordinates":[-100.2297342,25.8083681]},"properties":{"name":"Avenida del Lago (Bosques de Santa Rosa - Antigüo Camino a Santa Rosa)","@id":"node/10030545781","bus":"yes","highway":"bus_stop","public_transport":"platform"}},{"type":"Feature","geometry":{"type":"Point","coordinates":[-100.2282005,25.8082573]},"properties":{"name":"Avenida del Lago (Antigüo Camino a Santa Rosa - Río Amazonas)","@id":"node/10030545810","bus":"yes","highway":"bus_stop","public_transport":"platform"}},{"type":"Feature","geometry":{"type":"Point","coordinates":[-100.2269108,25.8081491]},"properties":{"name":"Avenida del Lago (Lago Michigan - Río Senegal)","@id":"node/10030545822","bus":"yes","highway":"bus_stop","public_transport":"platform"}},{"type":"Feature","geometry":{"type":"Point","coordinates":[-100.2955753,25.7675513]},"properties":{"name":"Sendero Norte (Carretera a Colombia - Nueva Escocia)","@id":"node/10064106044","bus":"yes","highway":"bus_stop","public_transport":"platform"}},{"type":"Feature","geometry":{"type":"Point","coordinates":[-100.3002321,25.7671659]},"properties":{"name":"Sendero Norte (Plaza Sendero Escobedo)","@id":"node/10064106045","bus":"yes","highway":"bus_stop","public_transport":"platform"}},{"type":"Feature","geometry":{"type":"Point","coordinates":[-100.348102,25.8118966]},"properties":{"name":"Cucharas (Parque Industrial - Avenida de las Industrias)","@id":"node/10077711233","bus":"yes","highway":"bus_stop","public_transport":"platform"}},{"type":"Feature","geometry":{"type":"Point","coordinates":[-100.3272777,25.7925917]},"properties":{"@id":"node/10104474282","bus":"yes","highway":"bus_stop","public_transport":"platform"}},{"type":"Feature","geometry":{"type":"Point","coordinates":[-100.2884008,25.6838289]},"properties":{"name":"Transmetro (Parque Fundidora)","@id":"node/10105425166","bus":"yes","highway":"bus_stop","network":"Sistema de Transporte Colectivo Metrorrey","public_transport":"platform"}},{"type":"Feature","geometry":{"type":"Point","coordinates":[-100.289393,25.6849255]},"properties":{"name":"Transmetro (Cananea)","@id":"node/10107385676","bus":"yes","highway":"bus_stop","network":"Sistema de Transporte Colectivo Metrorrey","public_transport":"platform"}},{"type":"Feature","geometry":{"type":"Point","coordinates":[-100.2911873,25.685963]},"properties":{"name":"Transmetro (Constituyentes del 57)","@id":"node/10112843842","bus":"yes","highway":"bus_stop","network":"Sistema de Transporte Colectivo Metrorrey","public_transport":"platform"}},{"type":"Feature","geometry":{"type":"Point","coordinates":[-100.2923989,25.6846012]},"properties":{"name":"Transmetro (José Ángel Conchello)","@id":"node/10115719331","bus":"yes","highway":"bus_stop","network":"Sistema de Transporte Colectivo Metrorrey","public_transport":"platform"}},{"type":"Feature","geometry":{"type":"Point","coordinates":[-100.2916289,25.678217]},"properties":{"name":"Transmetro (Fernando Montes de Oca)","@id":"node/10115719332","bus":"yes","highway":"bus_stop","network":"Sistema de Transporte Colectivo Metrorrey","public_transport":"platform"}},{"type":"Feature","geometry":{"type":"Point","coordinates":[-100.3095985,25.7309047]},"properties":{"@id":"node/10139018066","bench":"yes","bin":"no","bus":"yes","highway":"bus_stop","public_transport":"platform","shelter":"yes"}},{"type":"Feature","geometry":{"type":"Point","coordinates":[-100.3167159,25.7727736]},"properties":{"@id":"node/10141285130","bus":"yes","highway":"bus_stop","public_transport":"platform"}},{"type":"Feature","geometry":{"type":"Point","coordinates":[-100.3284951,25.7123274]},"properties":{"@id":"node/10158834886","bus":"yes","highway":"bus_stop","public_transport":"platform"}},{"type":"Feature","geometry":{"type":"Point","coordinates":[-100.3280872,25.7123749]},"properties":{"@id":"node/10158834887","bus":"yes","highway":"bus_stop","public_transport":"platform"}},{"type":"Feature","geometry":{"type":"Point","coordinates":[-100.3080736,25.7241847]},"properties":{"@id":"node/10159719004","bus":"yes","highway":"bus_stop","public_transport":"platform"}},{"type":"Feature","geometry":{"type":"Point","coordinates":[-100.3096829,25.7235672]},"properties":{"@id":"node/10160052248","bus":"yes","highway":"bus_stop","public_transport":"platform"}},{"type":"Feature","geometry":{"type":"Point","coordinates":[-99.5362604,24.7004714]},"properties":{"@id":"node/10181016677","bus":"yes","highway":"bus_stop","public_transport":"platform"}},{"type":"Feature","geometry":{"type":"Point","coordinates":[-100.3216553,25.7873668]},"properties":{"@id":"node/10206272480","bus":"yes","highway":"bus_stop","public_transport":"platform"}},{"type":"Feature","geometry":{"type":"Point","coordinates":[-100.3211853,25.7872122]},"properties":{"@id":"node/10206272481","bus":"yes","highway":"bus_stop","public_transport":"platform"}},{"type":"Feature","geometry":{"type":"Point","coordinates":[-100.3205823,25.7857267]},"properties":{"@id":"node/10254125599","bus":"yes","highway":"bus_stop","public_transport":"platform","shelter":"yes"}},{"type":"Feature","geometry":{"type":"Point","coordinates":[-100.3203744,25.7866694]},"properties":{"@id":"node/10254138420","bus":"yes","highway":"bus_stop","public_transport":"platform","shelter":"yes"}},{"type":"Feature","geometry":{"type":"Point","coordinates":[-100.3194429,25.7879924]},"properties":{"@id":"node/10254138424","bus":"yes","highway":"bus_stop","public_transport":"platform","shelter":"yes"}},{"type":"Feature","geometry":{"type":"Point","coordinates":[-100.3202217,25.7872362]},"properties":{"@id":"node/10254138425","bus":"yes","highway":"bus_stop","public_transport":"platform","shelter":"yes"}},{"type":"Feature","geometry":{"type":"Point","coordinates":[-100.10883,25.690006]},"properties":{"@id":"node/10278376380","bus":"yes","highway":"bus_stop","public_transport":"platform"}},{"type":"Feature","geometry":{"type":"Point","coordinates":[-100.1099933,25.6896428]},"properties":{"@id":"node/10278376381","bus":"yes","highway":"bus_stop","public_transport":"platform"}},{"type":"Feature","geometry":{"type":"Point","coordinates":[-100.1158091,25.6889177]},"properties":{"@id":"node/10278376382","bus":"yes","highway":"bus_stop","public_transport":"platform"}},{"type":"Feature","geometry":{"type":"Point","coordinates":[-100.1186974,25.6870883]},"properties":{"@id":"node/10278376383","bus":"yes","highway":"bus_stop","public_transport":"platform"}},{"type":"Feature","geometry":{"type":"Point","coordinates":[-100.3092271,25.7944514]},"properties":{"@id":"node/10286860578","bus":"yes","highway":"bus_stop","public_transport":"platform"}},{"type":"Feature","geometry":{"type":"Point","coordinates":[-99.8017415,27.4309334]},"properties":{"name":"Estación Jarita","@id":"node/10725117061","public_transport":"station"}},{"type":"Feature","geometry":{"type":"Point","coordinates":[-100.2968497,25.7554801]},"properties":{"@id":"node/10731244086","bus":"yes","departures_board":"no","highway":"bus_stop","public_transport":"platform","shelter":"yes"}},{"type":"Feature","geometry":{"type":"Point","coordinates":[-100.3172537,25.7240567]},"properties":{"@id":"node/10731362886","bus":"yes","highway":"bus_stop","public_transport":"platform"}},{"type":"Feature","geometry":{"type":"Point","coordinates":[-100.3048428,25.7342408]},"properties":{"@id":"node/10767387960","bus":"yes","highway":"bus_stop","public_transport":"platform"}},{"type":"Feature","geometry":{"type":"Point","coordinates":[-100.3322864,25.7295943]},"properties":{"name":"Bernardo Reyes - Central","@id":"node/10801029998","bus":"yes","highway":"bus_stop","public_transport":"platform","ref":"R-413"}},{"type":"Feature","geometry":{"type":"Point","coordinates":[-100.3106381,25.7170925]},"properties":{"@id":"node/10811835680","bus":"yes","highway":"bus_stop","public_transport":"platform"}},{"type":"Feature","geometry":{"type":"Point","coordinates":[-100.1802856,25.6907119]},"properties":{"@id":"node/10931967910","bus":"yes","highway":"bus_stop","public_transport":"platform"}},{"type":"Feature","geometry":{"type":"Point","coordinates":[-100.5107268,25.6929154]},"properties":{"@id":"node/11072269368","bus":"yes","highway":"bus_stop","public_transport":"platform"}},{"type":"Feature","geometry":{"type":"Point","coordinates":[-100.4074457,25.7635328]},"properties":{"@id":"node/11072269369","bus":"yes","highway":"bus_stop","public_transport":"platform"}},{"type":"Feature","geometry":{"type":"Point","coordinates":[-100.5802939,25.7864624]},"properties":{"@id":"node/11072301739","bus":"yes","highway":"bus_stop","public_transport":"platform"}},{"type":"Feature","geometry":{"type":"Point","coordinates":[-100.5682526,25.800356]},"properties":{"@id":"node/11077060833","bus":"yes","highway":"bus_stop","public_transport":"platform"}},{"type":"Feature","geometry":{"type":"Point","coordinates":[-100.339074,25.7989753]},"properties":{"@id":"node/11229070577","bus":"yes","highway":"bus_stop","public_transport":"platform","shelter":"no"}},{"type":"Feature","geometry":{"type":"Point","coordinates":[-100.1719688,25.90944]},"properties":{"@id":"node/11251920360","bus":"yes","highway":"bus_stop","public_transport":"platform"}},{"type":"Feature","geometry":{"type":"Point","coordinates":[-100.1713866,25.908968]},"properties":{"@id":"node/11251920361","bus":"yes","highway":"bus_stop","public_transport":"platform"}},{"type":"Feature","geometry":{"type":"Point","coordinates":[-100.1767791,25.8959057]},"properties":{"@id":"node/11251920648","bus":"yes","highway":"bus_stop","public_transport":"platform"}},{"type":"Feature","geometry":{"type":"Point","coordinates":[-100.1756201,26.5093144]},"properties":{"@id":"node/11253909000","bus":"yes","highway":"bus_stop","public_transport":"platform"}},{"type":"Feature","geometry":{"type":"Point","coordinates":[-100.0732096,25.6294322]},"properties":{"@id":"node/11256157913","bus":"yes","highway":"bus_stop","public_transport":"platform"}},{"type":"Feature","geometry":{"type":"Point","coordinates":[-100.0732593,25.6291009]},"properties":{"@id":"node/11256157914","bus":"yes","highway":"bus_stop","public_transport":"platform"},"id":687},{"type":"Feature","geometry":{"type":"Point","coordinates":[-100.2961149,25.757277]},"properties":{"name":"Autobuses Futura","@id":"node/11380477133","addr:city":"San Nicolas de los Garza","addr:housenumber":503,"addr:postcode":66400,"addr:street":"Avenida Universidad","amenity":"bus_station","bus":"yes","public_transport":"station"}},{"type":"Feature","geometry":{"type":"Point","coordinates":[-100.1966884,25.7331246]},"properties":{"name":"211 (Pabellón)-219 (Churubusco y Provivienda)-225 (Huinalá)","@id":"node/11395315570","bench":"no","bin":"no","highway":"bus_stop","lit":"yes","shelter":"yes"}},{"type":"Feature","geometry":{"type":"Point","coordinates":[-100.1942891,25.732924]},"properties":{"name":"211 (Pabellón)-219 (Churubusco y Provivienda)-225 (Huinalá)","@id":"node/11395315571","highway":"bus_stop"}},{"type":"Feature","geometry":{"type":"Point","coordinates":[-100.1944134,25.7328837]},"properties":{"name":"211 (Pabellón)-219 (Churubusco y Provivienda)-225 (Huinalá)","@id":"node/11395315572","highway":"bus_stop"}},{"type":"Feature","geometry":{"type":"Point","coordinates":[-100.1968029,25.7330971]},"properties":{"name":"211 (Pabellón)-219 (Churubusco y Provivienda)-225 (Huinalá)","@id":"node/11395317769","bench":"no","bin":"no","highway":"bus_stop","lit":"no","shelter":"yes"}},{"type":"Feature","geometry":{"type":"Point","coordinates":[-100.198621,25.733297]},"properties":{"name":"211 (Pabellón)-219 (Churubusco y Provivienda)-225 (Huinalá)","@id":"node/11395317869","bench":"no","bin":"no","highway":"bus_stop","lit":"yes","shelter":"no"}},{"type":"Feature","geometry":{"type":"Point","coordinates":[-100.1911959,25.7325436]},"properties":{"name":"211 (Pabellón)-219 (Churubusco y Provivienda)-225 (Huinalá)","@id":"node/11460221071","highway":"bus_stop"}},{"type":"Feature","geometry":{"type":"Point","coordinates":[-100.1901187,25.7289496]},"properties":{"name":"211 (Pabellón)-219 (Churubusco y Provivienda)-225 (Huinalá)","@id":"node/11460221072","highway":"bus_stop"}},{"type":"Feature","geometry":{"type":"Point","coordinates":[-100.1926434,25.7327021]},"properties":{"name":"211 (Pabellón)-219 (Churubusco y Provivienda)-225 (Huinalá)","@id":"node/11460248169","highway":"bus_stop"}},{"type":"Feature","geometry":{"type":"Point","coordinates":[-100.192537,25.7327654]},"properties":{"name":"211 (Pabellón)-219 (Churubusco y Provivienda)-225 (Huinalá)","@id":"node/11460248269","highway":"bus_stop"}},{"type":"Feature","geometry":{"type":"Point","coordinates":[-100.1896582,25.732443]},"properties":{"name":"211 (Pabellón)-219 (Churubusco y Provivienda)-225 (Huinalá)","@id":"node/11460248270","highway":"bus_stop"}},{"type":"Feature","geometry":{"type":"Point","coordinates":[-100.1901813,25.7290714]},"properties":{"name":"211 (Pabellón)-219 (Churubusco y Provivienda)-225 (Huinalá)","@id":"node/11460248271","highway":"bus_stop"}},{"type":"Feature","geometry":{"type":"Point","coordinates":[-100.1910711,25.7326142]},"properties":{"name":"211 (Pabellón)-219 (Churubusco y Provivienda)-225 (Huinalá)","@id":"node/11460248369","highway":"bus_stop"}},{"type":"Feature","geometry":{"type":"Point","coordinates":[-100.1899651,25.7302314]},"properties":{"name":"211 (Pabellón)-219 (Churubusco y Provivienda)-225 (Huinalá)","@id":"node/11460248370","highway":"bus_stop"}},{"type":"Feature","geometry":{"type":"Point","coordinates":[-100.1899693,25.7304008]},"properties":{"name":"211 (Pabellón)-219 (Churubusco y Provivienda)-225 (Huinalá)","@id":"node/11460248569","highway":"bus_stop"}},{"type":"Feature","geometry":{"type":"Point","coordinates":[-100.1904232,25.7271667]},"properties":{"name":"211 (Pabellón)-219 (Churubusco y Provivienda)-225 (Huinalá)","@id":"node/11461381270","highway":"bus_stop"}},{"type":"Feature","geometry":{"type":"Point","coordinates":[-100.1920712,25.7238855]},"properties":{"name":"219 (Churubusco)-225 (Huinalá)","@id":"node/11461381271","highway":"bus_stop"}},{"type":"Feature","geometry":{"type":"Point","coordinates":[-100.1905185,25.7259332]},"properties":{"name":"211 (Pabellón)-219 (Churubusco y Provivienda)-225 (Huinalá)","@id":"node/11461381569","highway":"bus_stop"}},{"type":"Feature","geometry":{"type":"Point","coordinates":[-100.1905785,25.7260255]},"properties":{"name":"211 (Pabellón)-219 (Churubusco y Provivienda)-225 (Huinalá)","@id":"node/11461381669","highway":"bus_stop"}},{"type":"Feature","geometry":{"type":"Point","coordinates":[-100.1908422,25.7237779]},"properties":{"name":"219 (Churubusco y Provivienda)-225 (Huinalá)","@id":"node/11461381670","highway":"bus_stop"}},{"type":"Feature","geometry":{"type":"Point","coordinates":[-100.1930923,25.7239214]},"properties":{"name":"219 (Churubusco)-225 (Huinalá)","@id":"node/11463603769","highway":"bus_stop"}},{"type":"Feature","geometry":{"type":"Point","coordinates":[-100.1972939,25.7239602]},"properties":{"name":"219 (Churubusco)-225 (Huinalá)","@id":"node/11463603770","highway":"bus_stop"}},{"type":"Feature","geometry":{"type":"Point","coordinates":[-100.2038485,25.7223615]},"properties":{"name":"219 (Churubusco)-225 (Huinalá)","@id":"node/11463603771","highway":"bus_stop"}},{"type":"Feature","geometry":{"type":"Point","coordinates":[-100.2124241,25.7237273]},"properties":{"name":"219 (Churubusco)-225 (Huinalá)","@id":"node/11463603772","highway":"bus_stop"}},{"type":"Feature","geometry":{"type":"Point","coordinates":[-100.2000654,25.7230886]},"properties":{"name":"219 (Churubusco)-225 (Huinalá)","@id":"node/11463603869","highway":"bus_stop"}},{"type":"Feature","geometry":{"type":"Point","coordinates":[-100.206431,25.7227179]},"properties":{"name":"219 (Churubusco)-225 (Huinalá)","@id":"node/11463603870","highway":"bus_stop"}},{"type":"Feature","geometry":{"type":"Point","coordinates":[-100.2092328,25.7231904]},"properties":{"name":"219 (Churubusco)-225 (Huinalá)","@id":"node/11463603871","highway":"bus_stop"}},{"type":"Feature","geometry":{"type":"Point","coordinates":[-100.2109393,25.7234751]},"properties":{"name":"219 (Churubusco)-225 (Huinalá)","@id":"node/11463603872","highway":"bus_stop"}},{"type":"Feature","geometry":{"type":"Point","coordinates":[-100.2019996,25.7223416]},"properties":{"name":"219 (Churubusco)-225 (Huinalá)","@id":"node/11463603969","highway":"bus_stop"}},{"type":"Feature","geometry":{"type":"Point","coordinates":[-100.3236656,25.6903273]},"properties":{"@id":"node/11753444787","bench":"yes","bus":"yes","highway":"bus_stop","public_transport":"platform","shelter":"yes"}},{"type":"Feature","geometry":{"type":"Point","coordinates":[-100.3232142,25.69004]},"properties":{"@id":"node/11753444788","bench":"yes","bus":"yes","highway":"bus_stop","public_transport":"platform","shelter":"yes"}},{"type":"Feature","geometry":{"type":"Point","coordinates":[-100.2877179,25.6751442]},"properties":{"name":"Embarcadero Santa Lucía","@id":"node/11860673703","amenity":"ferry_terminal","ferry":"yes","public_transport":"station"}},{"type":"Feature","geometry":{"type":"Point","coordinates":[-100.3071146,25.671285]},"properties":{"name":"Embarcadero Inicio del Santa Lucía","@id":"node/11860673704","amenity":"ferry_terminal","ferry":"yes","public_transport":"station"}},{"type":"Feature","geometry":{"type":"Point","coordinates":[-100.2091455,25.7692864]},"properties":{"name":"Embarcaderos","@id":"node/11860705328","amenity":"ferry_terminal","ferry":"yes","public_transport":"station"}},{"type":"Feature","geometry":{"type":"Point","coordinates":[-100.453103,25.6743829]},"properties":{"@id":"node/11884994719","highway":"bus_stop"}},{"type":"Feature","geometry":{"type":"Point","coordinates":[-100.3095341,25.6676921]},"properties":{"name":"21024 Padre Mier - Juan Zuazua","@id":"node/11907403978","bus":"yes","highway":"bus_stop","public_transport":"platform"}},{"type":"Feature","geometry":{"type":"Point","coordinates":[-100.31163,25.6680779]},"properties":{"@id":"node/11907403979","bus":"yes","highway":"bus_stop","public_transport":"platform"}}]}